{"type":"FeatureCollection","crs":{"type":"name","properties":{"name":"urn:ogc:def:crs:OGC:1.3:CRS84"}},"features":[{"type":"Feature","properties":{"shapeName":"Trashigang","shapeISO":"BT-41","shapeID":"66845921B97990669910096","shapeGroup":"BTN","shapeType":"ADM1"},"geometry":{"type":"Polygon","coordinates":[[[92.02628408900006,27.14982640100004],[92.00264174500006,27.147956326000042],[91.97638741300005,27.136889604000032],[91.95897664500006,27.137135543000056],[91.95427850200008,27.145743069000048],[91.93880226400006,27.147464495000065],[91.91531154500007,27.14008676900005],[91.89955894600007,27.139594904000035],[91.89486080200004,27.146726744000034],[91.88297726300004,27.146480826000072],[91.87219916800007,27.141316424000024],[91.83489038000005,27.122132269000076],[91.82521773200006,27.105650945000036],[91.82770498400004,27.094580036000025],[91.84097033100005,27.086214623000046],[91.84207577700005,27.077356447000057],[91.83019223700006,27.071204523000063],[91.81416327600004,27.069235837000065],[91.80808332500004,27.052746728000045],[91.79537070100008,27.048808671000074],[91.78210535500006,27.048808671000074],[91.76524731000006,27.05102384500003],[91.76027280500006,27.055946297000048],[91.75198196300005,27.057915217000073],[91.72047676400007,27.05176222700004],[91.71494953700005,27.048562538000056],[91.70278963500004,27.03674751500006],[91.69505151600004,27.032070391000047],[91.68233889200008,27.032808897000052],[91.67515349600006,27.038224461000027],[91.66603357000008,27.04043984300006],[91.65857181300004,27.035270549000074],[91.64337193600005,27.021730794000064],[91.63812107000007,27.006712067000024],[91.63895015400004,26.990952556000025],[91.63729198600004,26.980362894000052],[91.62236847000008,26.965584957000033],[91.61020856900006,26.96090487200007],[91.60081228200005,26.948341578000054],[91.59141599500003,26.939472528000067],[91.57345250400004,26.93503774100003],[91.56322713300005,26.937747909000052],[91.55244903800008,26.943414414000074],[91.54332911200004,26.951790465000045],[91.53282738000007,26.966570213000068],[91.52591834500004,26.984057075000067],[91.50656327300004,26.991342192000047],[91.50681013700006,26.99262913900003],[91.50930211600007,27.005619437000064],[91.51577933600004,27.022161630000028],[91.51707478000009,27.031393423000054],[91.51664296600006,27.040624456000046],[91.51362026300006,27.045624283000052],[91.50455215500006,27.05370045500007],[91.48900682600004,27.057546047000073],[91.47691601600008,27.06446778000003],[91.46093887300003,27.079078925000033],[91.44625717400004,27.087537138000073],[91.44107539800007,27.09368816500006],[91.43416636300003,27.097147969000048],[91.43114366000003,27.10675797500005],[91.43071184500008,27.11905757900007],[91.43675725100007,27.14019436500007],[91.43632543600006,27.146726744000034],[91.42337099600007,27.148263719000056],[91.39746211600004,27.156716704000075],[91.40774470200006,27.175301415000035],[91.41179296500007,27.195107293000035],[91.41381709600006,27.21670969400003],[91.42596188400006,27.23770801300003],[91.46644451000003,27.27549500400005],[91.49815590000009,27.29708180500006],[91.50895126700004,27.30967216700003],[91.51502366100004,27.32465883200007],[91.51502366100004,27.337246065000045],[91.49950532100007,27.354626084000074],[91.48870995400006,27.36361468000007],[91.47521574500007,27.382787910000047],[91.46846864100007,27.39716565300006],[91.46374566800006,27.410343608000062],[91.47049277200006,27.419926588000067],[91.49140879600003,27.403155827000035],[91.51637308100004,27.38758069900007],[91.53121671100007,27.38039143800006],[91.54875918200008,27.37619748700007],[91.57169933700004,27.34803398400004],[91.58114528300007,27.346835378000037],[91.60273601600005,27.358221610000044],[91.61150725200008,27.372003377000055],[91.62972443300004,27.38398612700007],[91.70394258100004,27.413937323000027],[91.75859412500006,27.44447917900004],[91.77816072800005,27.460046284000043],[91.78558254200004,27.466033047000053],[91.80042617200007,27.470822223000027],[91.86722250400004,27.47800559800004],[91.87666845000007,27.473216733000072],[91.91580165500005,27.47261811100003],[91.93334412600007,27.461842347000072],[91.95291072900005,27.45884889200005],[91.97517617300008,27.463039706000075],[91.98192327700008,27.471420856000066],[91.99136922300005,27.476808401000028],[92.01835764000003,27.480399952000027],[92.02308061300005,27.475012582000033],[92.02375532400004,27.46124366300006],[92.01700821900005,27.452263006000067],[92.02847829700005,27.441485253000053],[92.04669547800006,27.42771214700008],[92.04467134700008,27.413937323000027],[92.04737018900005,27.404952816000048],[92.05344258200006,27.40016078000008],[92.05614142400003,27.391175154000052],[92.04737018900005,27.37859405000006],[92.04534605700007,27.366610716000025],[92.04669547800006,27.351629724000077],[92.05479200300005,27.348633282000037],[92.06018968700005,27.342040825000026],[92.06086439700005,27.32885473500005],[92.06356323900008,27.321062217000076],[92.07098505400006,27.312669662000076],[92.08380455200006,27.303676935000055],[92.11619065200006,27.301878302000034],[92.12091362500007,27.29348429600003],[92.11888949400009,27.28389037000005],[92.10606999600003,27.271297084000025],[92.08178042000009,27.274295615000028],[92.05074374100008,27.273695915000076],[92.04602076800006,27.269497926000042],[92.04399663600003,27.262900767000076],[92.05141845100007,27.258102587000053],[92.06491266000006,27.25330420000006],[92.06963563300008,27.228709218000063],[92.06963563300008,27.21850970500003],[92.06086439700005,27.202308558000027],[92.05816555500007,27.189706038000054],[92.02847829700005,27.178302531000043],[92.02375532400004,27.173500706000027],[92.02628408900006,27.14982640100004]]]}},{"type":"Feature","properties":{"shapeName":"Trashiyangtse","shapeISO":"BT-TY","shapeID":"66845921B83925222569127","shapeGroup":"BTN","shapeType":"ADM1"},"geometry":{"type":"Polygon","coordinates":[[[91.77816072800005,27.460046284000043],[91.75859412500006,27.44447917900004],[91.70394258100004,27.413937323000027],[91.62972443300004,27.38398612700007],[91.61150725200008,27.372003377000055],[91.60273601600005,27.358221610000044],[91.58114528300007,27.346835378000037],[91.57169933700004,27.34803398400004],[91.54875918200008,27.37619748700007],[91.53121671100007,27.38039143800006],[91.51637308100004,27.38758069900007],[91.49140879600003,27.403155827000035],[91.47049277200006,27.419926588000067],[91.46024363100008,27.435778295000034],[91.43985900800004,27.450579782000034],[91.41762123800004,27.454690954000057],[91.39723661500005,27.453046504000042],[91.36943940200007,27.461268510000025],[91.35924709000005,27.471134109000047],[91.34534848400006,27.47935476600003],[91.32496386100007,27.48017679800006],[91.32056822004915,27.482590770491356],[91.30550581200004,27.490862656000047],[91.30179951600007,27.502369344000044],[91.31569812300006,27.51880538200004],[91.33886246700007,27.530309147000025],[91.35276107400006,27.542633274000025],[91.35183450000005,27.55742040100006],[91.34812820500008,27.57220553800005],[91.35183450000005,27.586988682000026],[91.36573310700004,27.621474935000037],[91.36943940200007,27.67072217300006],[91.37963171300004,27.691235309000035],[91.38596947800005,27.715321016000075],[91.37588835500009,27.725819932000036],[91.37470234100005,27.73631783700006],[91.37766737700008,27.74733954900006],[91.38596947800005,27.75626107000005],[91.40138766500007,27.778299342000025],[91.39723661500005,27.783545891000074],[91.37826038400004,27.786693700000058],[91.37944639800008,27.796136578000073],[91.39782962200007,27.816593332000025],[91.40494570800007,27.830753444000038],[91.40494570800007,27.867456240000024],[91.41146878800004,27.880037195000057],[91.41917788200004,27.88527882900007],[91.42392193900008,27.89209257300007],[91.41858487400003,27.909911108000074],[91.42214291800008,27.940300657000023],[91.43103802600007,27.947634785000048],[91.45890936500007,27.955492227000036],[91.47669958100005,27.958111247000033],[91.50990798500004,27.95182549200007],[91.52947722300007,27.935585597000056],[91.53955834600004,27.931918186000075],[91.56742968500004,27.92825065100004],[91.57395276400007,27.917247298000063],[91.58462689400005,27.90886304000003],[91.60063808900009,27.90205035100007],[91.64036957200005,27.899954053000044],[91.64689265100009,27.89209257300007],[91.62020732700006,27.875319508000075],[91.58759193000003,27.87584370600007],[91.57810381400003,27.85906812500008],[91.57691780000005,27.85330091900005],[91.58759193000003,27.833375484000044],[91.60419613200008,27.818691243000046],[91.62257935500008,27.80767675900006],[91.63088145600005,27.799284021000062],[91.63503250700006,27.789841417000048],[91.63266047800005,27.777774673000067],[91.63562551400008,27.767280764000077],[91.64333460800003,27.760459180000055],[91.64214859300006,27.751538003000064],[91.62791642000008,27.72949431400008],[91.62613739900007,27.70377104100004],[91.60301011700005,27.694320152000046],[91.59767305200006,27.680667423000045],[91.59114997300009,27.669638973000076],[91.57988283600008,27.66333650100006],[91.56446464900006,27.63864832300004],[91.56387164100005,27.632869434000042],[91.56802269200006,27.62288699800007],[91.57691780000005,27.613954573000058],[91.57810381400003,27.602393883000047],[91.56683667700008,27.58925525500007],[91.56387164100005,27.579794467000056],[91.57988283600008,27.57138419300003],[91.59114997300009,27.55245872000006],[91.59174298000005,27.541943159000027],[91.59589403100006,27.53721082800007],[91.61487026200007,27.54457214400003],[91.62376537000006,27.51564985300007],[91.64689265100009,27.499870851000026],[91.65163670900006,27.484089587000028],[91.66764790400003,27.489350259000048],[91.68543812000007,27.50460478900004],[91.71212344400004,27.493558617000076],[91.71686750200007,27.486193886000024],[91.71686750200007,27.477776448000043],[91.71983253800005,27.472515222000027],[91.72991366100007,27.470936806000054],[91.75304094200004,27.47882866300006],[91.75956402100007,27.474619743000062],[91.76549409400008,27.46725374500005],[91.78247061700006,27.463522871000066],[91.77816072800005,27.460046284000043]]]}},{"type":"Feature","properties":{"shapeName":"Mongar","shapeISO":"BT-42","shapeID":"66845921B85706545486898","shapeGroup":"BTN","shapeType":"ADM1"},"geometry":{"type":"Polygon","coordinates":[[[91.47049277200006,27.419926588000067],[91.46374566800006,27.410343608000062],[91.46846864100007,27.39716565300006],[91.47521574500007,27.382787910000047],[91.48870995400006,27.36361468000007],[91.49950532100007,27.354626084000074],[91.51502366100004,27.337246065000045],[91.51502366100004,27.32465883200007],[91.50895126700004,27.30967216700003],[91.49815590000009,27.29708180500006],[91.46644451000003,27.27549500400005],[91.42596188400006,27.23770801300003],[91.41381709600006,27.21670969400003],[91.41179296500007,27.195107293000035],[91.40774470200006,27.175301415000035],[91.39746211600004,27.156716704000075],[91.38709856300005,27.14787947800005],[91.37759864100008,27.13058723000006],[91.37889408500007,27.117135855000072],[91.38234860200004,27.109833003000062],[91.39487122800006,27.103682863000074],[91.39962118900007,27.09945444600004],[91.39616667200005,27.09061269400007],[91.38450767500007,27.091766006000057],[91.37284867900007,27.088306035000073],[91.35471246300006,27.074849579000045],[91.31714458600004,27.067928486000028],[91.31023555100006,27.061776046000034],[91.23898613000006,27.026392962000045],[91.22300898700007,27.015621984000063],[91.20832728800008,26.992537841000058],[91.20255562000006,26.979208501000073],[91.19303695900004,26.976627672000063],[91.19149333200005,26.964463969000064],[91.17888570700006,26.951762503000054],[91.17722203700004,26.948261844000058],[91.17097560800005,26.93511727300006],[91.14054661700004,26.93812381400005],[91.10336786200008,26.959401618000072],[91.09895398700007,26.973143442000037],[91.10251203000007,26.99058257200005],[91.10191902300005,27.00590563700007],[91.09420992900004,27.020170061000044],[91.08234978500008,27.028093959000046],[91.06930362600008,27.029150436000066],[91.05566446000006,27.033904462000066],[91.04321130900007,27.05133416700005],[91.05032739500007,27.062424389000057],[91.04202529400004,27.07562560300005],[91.02838612900007,27.08671342200006],[91.02423507800006,27.101495473000057],[91.01949102000003,27.14266375300008],[91.03787424400008,27.180651787000045],[91.03846725100004,27.198586087000024],[91.03372319300007,27.219681571000024],[91.02423507800006,27.23655508300004],[91.01237493400004,27.246045309000067],[90.99754975400003,27.26555045400005],[90.98806163800003,27.28821429800007],[90.98984066000008,27.306658198000036],[90.98450359500004,27.33563527800004],[90.96552736400008,27.360918178000077],[90.96196932100008,27.37197763100005],[90.97205044300006,27.38250941700005],[90.99873576800007,27.385668757000076],[91.04854837400006,27.385668757000076],[91.07523369800003,27.39251368400005],[91.08175677800006,27.40251704700006],[91.10607007300007,27.413572341000076],[91.11970923900003,27.42462653000007],[91.12563931100004,27.435153299000035],[91.13512742700004,27.44357399200004],[91.16240575900008,27.431995374000053],[91.17782394600005,27.435153299000035],[91.19739318400008,27.429890040000032],[91.21577640800007,27.39567273800003],[91.22526452300008,27.38514220600007],[91.25550789100004,27.381982851000032],[91.30769252600004,27.390407598000024],[91.31480861200004,27.397252232000028],[91.32251770600004,27.41199308100005],[91.31777364800007,27.419362768000042],[91.30413448200005,27.43304802600005],[91.30057643900005,27.442521441000054],[91.30947154700004,27.45988725600006],[91.32056822004915,27.482590770491356],[91.32496386100007,27.48017679800006],[91.34534848400006,27.47935476600003],[91.35924709000005,27.471134109000047],[91.36943940200007,27.461268510000025],[91.39723661500005,27.453046504000042],[91.41762123800004,27.454690954000057],[91.43985900800004,27.450579782000034],[91.46024363100008,27.435778295000034],[91.47049277200006,27.419926588000067]]]}},{"type":"Feature","properties":{"shapeName":"Lhuntse","shapeISO":"BT-44","shapeID":"66845921B11724657218086","shapeGroup":"BTN","shapeType":"ADM1"},"geometry":{"type":"Polygon","coordinates":[[[91.47669958100005,27.958111247000033],[91.45890936500007,27.955492227000036],[91.43103802600007,27.947634785000048],[91.42214291800008,27.940300657000023],[91.41858487400003,27.909911108000074],[91.42392193900008,27.89209257300007],[91.41917788200004,27.88527882900007],[91.41146878800004,27.880037195000057],[91.40494570800007,27.867456240000024],[91.40494570800007,27.830753444000038],[91.39782962200007,27.816593332000025],[91.37944639800008,27.796136578000073],[91.37826038400004,27.786693700000058],[91.39723661500005,27.783545891000074],[91.40138766500007,27.778299342000025],[91.38596947800005,27.75626107000005],[91.37766737700008,27.74733954900006],[91.37470234100005,27.73631783700006],[91.37588835500009,27.725819932000036],[91.38596947800005,27.715321016000075],[91.37963171300004,27.691235309000035],[91.36943940200007,27.67072217300006],[91.36573310700004,27.621474935000037],[91.35183450000005,27.586988682000026],[91.34812820500008,27.57220553800005],[91.35183450000005,27.55742040100006],[91.35276107400006,27.542633274000025],[91.33886246700007,27.530309147000025],[91.31569812300006,27.51880538200004],[91.30179951600007,27.502369344000044],[91.30550581200004,27.490862656000047],[91.32056822004915,27.482590770491356],[91.30947154700004,27.45988725600006],[91.30057643900005,27.442521441000054],[91.30413448200005,27.43304802600005],[91.31777364800007,27.419362768000042],[91.32251770600004,27.41199308100005],[91.31480861200004,27.397252232000028],[91.30769252600004,27.390407598000024],[91.25550789100004,27.381982851000032],[91.22526452300008,27.38514220600007],[91.21577640800007,27.39567273800003],[91.19739318400008,27.429890040000032],[91.17782394600005,27.435153299000035],[91.16240575900008,27.431995374000053],[91.13512742700004,27.44357399200004],[91.12563931100004,27.435153299000035],[91.11970923900003,27.42462653000007],[91.10607007300007,27.413572341000076],[91.08175677800006,27.40251704700006],[91.06552320500003,27.41274981300006],[91.05625746800007,27.43742300300005],[91.05625746800007,27.457979781000063],[91.04699173000006,27.470312009000054],[91.02753368100008,27.48017679800006],[91.00344276300007,27.496616150000023],[90.98398471400003,27.505656748000035],[90.97286582800007,27.515518370000052],[90.98213156600008,27.536060578000047],[90.99325045100005,27.550848590000044],[91.00900220500006,27.62311686700008],[91.01734136900006,27.693696627000065],[91.00714905800004,27.70354134100006],[90.97193925500005,27.729789571000026],[90.96174694300004,27.740451110000038],[90.95618750000006,27.768330200000037],[90.95526092700004,27.788824976000058],[90.93765602500008,27.799480734000042],[90.92375741900008,27.804398423000066],[90.90893223800003,27.818330667000055],[90.89225391000008,27.85110536800005],[90.88206159900005,27.86585075200003],[90.86353012400008,27.88305116600003],[90.84129235300009,27.898611091000078],[90.81905458300008,27.922356137000065],[90.80978884500007,27.93545462000003],[90.81442171400005,27.95182549200007],[90.83295318900008,27.982105061000027],[90.83573291000005,28.002559418000033],[90.84314550100004,28.03282474100007],[90.84870494300009,28.041820899000072],[90.86908956600007,28.04263869400006],[90.89410705800003,28.047545335000052],[90.91356510700007,28.053269466000074],[90.93394973000005,28.05163403100005],[90.95526092700004,28.041820899000072],[90.96730638600008,28.03282474100007],[90.98568960900008,28.012572456000044],[90.99399171000005,27.997388923000074],[91.00585185400007,27.98586895400007],[91.02127004200008,27.97539518700006],[91.05507145300004,27.973824034000074],[91.07997775600006,27.96858669200003],[91.10429105200006,27.96858669200003],[91.11852322500005,27.970681659000036],[91.15647568600008,28.000006926000026],[91.16655680900004,28.01728415100007],[91.20213724200005,28.047643466000068],[91.21399738600007,28.06229662000004],[91.22407850900004,28.069099191000078],[91.25787992000005,28.068052670000043],[91.29049531600003,28.07066895500003],[91.30472749000006,28.076424556000063],[91.32014567700008,28.090550634000067],[91.32429672800004,28.08898116100005],[91.33141281400003,28.072238695000067],[91.34445897300003,28.052876964000063],[91.35750513100004,28.045026621000034],[91.37944639800008,28.042933099000038],[91.39130654300004,28.036128872000063],[91.41917788200004,28.015190090000033],[91.45950237200003,28.00210128300006],[91.47373454500007,27.990058176000048],[91.49093175400003,27.98325060700006],[91.51405903600005,27.98167956900005],[91.50872197100006,27.970681659000036],[91.49302029700004,27.955022074000055],[91.47669958100005,27.958111247000033]]]}},{"type":"Feature","properties":{"shapeName":"Bumthang","shapeISO":"BT-33","shapeID":"66845921B56477857686012","shapeGroup":"BTN","shapeType":"ADM1"},"geometry":{"type":"Polygon","coordinates":[[[91.08175677800006,27.40251704700006],[91.07523369800003,27.39251368400005],[91.04854837400006,27.385668757000076],[90.99873576800007,27.385668757000076],[90.97205044300006,27.38250941700005],[90.96196932100008,27.37197763100005],[90.94536511900009,27.369344528000056],[90.91215671500004,27.368291269000053],[90.88309936200005,27.353544595000074],[90.87242523200007,27.346170521000033],[90.86946019600003,27.339849496000056],[90.86530914500008,27.33668884800005],[90.84277487100007,27.347750721000068],[90.81193849600004,27.376190466000025],[90.80600842400008,27.377243649000036],[90.75856784700005,27.36355148100006],[90.72951049300008,27.378296823000028],[90.71468531300007,27.405149360000053],[90.70697621900007,27.413045924000073],[90.68206991700004,27.42515289200003],[90.62217618800008,27.445152801000063],[90.60675800100006,27.453572731000065],[90.60319995700007,27.46620142000006],[90.61268807300007,27.479880868000066],[90.62514122400006,27.490928412000073],[90.62988528200003,27.502500842000074],[90.62692024600005,27.513020176000055],[90.59489785600005,27.54930415800004],[90.59015379900006,27.572961169000052],[90.57532861800007,27.597138621000056],[90.56702651700004,27.61500548400005],[90.55991043100005,27.63917366100003],[90.56050343800007,27.648104028000034],[90.58718876300009,27.69169475900003],[90.59074680600008,27.748913988000027],[90.57177057500007,27.774626607000073],[90.55753840200003,27.78302124800007],[90.53144608500008,27.804005016000076],[90.52233338980994,27.823578395589312],[90.51899293300005,27.830753444000038],[90.52077195500004,27.845960395000077],[90.52432999800004,27.858019565000063],[90.55516637300008,27.87374690000007],[90.56109644500003,27.880037195000057],[90.56406148100007,27.89209257300007],[90.56346847400005,27.903622548000044],[90.55753840200003,27.91253123300004],[90.54864329400004,27.919867246000024],[90.52551601200008,27.959682629000042],[90.52551601200008,27.970157921000066],[90.53322510600003,27.986392616000046],[90.54389923600007,28.028277306000064],[90.56406148100007,28.073285175000024],[90.57414260400003,28.069622448000075],[90.60023492100004,28.079563845000052],[90.62039716600003,28.059156827000038],[90.63047828900005,28.061250032000032],[90.63225731100005,28.072761936000063],[90.65894263500007,28.072761936000063],[90.68562796000003,28.08270304200005],[90.69096502500008,28.08845799900007],[90.70579020500008,28.092643228000043],[90.71231328400006,28.091073786000038],[90.72535944300006,28.08270304200005],[90.74492868100003,28.06334319800004],[90.75204476800008,28.06072673500006],[90.77991610700008,28.059156827000038],[90.81727556100003,28.05183028500005],[90.84685510100007,28.038827611000045],[90.84314550100004,28.03282474100007],[90.83573291000005,28.002559418000033],[90.83295318900008,27.982105061000027],[90.81442171400005,27.95182549200007],[90.80978884500007,27.93545462000003],[90.81905458300008,27.922356137000065],[90.84129235300009,27.898611091000078],[90.86353012400008,27.88305116600003],[90.88206159900005,27.86585075200003],[90.89225391000008,27.85110536800005],[90.90893223800003,27.818330667000055],[90.92375741900008,27.804398423000066],[90.93765602500008,27.799480734000042],[90.95526092700004,27.788824976000058],[90.95618750000006,27.768330200000037],[90.96174694300004,27.740451110000038],[90.97193925500005,27.729789571000026],[91.00714905800004,27.70354134100006],[91.01734136900006,27.693696627000065],[91.00900220500006,27.62311686700008],[90.99325045100005,27.550848590000044],[90.98213156600008,27.536060578000047],[90.97286582800007,27.515518370000052],[90.98398471400003,27.505656748000035],[91.00344276300007,27.496616150000023],[91.02753368100008,27.48017679800006],[91.04699173000006,27.470312009000054],[91.05625746800007,27.457979781000063],[91.05625746800007,27.43742300300005],[91.06552320500003,27.41274981300006],[91.08175677800006,27.40251704700006]]]}},{"type":"Feature","properties":{"shapeName":"Sarpang","shapeISO":"BT-31","shapeID":"66845921B74484063825186","shapeGroup":"BTN","shapeType":"ADM1"},"geometry":{"type":"Polygon","coordinates":[[[89.63650332000003,26.751188265000053],[89.63612379500006,26.754238360000045],[89.66458814100008,26.752882773000067],[89.67028101100004,26.754577254000026],[89.67863055200007,26.750171549000072],[89.68963676600004,26.73593656500003],[89.70026345500008,26.737292354000033],[89.72189635800004,26.757966142000043],[89.74466783500009,26.768471052000052],[89.75149927800004,26.773892561000025],[89.76402359100007,26.778636170000027],[89.76908817900005,26.776827583000056],[89.76971646000004,26.776603219000037],[89.79476508500005,26.774909066000077],[89.80235557700007,26.778297347000034],[89.82398848000008,26.79455969000003],[89.83727184200006,26.78541240900006],[89.84486233400008,26.77626439000005],[89.85662759700006,26.771181839000064],[89.86953143400007,26.772198368000033],[89.89040528800007,26.792188243000055],[89.90520674800007,26.794898464000028],[89.90976104300006,26.79083310900006],[89.91735153600007,26.77321488700005],[89.92532155300006,26.766099061000034],[89.93518919300004,26.761016055000027],[89.93784586500004,26.763727020000033],[89.94619540600007,26.781685527000036],[89.94505683300008,26.80980352000006],[89.94999065300004,26.81454562700003],[89.95947876800005,26.81861013200006],[89.97807547400004,26.822674491000043],[90.00502172200004,26.83622130300006],[90.00550443100008,26.836352912000052],[90.01868460800006,26.83994639200006],[90.02361842800008,26.838253185000042],[90.02741367400006,26.825722665000058],[90.02627510000008,26.816916606000063],[90.02210033000006,26.80946479000005],[90.02096175600008,26.80167373200004],[90.02323890300005,26.795914780000032],[90.03082939600006,26.791510678000066],[90.05056467600008,26.790155535000054],[90.07447472700005,26.791849461000027],[90.08206521900007,26.797947385000043],[90.08396284200006,26.805738699000074],[90.09534858100005,26.814884341000038],[90.11470433600005,26.81827142900005],[90.13292151800005,26.823351870000067],[90.13823486200005,26.829109429000027],[90.14203010800009,26.838591828000062],[90.15113869900006,26.871096884000053],[90.16442206100004,26.885991913000055],[90.18339829100006,26.901223435000077],[90.20427214500006,26.90833077600007],[90.21527835900008,26.915776082000036],[90.22324837600007,26.924236060000055],[90.23121839300006,26.941830783000057],[90.24032698400003,26.980732438000075],[90.25398987000005,27.00575770000006],[90.25398987000005,27.01319656900006],[90.25740559200005,27.023677775000067],[90.27638182200008,27.054101544000048],[90.27789992100008,27.071338019000052],[90.28624946200006,27.078434621000042],[90.29801472500009,27.084517065000057],[90.31661143200006,27.10208671500004],[90.33482861300007,27.114248703000044],[90.33672623600006,27.119991405000064],[90.34431672900007,27.125058250000052],[90.34735292600004,27.11559995400006],[90.35532294200004,27.106478696000067],[90.38796205900007,27.097694560000036],[90.40238399500004,27.10107315600004],[90.41870355300006,27.098032425000042],[90.42705309500008,27.090599179000037],[90.43198691500004,27.081137970000043],[90.43502311200007,27.069648286000074],[90.44223408000005,27.06119923700004],[90.45627649000005,27.05714346800005],[90.47069842600007,27.05781943900007],[90.48929513200005,27.06086126200006],[90.49271085300006,27.056805480000037],[90.48967465700008,27.050045518000047],[90.49043370600003,27.03990481200003],[90.49498800100008,27.03043932500003],[90.51187684700005,27.023867950000067],[90.52966706300003,27.019641781000075],[90.54271322200003,27.00432058900003],[90.55398035900004,27.00379223500005],[90.57295658900006,27.01435884700004],[90.57710764000007,27.027565716000026],[90.60913002900008,27.04446824300004],[90.62692024600005,27.038130094000053],[90.64945452000006,27.038130094000053],[90.66368669300005,27.033904462000066],[90.67613984400003,27.00590563700007],[90.68503495300007,27.00379223500005],[90.69570908200006,26.98952573200006],[90.70045314000004,26.958873053000048],[90.69748810400006,26.943543584000054],[90.68681397400007,26.920809845000065],[90.67969788800008,26.913407174000042],[90.65360557000008,26.91552227300008],[90.63759437600004,26.912349610000035],[90.62751325300007,26.90706164100004],[90.62810626000004,26.898071525000034],[90.63225731100005,26.88114701300003],[90.63107129600007,26.874799667000048],[90.62276919500005,26.865806984000073],[90.61446709400008,26.84676129500008],[90.62336220200007,26.826124849000053],[90.63285031800007,26.81606983300003],[90.66843075100007,26.813423628000066],[90.69215103900007,26.80336748600007],[90.70460419100004,26.795957126000076],[90.71527832000004,26.782723137000062],[90.73010350100003,26.78378191300004],[90.73959161600004,26.79119306800004],[90.76805596200006,26.808660304000057],[90.83743780600008,26.804426069000044],[90.88902943400007,26.814482118000058],[90.90444762100003,26.814482118000058],[90.92283084500008,26.81130662000004],[90.92994693100007,26.80495535700004],[90.94032195500006,26.787688969000044],[90.91749378000009,26.784311297000045],[90.88962244100009,26.782193746000075],[90.87539026800005,26.778487935000044],[90.81964759000005,26.776370274000044],[90.74611469500007,26.776370274000044],[90.73188252200003,26.77478200300004],[90.72535944300006,26.771605394000062],[90.70163915500007,26.767369777000056],[90.69037201700007,26.770546504000038],[90.67376781600007,26.785899435000033],[90.66427970000007,26.78537005900006],[90.65479158500005,26.779017344000067],[90.64648948400009,26.776370274000044],[90.64055941200007,26.780076154000028],[90.63225731100005,26.797545101000026],[90.62039716600003,26.798074421000024],[90.56999155300008,26.809718837000048],[90.54567825800007,26.818715976000078],[90.50599421500004,26.823690558000067],[90.47752986900008,26.838591828000062],[90.46234888400005,26.848750661000054],[90.44754742400005,26.86838848600007],[90.43084834100006,26.88666891300005],[90.41756497900008,26.893777170000078],[90.38644396100005,26.88937687400005],[90.37733537000008,26.886330414000042],[90.36063628700003,26.878883167000026],[90.32989479300005,26.851459530000056],[90.30218949600004,26.839607753000053],[90.28321326500009,26.833850728000073],[90.27144800200006,26.831480103000047],[90.26727323200004,26.837914541000032],[90.25436939500008,26.848750661000054],[90.21603740800003,26.841639574000055],[90.20389262100008,26.837575895000043],[90.19250688200003,26.827754735000042],[90.18491639000007,26.81454562700003],[90.18339829100006,26.806416179000053],[90.18985021000003,26.796253550000074],[90.19630212800007,26.77321488700005],[90.12343340200005,26.74779917500007],[90.06802280800008,26.732208060000062],[90.05398039700003,26.729835312000034],[90.00995554200006,26.730852210000023],[89.97200308000004,26.72576762800003],[89.94353873400007,26.72576762800003],[89.91583343700006,26.723055758000044],[89.88509194300008,26.717970828000034],[89.86915190900004,26.721360807000053],[89.84675995700007,26.71898783200004],[89.83727184200006,26.71559778200003],[89.82740420200008,26.706444145000034],[89.82436800500005,26.694577223000067],[89.81715703700007,26.67931793500003],[89.80766892200006,26.674909317000072],[89.75681262300003,26.678300577000073],[89.74656545800008,26.684404591000032],[89.74125211400008,26.70203657500008],[89.70937204600006,26.707122217000062],[89.69798630800005,26.71729282000007],[89.68735961800007,26.72407271700007],[89.68318484800005,26.72407271700007],[89.65851574800007,26.716275800000062],[89.64295523800007,26.71661480800003],[89.63688284400007,26.720343823000064],[89.63498522100008,26.716953814000078],[89.62056328600005,26.715258772000027],[89.61183422000005,26.723055758000044],[89.60993659700006,26.72780148800007],[89.61866566300006,26.736953408000034],[89.62473805700006,26.742037491000076],[89.63194902400005,26.74712134500004],[89.63650332000003,26.751188265000053]]]}},{"type":"Feature","properties":{"shapeName":"Trongsa","shapeISO":"BT-32","shapeID":"66845921B42953625422300","shapeGroup":"BTN","shapeType":"ADM1"},"geometry":{"type":"Polygon","coordinates":[[[90.52233338980994,27.823578395589312],[90.53144608500008,27.804005016000076],[90.55753840200003,27.78302124800007],[90.57177057500007,27.774626607000073],[90.59074680600008,27.748913988000027],[90.58718876300009,27.69169475900003],[90.56050343800007,27.648104028000034],[90.55991043100005,27.63917366100003],[90.56702651700004,27.61500548400005],[90.57532861800007,27.597138621000056],[90.59015379900006,27.572961169000052],[90.59489785600005,27.54930415800004],[90.62692024600005,27.513020176000055],[90.62988528200003,27.502500842000074],[90.62514122400006,27.490928412000073],[90.61268807300007,27.479880868000066],[90.60319995700007,27.46620142000006],[90.60675800100006,27.453572731000065],[90.62217618800008,27.445152801000063],[90.68206991700004,27.42515289200003],[90.70697621900007,27.413045924000073],[90.71468531300007,27.405149360000053],[90.72951049300008,27.378296823000028],[90.75856784700005,27.36355148100006],[90.76627694100006,27.35617807400007],[90.76864897000007,27.346170521000033],[90.76449791900006,27.33352811000003],[90.75797484000003,27.322991665000075],[90.74789371700007,27.317723068000078],[90.73662658000006,27.315615559000037],[90.72417342900007,27.309819702000027],[90.70697621900007,27.28347108500003],[90.69393006100006,27.268713129000048],[90.68206991700004,27.259751985000037],[90.63759437600004,27.240245822000077],[90.61861814500008,27.229700527000034],[90.60913002900008,27.22179090000003],[90.61209506500006,27.211771233000036],[90.62276919500005,27.20175066400003],[90.63996640400006,27.191201724000052],[90.64945452000006,27.18170682500005],[90.65419857800003,27.172211118000064],[90.65123354100007,27.160604157000023],[90.64530346900005,27.14846831600005],[90.63462934000006,27.14741296300008],[90.60972303700004,27.153217280000035],[90.56287546700008,27.143191453000043],[90.54982930800008,27.138442062000024],[90.54271322200003,27.129470441000024],[90.53796916400006,27.119442483000057],[90.53737615700004,27.106246432000034],[90.54923630100006,27.087241386000073],[90.54864329400004,27.077737653000042],[90.54212021400008,27.066120885000032],[90.53559713500005,27.05978395900007],[90.51187684700005,27.023867950000067],[90.49498800100008,27.03043932500003],[90.49043370600003,27.03990481200003],[90.48967465700008,27.050045518000047],[90.49271085300006,27.056805480000037],[90.48929513200005,27.06086126200006],[90.47069842600007,27.05781943900007],[90.45627649000005,27.05714346800005],[90.44223408000005,27.06119923700004],[90.43502311200007,27.069648286000074],[90.43198691500004,27.081137970000043],[90.42705309500008,27.090599179000037],[90.41870355300006,27.098032425000042],[90.40238399500004,27.10107315600004],[90.38796205900007,27.097694560000036],[90.35532294200004,27.106478696000067],[90.34735292600004,27.11559995400006],[90.34431672900007,27.125058250000052],[90.34094251800008,27.148402357000066],[90.33167678000007,27.15499809000005],[90.33226520200003,27.156359346000045],[90.33630964900004,27.165715325000065],[90.36318028800008,27.194564307000064],[90.38449148500007,27.23494034600003],[90.38449148500007,27.24894493900007],[90.37244602600003,27.28024295000006],[90.37059287800008,27.299182201000065],[90.36410686200009,27.307415650000053],[90.34372223900004,27.326350266000077],[90.32148446800005,27.37079274200005],[90.30387956700008,27.399588524000023],[90.30295299300008,27.427554388000033],[90.29424320000004,27.44146887900007],[90.29246417800005,27.454098955000063],[90.28831312700004,27.460939642000028],[90.28772012000007,27.46725374500005],[90.29661522800006,27.488824203000036],[90.31262642300004,27.502500842000074],[90.31914950200007,27.51144234000003],[90.33100964700003,27.517227628000057],[90.37489218000007,27.523538505000033],[90.38853134600004,27.528797292000036],[90.39505442600006,27.536685001000023],[90.40750757700005,27.565076065000028],[90.41343764900006,27.58189693500003],[90.41521667100005,27.608699865000062],[90.41936772100007,27.615530936000027],[90.43419290200006,27.61185272000006],[90.45376214000004,27.61185272000006],[90.46384326200007,27.61815815800003],[90.49527264500006,27.684343325000043],[90.50357474600008,27.694845223000073],[90.51602789700007,27.719520704000047],[90.51780691900007,27.74524026100005],[90.52233338980994,27.823578395589312]]]}},{"type":"Feature","properties":{"shapeName":"Tsirang","shapeISO":"BT-21","shapeID":"66845921B73017953941834","shapeGroup":"BTN","shapeType":"ADM1"},"geometry":{"type":"Polygon","coordinates":[[[90.34431672900007,27.125058250000052],[90.33672623600006,27.119991405000064],[90.33482861300007,27.114248703000044],[90.31661143200006,27.10208671500004],[90.29801472500009,27.084517065000057],[90.28624946200006,27.078434621000042],[90.27789992100008,27.071338019000052],[90.27638182200008,27.054101544000048],[90.25740559200005,27.023677775000067],[90.25398987000005,27.01319656900006],[90.25398987000005,27.00575770000006],[90.24032698400003,26.980732438000075],[90.23121839300006,26.941830783000057],[90.22324837600007,26.924236060000055],[90.21527835900008,26.915776082000036],[90.20427214500006,26.90833077600007],[90.18339829100006,26.901223435000077],[90.16442206100004,26.885991913000055],[90.15113869900006,26.871096884000053],[90.14203010800009,26.838591828000062],[90.13823486200005,26.829109429000027],[90.13292151800005,26.823351870000067],[90.11470433600005,26.81827142900005],[90.09534858100005,26.814884341000038],[90.08396284200006,26.805738699000074],[90.08206521900007,26.797947385000043],[90.07447472700005,26.791849461000027],[90.05056467600008,26.790155535000054],[90.03082939600006,26.791510678000066],[90.02323890300005,26.795914780000032],[90.02096175600008,26.80167373200004],[90.02210033000006,26.80946479000005],[90.02627510000008,26.816916606000063],[90.02741367400006,26.825722665000058],[90.02361842800008,26.838253185000042],[90.01868460800006,26.83994639200006],[90.00550443100008,26.836352912000052],[90.01137875900008,26.859987808000028],[90.02561093200006,26.869509940000057],[90.04755219900005,26.912878393000028],[90.05111024200005,26.926097170000048],[90.05585430000008,26.962572957000077],[90.06415640100005,26.98688358800007],[90.06712143700008,27.015943754000034],[90.07305150900004,27.048165331000064],[90.07305150900004,27.077737653000042],[90.06854937911804,27.087507840663974],[90.06356339400008,27.098328055000025],[90.06297038700006,27.129470441000024],[90.06771444400005,27.143191453000043],[90.08076060300004,27.171683555000072],[90.09262074700007,27.181179307000036],[90.10685292000005,27.17537644400005],[90.12642215800008,27.157438412000033],[90.13768929500009,27.153217280000035],[90.15251447600008,27.153217280000035],[90.16911867800007,27.157966043000044],[90.20469911100008,27.15849367100003],[90.21240820400004,27.156910780000032],[90.22604737000006,27.150578992000078],[90.23375646400007,27.145302228000048],[90.24976765900004,27.133692470000028],[90.25569773100005,27.12683159200003],[90.27289494000007,27.132109228000047],[90.33226520200003,27.156359346000045],[90.33167678000007,27.15499809000005],[90.34094251800008,27.148402357000066],[90.34431672900007,27.125058250000052]]]}},{"type":"Feature","properties":{"shapeName":"Dagana","shapeISO":"BT-22","shapeID":"66845921B15316385818209","shapeGroup":"BTN","shapeType":"ADM1"},"geometry":{"type":"Polygon","coordinates":[[[90.00550443100008,26.836352912000052],[90.00502172200004,26.83622130300006],[89.97807547400004,26.822674491000043],[89.95947876800005,26.81861013200006],[89.94999065300004,26.81454562700003],[89.94505683300008,26.80980352000006],[89.94619540600007,26.781685527000036],[89.93784586500004,26.763727020000033],[89.93518919300004,26.761016055000027],[89.92532155300006,26.766099061000034],[89.91735153600007,26.77321488700005],[89.90976104300006,26.79083310900006],[89.90520674800007,26.794898464000028],[89.89040528800007,26.792188243000055],[89.86953143400007,26.772198368000033],[89.85662759700006,26.771181839000064],[89.84486233400008,26.77626439000005],[89.83727184200006,26.78541240900006],[89.82398848000008,26.79455969000003],[89.80235557700007,26.778297347000034],[89.79476508500005,26.774909066000077],[89.76971646000004,26.776603219000037],[89.76908817900005,26.776827583000056],[89.76461363300007,26.799927022000077],[89.76461363300007,26.818120599000054],[89.76646678100008,26.82969681000003],[89.77851224000005,26.852019019000068],[89.78592483000006,26.859458777000043],[89.80538287900004,26.872683806000055],[89.80630945300004,26.87846927000004],[89.79704371500009,26.89251844900008],[89.79889686200005,26.90160816300005],[89.79797028900003,26.909044658000028],[89.79241084600005,26.926394575000074],[89.78870455100008,26.932177288000048],[89.76831992800004,26.95034959700007],[89.76461363300007,26.957782879000035],[89.76461363300007,26.971822185000065],[89.75534789500006,27.001546701000052],[89.74886187900006,27.012278624000032],[89.72569753500005,27.026311131000057],[89.69975346900009,27.027136518000077],[89.68585486300003,27.047769221000067],[89.67380940400005,27.049419673000045],[89.66824996100007,27.058496727000033],[89.66361709200004,27.073348504000023],[89.63767302700006,27.10304615600006],[89.63464329958195,27.11787860750871],[89.63396673100004,27.12119084300008],[89.63489330500005,27.13108670500003],[89.64415904300006,27.153349193000054],[89.65157163300006,27.195388454000067],[89.65991079700007,27.21763812100005],[89.67658912500008,27.23164489100003],[89.69048773100008,27.23905952700005],[89.70688808600005,27.243919964000042],[89.71828494500005,27.24729743100005],[89.74793530500006,27.257182112000066],[89.76739335400003,27.256358422000062],[89.79426399400006,27.232468764000032],[89.82113463300004,27.216814138000075],[89.83318009200008,27.201981411000077],[89.86283045300007,27.189619297000036],[89.88599479700008,27.183025610000072],[89.89526053400004,27.176431532000038],[89.91101228900004,27.162417824000045],[89.91008571500004,27.147577863000038],[89.91379201000007,27.130262084000037],[89.93973607500004,27.115417853000054],[89.95456125600003,27.11789202800003],[89.98143189500007,27.136034308000035],[90.01015568200006,27.13273593100007],[90.02127456700003,27.127788182000074],[90.04536548500005,27.10634540800004],[90.06854937911804,27.087507840663974],[90.07305150900004,27.077737653000042],[90.07305150900004,27.048165331000064],[90.06712143700008,27.015943754000034],[90.06415640100005,26.98688358800007],[90.05585430000008,26.962572957000077],[90.05111024200005,26.926097170000048],[90.04755219900005,26.912878393000028],[90.02561093200006,26.869509940000057],[90.01137875900008,26.859987808000028],[90.00550443100008,26.836352912000052]]]}},{"type":"Feature","properties":{"shapeName":"Wangdue Phodrang","shapeISO":"BT-24","shapeID":"66845921B16337540791352","shapeGroup":"BTN","shapeType":"ADM1"},"geometry":{"type":"Polygon","coordinates":[[[90.54389923600007,28.028277306000064],[90.53322510600003,27.986392616000046],[90.52551601200008,27.970157921000066],[90.52551601200008,27.959682629000042],[90.54864329400004,27.919867246000024],[90.55753840200003,27.91253123300004],[90.56346847400005,27.903622548000044],[90.56406148100007,27.89209257300007],[90.56109644500003,27.880037195000057],[90.55516637300008,27.87374690000007],[90.52432999800004,27.858019565000063],[90.52077195500004,27.845960395000077],[90.51899293300005,27.830753444000038],[90.52233338980994,27.823578395589312],[90.51780691900007,27.74524026100005],[90.51602789700007,27.719520704000047],[90.50357474600008,27.694845223000073],[90.49527264500006,27.684343325000043],[90.46384326200007,27.61815815800003],[90.45376214000004,27.61185272000006],[90.43419290200006,27.61185272000006],[90.41936772100007,27.615530936000027],[90.41521667100005,27.608699865000062],[90.41343764900006,27.58189693500003],[90.40750757700005,27.565076065000028],[90.39505442600006,27.536685001000023],[90.38853134600004,27.528797292000036],[90.37489218000007,27.523538505000033],[90.33100964700003,27.517227628000057],[90.31914950200007,27.51144234000003],[90.31262642300004,27.502500842000074],[90.29661522800006,27.488824203000036],[90.28772012000007,27.46725374500005],[90.28831312700004,27.460939642000028],[90.29246417800005,27.454098955000063],[90.29424320000004,27.44146887900007],[90.30295299300008,27.427554388000033],[90.30387956700008,27.399588524000023],[90.32148446800005,27.37079274200005],[90.34372223900004,27.326350266000077],[90.36410686200009,27.307415650000053],[90.37059287800008,27.299182201000065],[90.37244602600003,27.28024295000006],[90.38449148500007,27.24894493900007],[90.38449148500007,27.23494034600003],[90.36318028800008,27.194564307000064],[90.33630964900004,27.165715325000065],[90.33226520200003,27.156359346000045],[90.27289494000007,27.132109228000047],[90.25569773100005,27.12683159200003],[90.24976765900004,27.133692470000028],[90.23375646400007,27.145302228000048],[90.22604737000006,27.150578992000078],[90.21240820400004,27.156910780000032],[90.20469911100008,27.15849367100003],[90.16911867800007,27.157966043000044],[90.15251447600008,27.153217280000035],[90.13768929500009,27.153217280000035],[90.12642215800008,27.157438412000033],[90.10685292000005,27.17537644400005],[90.09262074700007,27.181179307000036],[90.08076060300004,27.171683555000072],[90.06771444400005,27.143191453000043],[90.06297038700006,27.129470441000024],[90.06356339400008,27.098328055000025],[90.06854937911804,27.087507840663974],[90.04536548500005,27.10634540800004],[90.02127456700003,27.127788182000074],[90.01015568200006,27.13273593100007],[89.98143189500007,27.136034308000035],[89.95456125600003,27.11789202800003],[89.93973607500004,27.115417853000054],[89.91379201000007,27.130262084000037],[89.91008571500004,27.147577863000038],[89.91101228900004,27.162417824000045],[89.89526053400004,27.176431532000038],[89.88599479700008,27.183025610000072],[89.86283045300007,27.189619297000036],[89.83318009200008,27.201981411000077],[89.82113463300004,27.216814138000075],[89.79426399400006,27.232468764000032],[89.76739335400003,27.256358422000062],[89.74793530500006,27.257182112000066],[89.71828494500005,27.24729743100005],[89.70688808600005,27.243919964000042],[89.69512060000005,27.26377141100005],[89.65713107600004,27.266242297000076],[89.64323246900005,27.276948837000077],[89.63581987900005,27.325527089000047],[89.64323246900005,27.34528164900007],[89.71087235400006,27.362564],[89.74608215800004,27.377375296000025],[89.75812761700007,27.388893823000046],[89.75812761700007,27.451402029000064],[89.76739335400003,27.46537928400005],[89.82947379700005,27.48017679800006],[89.84615212500006,27.491684602000078],[89.86190387900007,27.506478583000046],[89.88136192800005,27.514696602000072],[89.89313939400006,27.518383133000043],[89.89711368200005,27.519627119000063],[89.92861719000007,27.54099013700005],[89.95826755100006,27.591915954000058],[89.97772560000004,27.609159662000025],[89.99533050200006,27.619011991000036],[90.02034799300009,27.61080177900004],[90.03609974700004,27.61080177900004],[90.04721863300006,27.61572798000003],[90.04907178000008,27.62804251400007],[90.04165919000008,27.640355664000026],[90.02961373100004,27.65348816200003],[89.99811022300008,27.68221000400007],[89.97494587900007,27.729789571000026],[89.98143189500007,27.74291131700005],[90.00644938700003,27.756031482000026],[90.05741094400008,27.777348378000056],[90.06111723900005,27.795382489000076],[90.06111723900005,27.808496327000057],[90.06601982300003,27.819878765000055],[90.07594242000005,27.84291262100004],[90.08242843600004,27.85110536800005],[90.11207879700004,27.85438229300007],[90.13524314100005,27.849466868000036],[90.15470119000008,27.86830812200003],[90.19269071400004,27.93136151500005],[90.21863478000006,27.960009997000043],[90.22512079600006,27.987014461000058],[90.23068023900004,27.999286982000058],[90.24457884600008,28.00419559900007],[90.26218374700005,28.00174131800003],[90.28442151800004,27.994378141000027],[90.29646697700008,27.987014461000058],[90.30295299300008,27.973922231000074],[90.30665928800005,27.959191574000045],[90.31777817300008,27.93381739700004],[90.32889705900004,27.929724229000044],[90.35020825500004,27.92726825400007],[90.36596000900005,27.92726825400007],[90.38541805800008,27.922356137000065],[90.41692156700003,27.92481222300006],[90.43174674700003,27.932998776000034],[90.42618730400005,27.954280908000044],[90.41506841900008,27.967375521000065],[90.41043555000005,27.982105061000027],[90.41414184500007,27.99274181100003],[90.45398451700004,27.987014461000058],[90.45769081300006,28.000923212000032],[90.45769081300006,28.01728415100007],[90.47436914000008,28.036096158000078],[90.47436914000008,28.05163403100005],[90.47992858300006,28.064716815000054],[90.51884468100008,28.067169660000047],[90.53366986200007,28.07044003200008],[90.56260831200007,28.070041918000072],[90.54389923600007,28.028277306000064]]]}},{"type":"Feature","properties":{"shapeName":"Punakha","shapeISO":"BT-23","shapeID":"66845921B22612990788005","shapeGroup":"BTN","shapeType":"ADM1"},"geometry":{"type":"Polygon","coordinates":[[[90.06601982300003,27.819878765000055],[90.06111723900005,27.808496327000057],[90.06111723900005,27.795382489000076],[90.05741094400008,27.777348378000056],[90.00644938700003,27.756031482000026],[89.98143189500007,27.74291131700005],[89.97494587900007,27.729789571000026],[89.99811022300008,27.68221000400007],[90.02961373100004,27.65348816200003],[90.04165919000008,27.640355664000026],[90.04907178000008,27.62804251400007],[90.04721863300006,27.61572798000003],[90.03609974700004,27.61080177900004],[90.02034799300009,27.61080177900004],[89.99533050200006,27.619011991000036],[89.97772560000004,27.609159662000025],[89.95826755100006,27.591915954000058],[89.92861719000007,27.54099013700005],[89.89711368200005,27.519627119000063],[89.89313939400006,27.518383133000043],[89.87765563300007,27.542633274000025],[89.85078499400004,27.57713347400005],[89.83873953500006,27.582061189000058],[89.81001574800007,27.58945234600003],[89.79982343600005,27.597664158000043],[89.80075001000006,27.614906962000077],[89.80352973100008,27.627221589000044],[89.85078499400004,27.646101326000064],[89.84800527200008,27.657591745000047],[89.83688638700005,27.666619084000047],[89.82298778000006,27.675645677000034],[89.79982343600005,27.68221000400007],[89.79148427200005,27.691235309000035],[89.78407168200005,27.729789571000026],[89.77665909200005,27.749471597000024],[89.79889686200005,27.77078977700006],[89.82391435400007,27.78144730200006],[89.84800527200008,27.78472633000007],[89.88599479700008,27.808496327000057],[89.90637942000006,27.82816411700003],[89.92398432100003,27.85520150900004],[89.93417663300005,27.86748900500004],[89.94529551800008,27.86912723200004],[89.97679902600004,27.843731923000064],[89.99533050200006,27.837996676000046],[90.02312771500004,27.83471925500004],[90.03609974700004,27.831441735000055],[90.06601982300003,27.819878765000055]]]}},{"type":"Feature","properties":{"shapeName":"Thimpu","shapeISO":"BT-15","shapeID":"66845921B82067974050695","shapeGroup":"BTN","shapeType":"ADM1"},"geometry":{"type":"Polygon","coordinates":[[[89.70688808600005,27.243919964000042],[89.69048773100008,27.23905952700005],[89.67658912500008,27.23164489100003],[89.65991079700007,27.21763812100005],[89.65157163300006,27.195388454000067],[89.64415904300006,27.153349193000054],[89.63489330500005,27.13108670500003],[89.63396673100004,27.12119084300008],[89.63464329958195,27.11787860750871],[89.60803897400007,27.137555487000043],[89.60196658000007,27.141270612000028],[89.59171941500006,27.145323336000047],[89.57122508600008,27.15005132700003],[89.57122508600008,27.170311880000042],[89.59285798900004,27.20339620900006],[89.59779180900006,27.217234700000063],[89.59665323500008,27.231071472000053],[89.59058084100008,27.251654707000057],[89.58299034900006,27.25840247900004],[89.57502033200007,27.260426731000052],[89.57122508600008,27.25941461000008],[89.54010406700007,27.241194850000056],[89.52757975500003,27.236470721000046],[89.52867088800008,27.255534726000064],[89.55654222700008,27.332474510000054],[89.56306530700004,27.36618472200007],[89.56899537900006,27.386195305000058],[89.56010027100007,27.394093223000027],[89.56128628500005,27.405149360000053],[89.57018139300004,27.42620560900008],[89.56721635700006,27.43567961100007],[89.55713523500003,27.444626534000065],[89.55239117700006,27.454098955000063],[89.56010027100007,27.46672758400007],[89.56603034300008,27.472515222000027],[89.56247229900004,27.486719954000023],[89.54824012600005,27.513020176000055],[89.54112404000006,27.551932966000038],[89.52926389600003,27.593985342000053],[89.52333382300003,27.60712340400005],[89.51443871500004,27.617632719000028],[89.50020654200006,27.62446323300003],[89.48716038300006,27.633920164000074],[89.44446386400006,27.644952217000025],[89.43794078500008,27.655457901000034],[89.43497574900005,27.68749400100006],[89.43616176300009,27.70324601300007],[89.44564987900009,27.743665769000074],[89.45691701600003,27.779348672000026],[89.45632400800008,27.79403823100006],[89.44920792200008,27.81187288500007],[89.44090582100006,27.82026465000007],[89.42489462600008,27.830229028000076],[89.40591839500007,27.84491170800004],[89.41244147500004,27.866407761000062],[89.41896455400007,27.881609712000056],[89.44861491500006,27.916723301000047],[89.45869603700004,27.95182549200007],[89.46877716000006,27.96701544000007],[89.49546248400009,27.978537424000024],[89.51681074400005,27.979584816000056],[89.53697298900005,27.97801372400005],[89.55061215500007,27.972252858000047],[89.56543733600006,27.935061689000065],[89.58382055900006,27.925630907000027],[89.58559958100005,27.917247298000063],[89.58263454500008,27.90467066700006],[89.55713523500003,27.86221374400003],[89.53875201100004,27.807152232000078],[89.53993802500008,27.788267570000073],[89.54468208300005,27.77987333300007],[89.57255342200006,27.78144730200006],[89.58915762400005,27.784070532000044],[89.60161077500004,27.780397992000076],[89.62058700600005,27.756785843000046],[89.63837722300008,27.728969410000047],[89.64312128000006,27.716370953000023],[89.65557443200004,27.694845223000073],[89.66802758300008,27.68224282500006],[89.67573667700003,27.684343325000043],[89.68225975600006,27.69747053900005],[89.68166674900004,27.705871127000023],[89.67751569900008,27.721620487000052],[89.67039961200004,27.72949431400008],[89.67455066300005,27.73526809200007],[89.69174787200006,27.742616095000074],[89.70894508100008,27.74524026100005],[89.77665909200005,27.749471597000024],[89.78407168200005,27.729789571000026],[89.79148427200005,27.691235309000035],[89.79982343600005,27.68221000400007],[89.82298778000006,27.675645677000034],[89.83688638700005,27.666619084000047],[89.84800527200008,27.657591745000047],[89.85078499400004,27.646101326000064],[89.80352973100008,27.627221589000044],[89.80075001000006,27.614906962000077],[89.79982343600005,27.597664158000043],[89.81001574800007,27.58945234600003],[89.83873953500006,27.582061189000058],[89.85078499400004,27.57713347400005],[89.87765563300007,27.542633274000025],[89.89313939400006,27.518383133000043],[89.88136192800005,27.514696602000072],[89.86190387900007,27.506478583000046],[89.84615212500006,27.491684602000078],[89.82947379700005,27.48017679800006],[89.76739335400003,27.46537928400005],[89.75812761700007,27.451402029000064],[89.75812761700007,27.388893823000046],[89.74608215800004,27.377375296000025],[89.71087235400006,27.362564],[89.64323246900005,27.34528164900007],[89.63581987900005,27.325527089000047],[89.64323246900005,27.276948837000077],[89.65713107600004,27.266242297000076],[89.69512060000005,27.26377141100005],[89.70688808600005,27.243919964000042]]]}},{"type":"Feature","properties":{"shapeName":"Gasa","shapeISO":"BT-GA","shapeID":"66845921B30697351958460","shapeGroup":"BTN","shapeType":"ADM1"},"geometry":{"type":"Polygon","coordinates":[[[90.47992858300006,28.064716815000054],[90.47436914000008,28.05163403100005],[90.47436914000008,28.036096158000078],[90.45769081300006,28.01728415100007],[90.45769081300006,28.000923212000032],[90.45398451700004,27.987014461000058],[90.41414184500007,27.99274181100003],[90.41043555000005,27.982105061000027],[90.41506841900008,27.967375521000065],[90.42618730400005,27.954280908000044],[90.43174674700003,27.932998776000034],[90.41692156700003,27.92481222300006],[90.38541805800008,27.922356137000065],[90.36596000900005,27.92726825400007],[90.35020825500004,27.92726825400007],[90.32889705900004,27.929724229000044],[90.31777817300008,27.93381739700004],[90.30665928800005,27.959191574000045],[90.30295299300008,27.973922231000074],[90.29646697700008,27.987014461000058],[90.28442151800004,27.994378141000027],[90.26218374700005,28.00174131800003],[90.24457884600008,28.00419559900007],[90.23068023900004,27.999286982000058],[90.22512079600006,27.987014461000058],[90.21863478000006,27.960009997000043],[90.19269071400004,27.93136151500005],[90.15470119000008,27.86830812200003],[90.13524314100005,27.849466868000036],[90.11207879700004,27.85438229300007],[90.08242843600004,27.85110536800005],[90.07594242000005,27.84291262100004],[90.06601982300003,27.819878765000055],[90.03609974700004,27.831441735000055],[90.02312771500004,27.83471925500004],[89.99533050200006,27.837996676000046],[89.97679902600004,27.843731923000064],[89.94529551800008,27.86912723200004],[89.93417663300005,27.86748900500004],[89.92398432100003,27.85520150900004],[89.90637942000006,27.82816411700003],[89.88599479700008,27.808496327000057],[89.84800527200008,27.78472633000007],[89.82391435400007,27.78144730200006],[89.79889686200005,27.77078977700006],[89.77665909200005,27.749471597000024],[89.70894508100008,27.74524026100005],[89.69174787200006,27.742616095000074],[89.67455066300005,27.73526809200007],[89.67039961200004,27.72949431400008],[89.67751569900008,27.721620487000052],[89.68166674900004,27.705871127000023],[89.68225975600006,27.69747053900005],[89.67573667700003,27.684343325000043],[89.66802758300008,27.68224282500006],[89.65557443200004,27.694845223000073],[89.64312128000006,27.716370953000023],[89.63837722300008,27.728969410000047],[89.62058700600005,27.756785843000046],[89.60161077500004,27.780397992000076],[89.58915762400005,27.784070532000044],[89.57255342200006,27.78144730200006],[89.54468208300005,27.77987333300007],[89.53993802500008,27.788267570000073],[89.53875201100004,27.807152232000078],[89.55713523500003,27.86221374400003],[89.58263454500008,27.90467066700006],[89.58559958100005,27.917247298000063],[89.58382055900006,27.925630907000027],[89.56543733600006,27.935061689000065],[89.55061215500007,27.972252858000047],[89.53697298900005,27.97801372400005],[89.51953750100006,27.979372342000033],[89.51045897800003,28.008270090000053],[89.52192905500004,28.038645904000077],[89.55229102500005,28.070799186000045],[89.56645994400003,28.079728946000046],[89.58400241500004,28.087467471000025],[89.59547249200006,28.095800643000075],[89.61099083200008,28.112465046000068],[89.63258156500007,28.141621522000037],[89.64809990500004,28.15173518100005],[89.70679971300007,28.178502019000064],[89.73108928800008,28.16839088900008],[89.76684894100003,28.173149187000035],[89.79383735800008,28.185044005000066],[89.80530743500003,28.19515356000005],[89.80328330400005,28.218936977000055],[89.81272925000007,28.230232244000035],[89.82824759000005,28.23677106300005],[89.83499469400005,28.233204484000055],[89.87075434700006,28.236176642000032],[89.90314044700006,28.24747008500003],[89.91461052500006,28.256385116000047],[89.92405647100009,28.277183956000044],[89.94969546700008,28.283125737000034],[90.00299759100005,28.28431405300006],[90.01514237800006,28.287284785000054],[90.04078137500005,28.30451339900003],[90.06844450200003,28.326490685000067],[90.08868581500008,28.33480523000003],[90.12039720500007,28.338368407000075],[90.14198793900005,28.33658683300007],[90.16492809300007,28.328272428000048],[90.17774759200006,28.31758152200007],[90.18381998500007,28.306889541000032],[90.19124180000006,28.29797873600006],[90.23577268800005,28.308077592000075],[90.24724276600006,28.316987551000068],[90.25668871200008,28.331241933000058],[90.26141168500004,28.341337630000055],[90.27693002500007,28.341931464000027],[90.28367712900007,28.328272428000048],[90.28974952300007,28.294414205000066],[90.29784604800005,28.28490820600007],[90.30999083600005,28.28253157300003],[90.32618388600008,28.28253157300003],[90.35654585500004,28.27480715200005],[90.38218485100003,28.27599556100006],[90.40107674300003,28.278966525000044],[90.41996863500003,28.28490820600007],[90.44290879000005,28.288473055000054],[90.45370415700006,28.285502356000052],[90.46584894500006,28.28431405300006],[90.47529489000004,28.292037785000048],[90.49688562400007,28.288473055000054],[90.49688562400007,28.27599556100006],[90.53399469800007,28.249847499000055],[90.56907964000004,28.242120708000073],[90.60686342400004,28.23736548200003],[90.60821284500008,28.219531494000023],[90.59674276800007,28.210613383000066],[90.58054971700005,28.182665147000023],[90.56907964000004,28.168985688000078],[90.53399469800007,28.152924960000064],[90.52994643500006,28.145786086000044],[90.53129585600004,28.13686182300006],[90.52994643500006,28.12734179000006],[90.52454875200004,28.11782091200007],[90.47327075900006,28.08865796300006],[90.47462018000004,28.074371179000025],[90.48276660700003,28.064934582000035],[90.47992858300006,28.064716815000054]]]}},{"type":"Feature","properties":{"shapeName":"Chukha","shapeISO":"BT-12","shapeID":"66845921B66499017593499","shapeGroup":"BTN","shapeType":"ADM1"},"geometry":{"type":"Polygon","coordinates":[[[89.76908817900005,26.776827583000056],[89.76402359100007,26.778636170000027],[89.75149927800004,26.773892561000025],[89.74466783500009,26.768471052000052],[89.72189635800004,26.757966142000043],[89.70026345500008,26.737292354000033],[89.68963676600004,26.73593656500003],[89.67863055200007,26.750171549000072],[89.67028101100004,26.754577254000026],[89.66458814100008,26.752882773000067],[89.63612379500006,26.754238360000045],[89.63650332000003,26.751188265000053],[89.63496413700005,26.74981381300006],[89.62313561900004,26.76941230500006],[89.59007480800005,26.77603850400004],[89.57995415200008,26.78085731500005],[89.56915878500007,26.789892034000047],[89.55633928700007,26.794107990000043],[89.51855550300007,26.79290344700007],[89.45513272300008,26.785073606000026],[89.44298793500008,26.789892034000047],[89.42949372700008,26.811572424000076],[89.41599951800004,26.827227906000076],[89.38428812800004,26.837463013000047],[89.37079391900005,26.85251296100006],[89.36291839637288,26.85805983629929],[89.35797442100005,26.86154196900003],[89.34785376500008,26.86515337000003],[89.32491361000007,26.86756090700004],[89.31479295400004,26.87297767800004],[89.30804584900005,26.899455932000023],[89.29522635100005,26.92292010500006],[89.26756322400007,26.933748078000065],[89.25676785700006,26.94156763500007],[89.27498503800007,26.960813462000033],[89.30534700800007,26.99809289600006],[89.31614237500008,27.022738639000067],[89.31732802600004,27.026846044000024],[89.32221476800004,27.043773411000075],[89.31546766400004,27.099646650000068],[89.31749179500008,27.111658761000058],[89.32693774100005,27.123069072000078],[89.34717905400004,27.14048256600006],[89.35414009100003,27.14117084800006],[89.35932384200004,27.141683396000076],[89.37011920900005,27.136279557000023],[89.37754102400004,27.136279557000023],[89.39373407400006,27.14888810900004],[89.42679488500005,27.18370433800004],[89.45040975000006,27.187305397000046],[89.46457866900005,27.187905562000026],[89.47942229800003,27.193306904000053],[89.49156708600003,27.20110838000005],[89.49831419000003,27.21130948600006],[89.50303716300004,27.222709617000078],[89.52757975500003,27.236470721000046],[89.54010406700007,27.241194850000056],[89.57122508600008,27.25941461000008],[89.57502033200007,27.260426731000052],[89.58299034900006,27.25840247900004],[89.59058084100008,27.251654707000057],[89.59665323500008,27.231071472000053],[89.59779180900006,27.217234700000063],[89.59285798900004,27.20339620900006],[89.57122508600008,27.170311880000042],[89.57122508600008,27.15005132700003],[89.59171941500006,27.145323336000047],[89.60196658000007,27.141270612000028],[89.60803897400007,27.137555487000043],[89.63464329958195,27.11787860750871],[89.63767302700006,27.10304615600006],[89.66361709200004,27.073348504000023],[89.66824996100007,27.058496727000033],[89.67380940400005,27.049419673000045],[89.68585486300003,27.047769221000067],[89.69975346900009,27.027136518000077],[89.72569753500005,27.026311131000057],[89.74886187900006,27.012278624000032],[89.75534789500006,27.001546701000052],[89.76461363300007,26.971822185000065],[89.76461363300007,26.957782879000035],[89.76831992800004,26.95034959700007],[89.78870455100008,26.932177288000048],[89.79241084600005,26.926394575000074],[89.79797028900003,26.909044658000028],[89.79889686200005,26.90160816300005],[89.79704371500009,26.89251844900008],[89.80630945300004,26.87846927000004],[89.80538287900004,26.872683806000055],[89.78592483000006,26.859458777000043],[89.77851224000005,26.852019019000068],[89.76646678100008,26.82969681000003],[89.76461363300007,26.818120599000054],[89.76461363300007,26.799927022000077],[89.76908817900005,26.776827583000056]]]}},{"type":"Feature","properties":{"shapeName":"Samtse","shapeISO":"BT-14","shapeID":"66845921B8526775626410","shapeGroup":"BTN","shapeType":"ADM1"},"geometry":{"type":"Polygon","coordinates":[[[89.31732802600004,27.026846044000024],[89.31614237500008,27.022738639000067],[89.30534700800007,26.99809289600006],[89.27498503800007,26.960813462000033],[89.25676785700006,26.94156763500007],[89.26756322400007,26.933748078000065],[89.29522635100005,26.92292010500006],[89.30804584900005,26.899455932000023],[89.31479295400004,26.87297767800004],[89.32491361000007,26.86756090700004],[89.34785376500008,26.86515337000003],[89.35797442100005,26.86154196900003],[89.36291839637288,26.85805983629929],[89.33166071400007,26.83806504900008],[89.32086534800004,26.839269112000068],[89.30939527000004,26.842881225000042],[89.29590106200004,26.83866708200003],[89.27565974900006,26.82662581200003],[89.27026206500005,26.82060469700008],[89.26014140900008,26.81337893600005],[89.25002075300006,26.810970247000057],[89.22438175600007,26.81337893600005],[89.19334507700006,26.806754918000024],[89.18052557800007,26.814583262000042],[89.16365781800005,26.818798300000026],[89.14544063600005,26.80976588300007],[89.13397055900003,26.808561507000036],[89.11507866700003,26.81819616100006],[89.10428330000008,26.82542161500004],[89.09281322300006,26.845289236000042],[89.09348793300006,26.86394958300008],[89.08539140800008,26.887421131000053],[89.07796959300003,26.895243898000047],[89.06447538500004,26.89765079400007],[89.04963175500006,26.90366780900007],[89.03546283600008,26.919912151000062],[89.02466747000005,26.927131107000037],[89.01926978600005,26.939161675000037],[89.00510086700007,26.93675566400003],[88.99498021100004,26.927131107000037],[88.97676302900004,26.913896],[88.95854584800009,26.918708946000038],[88.93762982400006,26.93194348800006],[88.95179874300004,26.954198080000026],[88.95112403300004,26.969833812000047],[88.91536438000009,26.999295252000024],[88.87150820200009,26.94277059500007],[88.87218291300007,27.001098764000062],[88.87758059600009,27.038364846000036],[88.87285762300007,27.067808325000044],[88.87083349200003,27.09303944000004],[88.86543580800009,27.105052260000036],[88.85531515200006,27.108655854000062],[88.84519449600003,27.10925644200006],[88.83709797000006,27.11346046600005],[88.81685665800006,27.127272577000042],[88.80336244900008,27.141082983000047],[88.77839816300008,27.13327731100003],[88.75275916700008,27.138681296000073],[88.77097634800003,27.175301415000035],[88.79391650300005,27.190906340000026],[88.79594063400003,27.206509082000025],[88.79931418600006,27.217309701000033],[88.80066360700005,27.247305925000035],[88.82630260400003,27.259901929000023],[88.87488175400006,27.271297084000025],[88.89444835700004,27.271896796000078],[88.91064140700007,27.281491759000062],[88.91536438000009,27.29168549800005],[88.91738851100007,27.322261102000027],[88.92143677400009,27.32885473500005],[88.94167808700007,27.319863319000035],[88.95247345400008,27.29348429600003],[88.97338947700007,27.27789374500003],[88.97204005600008,27.261701241000026],[88.97878716000008,27.246706080000024],[88.98688368600006,27.242507072000024],[89.00982384000008,27.223309592000078],[89.00847441900004,27.19450716600005],[89.00982384000008,27.177702315000033],[89.02466747000005,27.145285811000065],[89.03343870500004,27.13687999700005],[89.04693291400008,27.133877767000058],[89.07054777900004,27.139281722000078],[89.08404198700003,27.14048256600006],[89.10630743100006,27.138681296000073],[89.18592326200007,27.02874897600003],[89.19536920800005,27.025743848000047],[89.22303233500008,27.07381624800007],[89.23855067500006,27.087032547000035],[89.24867133200007,27.09303944000004],[89.26081611900008,27.084028980000028],[89.25879198800004,27.06059839200003],[89.26149083000007,27.032355024000026],[89.26486438200004,27.026945909000062],[89.27296090700008,27.02514281300006],[89.28173214300006,27.028147957000044],[89.29792519300008,27.02874897600003],[89.31732802600004,27.026846044000024]]]}},{"type":"Feature","properties":{"shapeName":"Haa","shapeISO":"BT-13","shapeID":"66845921B9034035402827","shapeGroup":"BTN","shapeType":"ADM1"},"geometry":{"type":"Polygon","coordinates":[[[89.35414009100003,27.14117084800006],[89.34717905400004,27.14048256600006],[89.32693774100005,27.123069072000078],[89.31749179500008,27.111658761000058],[89.31546766400004,27.099646650000068],[89.32221476800004,27.043773411000075],[89.31732802600004,27.026846044000024],[89.29792519300008,27.02874897600003],[89.28173214300006,27.028147957000044],[89.27296090700008,27.02514281300006],[89.26486438200004,27.026945909000062],[89.26149083000007,27.032355024000026],[89.25879198800004,27.06059839200003],[89.26081611900008,27.084028980000028],[89.24867133200007,27.09303944000004],[89.23855067500006,27.087032547000035],[89.22303233500008,27.07381624800007],[89.19536920800005,27.025743848000047],[89.18592326200007,27.02874897600003],[89.10630743100006,27.138681296000073],[89.08404198700003,27.14048256600006],[89.07054777900004,27.139281722000078],[89.04693291400008,27.133877767000058],[89.03343870500004,27.13687999700005],[89.02466747000005,27.145285811000065],[89.00982384000008,27.177702315000033],[89.00847441900004,27.19450716600005],[89.00982384000008,27.223309592000078],[88.98688368600006,27.242507072000024],[88.97878716000008,27.246706080000024],[88.97204005600008,27.261701241000026],[88.97338947700007,27.27789374500003],[88.98418484400008,27.278493422000054],[88.99093194800008,27.28688856100007],[88.99228136900007,27.29768137800005],[88.99093194800008,27.315667076000068],[88.98485955400008,27.32885473500005],[88.97608831900004,27.339044124000054],[88.96326882100004,27.37440003100005],[88.96934121400005,27.413937323000027],[88.97946187100007,27.44447917900004],[88.98553426500007,27.487582701000065],[89.00037789400005,27.50434062900007],[89.00982384000008,27.51092340200006],[89.00914913000008,27.525284450000072],[89.01589623400008,27.538447096000027],[89.04086052000008,27.55160816600005],[89.06042712200008,27.56416953400003],[89.07392133100007,27.57613140500007],[89.08066843500006,27.58270987800006],[89.08943967100004,27.604236669000045],[89.11507866700003,27.610215582000023],[89.12789816500003,27.607824056000027],[89.13734411100006,27.59407176700006],[89.14071766300003,27.58270987800006],[89.14544063600005,27.57373913500004],[89.15758542400005,27.565365780000036],[89.17242905300003,27.565963898000064],[89.19132094500009,27.562375141000075],[89.19874276000007,27.55519727500007],[89.20683928500006,27.55160816600005],[89.21830936200007,27.551009970000052],[89.23990009600004,27.557589949000032],[89.24327364800007,27.549813567000058],[89.24192422700008,27.515710627000033],[89.26418967200004,27.502545259000044],[89.27161148600004,27.496560480000028],[89.27970801100008,27.483991385000024],[89.30062403500006,27.436694802000034],[89.31411824300005,27.396566617000076],[89.33975724000004,27.374999186000025],[89.35055260600006,27.35043115700006],[89.36269739400007,27.334848607000026],[89.37484218200007,27.321661661000064],[89.38361341700005,27.314468120000072],[89.38023986500008,27.300079640000035],[89.36337210500005,27.294083889000035],[89.33435955600004,27.29108589200007],[89.33233542500005,27.285089656000025],[89.33840781900005,27.274295615000028],[89.34515492300005,27.23710811600006],[89.35527557900008,27.225109496000073],[89.36337210500005,27.21130948600006],[89.36067326300008,27.196307536000063],[89.37416747100008,27.181303567000043],[89.37011920900005,27.160894932000076],[89.36674565700008,27.15249029200004],[89.35414009100003,27.14117084800006]]]}},{"type":"Feature","properties":{"shapeName":"Paro","shapeISO":"BT-11","shapeID":"66845921B43572720469260","shapeGroup":"BTN","shapeType":"ADM1"},"geometry":{"type":"Polygon","coordinates":[[[89.40591839500007,27.84491170800004],[89.42489462600008,27.830229028000076],[89.44090582100006,27.82026465000007],[89.44920792200008,27.81187288500007],[89.45632400800008,27.79403823100006],[89.45691701600003,27.779348672000026],[89.44564987900009,27.743665769000074],[89.43616176300009,27.70324601300007],[89.43497574900005,27.68749400100006],[89.43794078500008,27.655457901000034],[89.44446386400006,27.644952217000025],[89.48716038300006,27.633920164000074],[89.50020654200006,27.62446323300003],[89.51443871500004,27.617632719000028],[89.52333382300003,27.60712340400005],[89.52926389600003,27.593985342000053],[89.54112404000006,27.551932966000038],[89.54824012600005,27.513020176000055],[89.56247229900004,27.486719954000023],[89.56603034300008,27.472515222000027],[89.56010027100007,27.46672758400007],[89.55239117700006,27.454098955000063],[89.55713523500003,27.444626534000065],[89.56721635700006,27.43567961100007],[89.57018139300004,27.42620560900008],[89.56128628500005,27.405149360000053],[89.56010027100007,27.394093223000027],[89.56899537900006,27.386195305000058],[89.56306530700004,27.36618472200007],[89.55654222700008,27.332474510000054],[89.52867088800008,27.255534726000064],[89.52757975500003,27.236470721000046],[89.50303716300004,27.222709617000078],[89.49831419000003,27.21130948600006],[89.49156708600003,27.20110838000005],[89.47942229800003,27.193306904000053],[89.46457866900005,27.187905562000026],[89.45040975000006,27.187305397000046],[89.42679488500005,27.18370433800004],[89.39373407400006,27.14888810900004],[89.37754102400004,27.136279557000023],[89.37011920900005,27.136279557000023],[89.35932384200004,27.141683396000076],[89.35414009100003,27.14117084800006],[89.36674565700008,27.15249029200004],[89.37011920900005,27.160894932000076],[89.37416747100008,27.181303567000043],[89.36067326300008,27.196307536000063],[89.36337210500005,27.21130948600006],[89.35527557900008,27.225109496000073],[89.34515492300005,27.23710811600006],[89.33840781900005,27.274295615000028],[89.33233542500005,27.285089656000025],[89.33435955600004,27.29108589200007],[89.36337210500005,27.294083889000035],[89.38023986500008,27.300079640000035],[89.38361341700005,27.314468120000072],[89.37484218200007,27.321661661000064],[89.36269739400007,27.334848607000026],[89.35055260600006,27.35043115700006],[89.33975724000004,27.374999186000025],[89.31411824300005,27.396566617000076],[89.30062403500006,27.436694802000034],[89.27970801100008,27.483991385000024],[89.27161148600004,27.496560480000028],[89.26418967200004,27.502545259000044],[89.24192422700008,27.515710627000033],[89.24327364800007,27.549813567000058],[89.23990009600004,27.557589949000032],[89.21830936200007,27.551009970000052],[89.20683928500006,27.55160816600005],[89.19874276000007,27.55519727500007],[89.19132094500009,27.562375141000075],[89.17242905300003,27.565963898000064],[89.15758542400005,27.565365780000036],[89.14544063600005,27.57373913500004],[89.14071766300003,27.58270987800006],[89.13734411100006,27.59407176700006],[89.13288823000005,27.60055926900003],[89.15826013400005,27.610215582000023],[89.19267036600007,27.632932478000043],[89.22235762500009,27.702249620000032],[89.23180357100006,27.717182898000033],[89.25204488400004,27.717780186000027],[89.26688851300008,27.724350145000074],[89.27026206500005,27.73450293800005],[89.26823793400007,27.755999849000034],[89.26351496100006,27.760776364000037],[89.26081611900008,27.772119748000023],[89.26418967200004,27.781074215000046],[89.28240685300005,27.791221720000067],[89.30399758700008,27.823448688000042],[89.32019063700005,27.82046511200008],[89.32626303100005,27.824045394000052],[89.34515492300005,27.850893748000033],[89.40591839500007,27.84491170800004]]]}},{"type":"Feature","properties":{"shapeName":"Pemagatshel","shapeISO":"BT-43","shapeID":"66845921B21774439433967","shapeGroup":"BTN","shapeType":"ADM1"},"geometry":{"type":"Polygon","coordinates":[[[91.39746211600004,27.156716704000075],[91.42337099600007,27.148263719000056],[91.43632543600006,27.146726744000034],[91.43675725100007,27.14019436500007],[91.43071184500008,27.11905757900007],[91.43114366000003,27.10675797500005],[91.43416636300003,27.097147969000048],[91.44107539800007,27.09368816500006],[91.44625717400004,27.087537138000073],[91.46093887300003,27.079078925000033],[91.47691601600008,27.06446778000003],[91.48900682600004,27.057546047000073],[91.50455215500006,27.05370045500007],[91.51362026300006,27.045624283000052],[91.51664296600006,27.040624456000046],[91.51707478000009,27.031393423000054],[91.51577933600004,27.022161630000028],[91.50930211600007,27.005619437000064],[91.50681013700006,26.99262913900003],[91.48290229000008,26.98809822800007],[91.45492028700005,26.97834071500006],[91.44640402500005,26.946894085000054],[91.44640402500005,26.92303216700003],[91.43058811000003,26.900250172000028],[91.42207184800009,26.89374018600006],[91.40990575900008,26.880719089000024],[91.40747254200005,26.872037524000064],[91.40747254200005,26.851416137000058],[91.39044001800005,26.840561265000076],[91.35880818800007,26.847074313000064],[91.35759157900009,26.890485053000077],[91.34907531700009,26.902420084000028],[91.34299227300005,26.90675978300004],[91.32595974900005,26.912184171000035],[91.30527739800004,26.91326901800005],[91.26999574200005,26.912184171000035],[91.24931339100004,26.90784468100003],[91.23349747600008,26.90675978300004],[91.21889817000005,26.916523495000035],[91.20308225500008,26.94364048500006],[91.18834358718948,26.946274363613703],[91.17722203700004,26.948261844000058],[91.17888570700006,26.951762503000054],[91.19149333200005,26.964463969000064],[91.19303695900004,26.976627672000063],[91.20255562000006,26.979208501000073],[91.20832728800008,26.992537841000058],[91.22300898700007,27.015621984000063],[91.23898613000006,27.026392962000045],[91.31023555100006,27.061776046000034],[91.31714458600004,27.067928486000028],[91.35471246300006,27.074849579000045],[91.37284867900007,27.088306035000073],[91.38450767500007,27.091766006000057],[91.39616667200005,27.09061269400007],[91.39962118900007,27.09945444600004],[91.39487122800006,27.103682863000074],[91.38234860200004,27.109833003000062],[91.37889408500007,27.117135855000072],[91.37759864100008,27.13058723000006],[91.38709856300005,27.14787947800005],[91.39746211600004,27.156716704000075]]]}},{"type":"Feature","properties":{"shapeName":"Samdrup Jongkhar","shapeISO":"BT-45","shapeID":"66845921B95017424672663","shapeGroup":"BTN","shapeType":"ADM1"},"geometry":{"type":"Polygon","coordinates":[[[91.50681013700006,26.99262913900003],[91.50656327300004,26.991342192000047],[91.52591834500004,26.984057075000067],[91.53282738000007,26.966570213000068],[91.54332911200004,26.951790465000045],[91.55244903800008,26.943414414000074],[91.56322713300005,26.937747909000052],[91.57345250400004,26.93503774100003],[91.59141599500003,26.939472528000067],[91.60081228200005,26.948341578000054],[91.61020856900006,26.96090487200007],[91.62236847000008,26.965584957000033],[91.63729198600004,26.980362894000052],[91.63895015400004,26.990952556000025],[91.63812107000007,27.006712067000024],[91.64337193600005,27.021730794000064],[91.65857181300004,27.035270549000074],[91.66603357000008,27.04043984300006],[91.67515349600006,27.038224461000027],[91.68233889200008,27.032808897000052],[91.69505151600004,27.032070391000047],[91.70278963500004,27.03674751500006],[91.71494953700005,27.048562538000056],[91.72047676400007,27.05176222700004],[91.75198196300005,27.057915217000073],[91.76027280500006,27.055946297000048],[91.76524731000006,27.05102384500003],[91.78210535500006,27.048808671000074],[91.79537070100008,27.048808671000074],[91.80808332500004,27.052746728000045],[91.81416327600004,27.069235837000065],[91.83019223700006,27.071204523000063],[91.84207577700005,27.077356447000057],[91.84097033100005,27.086214623000046],[91.82770498400004,27.094580036000025],[91.82521773200006,27.105650945000036],[91.83489038000005,27.122132269000076],[91.87219916800007,27.141316424000024],[91.88297726300004,27.146480826000072],[91.89486080200004,27.146726744000034],[91.89955894600007,27.139594904000035],[91.91531154500007,27.14008676900005],[91.93880226400006,27.147464495000065],[91.95427850200008,27.145743069000048],[91.95897664500006,27.137135543000056],[91.97638741300005,27.136889604000032],[92.00264174500006,27.147956326000042],[92.02628408900006,27.14982640100004],[92.03402609800008,27.140119128000038],[92.03402609800008,27.122102339000037],[92.03013295000005,27.11517203300008],[92.02857569000008,27.102003267000043],[92.03013295000005,27.079127519000053],[92.04336965400006,27.05555368200004],[92.05037732100004,27.050699629000064],[92.06283539600008,27.046538846000033],[92.07607210000003,27.036136213000077],[92.08152250700005,27.02295816000003],[92.10176687900008,27.008391145000076],[92.10799591600005,26.996597417000032],[92.10410276800008,26.977863659000036],[92.10721728600004,26.973006250000026],[92.11344632400005,26.968148631000076],[92.11344632400005,26.960514807000038],[92.10877454600006,26.951492347000055],[92.10877454600006,26.946633801000075],[92.11811810200004,26.92719752000005],[92.11578221300005,26.91122949800007],[92.11033180500004,26.89873120900006],[92.11111043500006,26.896648026000037],[92.10643865700007,26.885537070000055],[92.10488139700004,26.875814087000037],[92.09631647100008,26.86609026800005],[92.04804143200005,26.84594541100006],[92.02701843100004,26.84594541100006],[91.98341517000006,26.85775490000003],[91.97095709500007,26.868868587000065],[91.95849902100008,26.88623153700007],[91.93591876100004,26.900119976000042],[91.90243768500005,26.916089570000054],[91.89153687000004,26.915395287000024],[91.87362838800004,26.907757890000028],[91.86272757200004,26.900814353000044],[91.84793360900005,26.877897654000037],[91.82846786700009,26.857060258000047],[91.81211664400007,26.847334827000054],[91.76462023500005,26.82857627800007],[91.73892545600006,26.816068853000047],[91.67352056400006,26.802170095000065],[91.56762693000007,26.78479425100005],[91.48820670500004,26.783404069000028],[91.46874096300007,26.791744908000055],[91.44538207300008,26.799390138000035],[91.43915303600005,26.80703485400005],[91.43525988800008,26.816068853000047],[91.42591633200004,26.819543276000047],[91.40956510900008,26.82162787900006],[91.40100018300006,26.82162787900006],[91.38800680000008,26.813419533000058],[91.36245801400008,26.78952943200005],[91.35272514300004,26.784099162000075],[91.31501026900008,26.778668633000052],[91.31014383400009,26.778668633000052],[91.27851200400005,26.788443399000073],[91.24201373800008,26.80256102000004],[91.15441790100004,26.79713137400006],[91.13738537700004,26.798217324000063],[91.10210372100005,26.817762647000052],[91.08750441500007,26.813419533000058],[91.07655493500005,26.791701468000042],[91.06925528200009,26.785185237000064],[91.05587258500003,26.781926982000073],[91.00355840400005,26.781926982000073],[91.00720823100005,26.807990407000034],[91.01572449300005,26.82753404500005],[91.08872102400005,26.847074313000064],[91.14225181300009,26.859013927000035],[91.15928433700003,26.86878176600004],[91.17023381600006,26.89482521000008],[91.18726634000006,26.916523495000035],[91.18834358718948,26.946274363613703],[91.20308225500008,26.94364048500006],[91.21889817000005,26.916523495000035],[91.23349747600008,26.90675978300004],[91.24931339100004,26.90784468100003],[91.26999574200005,26.912184171000035],[91.30527739800004,26.91326901800005],[91.32595974900005,26.912184171000035],[91.34299227300005,26.90675978300004],[91.34907531700009,26.902420084000028],[91.35759157900009,26.890485053000077],[91.35880818800007,26.847074313000064],[91.39044001800005,26.840561265000076],[91.40747254200005,26.851416137000058],[91.40747254200005,26.872037524000064],[91.40990575900008,26.880719089000024],[91.42207184800009,26.89374018600006],[91.43058811000003,26.900250172000028],[91.44640402500005,26.92303216700003],[91.44640402500005,26.946894085000054],[91.45492028700005,26.97834071500006],[91.48290229000008,26.98809822800007],[91.50681013700006,26.99262913900003]]]}},{"type":"Feature","properties":{"shapeName":"Zhemgang","shapeISO":"BT-34","shapeID":"66845921B52582047921765","shapeGroup":"BTN","shapeType":"ADM1"},"geometry":{"type":"Polygon","coordinates":[[[90.96196932100008,27.37197763100005],[90.96552736400008,27.360918178000077],[90.98450359500004,27.33563527800004],[90.98984066000008,27.306658198000036],[90.98806163800003,27.28821429800007],[90.99754975400003,27.26555045400005],[91.01237493400004,27.246045309000067],[91.02423507800006,27.23655508300004],[91.03372319300007,27.219681571000024],[91.03846725100004,27.198586087000024],[91.03787424400008,27.180651787000045],[91.01949102000003,27.14266375300008],[91.02423507800006,27.101495473000057],[91.02838612900007,27.08671342200006],[91.04202529400004,27.07562560300005],[91.05032739500007,27.062424389000057],[91.04321130900007,27.05133416700005],[91.05566446000006,27.033904462000066],[91.06930362600008,27.029150436000066],[91.08234978500008,27.028093959000046],[91.09420992900004,27.020170061000044],[91.10191902300005,27.00590563700007],[91.10251203000007,26.99058257200005],[91.09895398700007,26.973143442000037],[91.10336786200008,26.959401618000072],[91.14054661700004,26.93812381400005],[91.17097560800005,26.93511727300006],[91.17722203700004,26.948261844000058],[91.18834358718948,26.946274363613703],[91.18726634000006,26.916523495000035],[91.17023381600006,26.89482521000008],[91.15928433700003,26.86878176600004],[91.14225181300009,26.859013927000035],[91.08872102400005,26.847074313000064],[91.01572449300005,26.82753404500005],[91.00720823100005,26.807990407000034],[91.00375530700006,26.783333223000056],[90.95718127500004,26.78201387000007],[90.94032195500006,26.787688969000044],[90.92994693100007,26.80495535700004],[90.92283084500008,26.81130662000004],[90.90444762100003,26.814482118000058],[90.88902943400007,26.814482118000058],[90.83743780600008,26.804426069000044],[90.76805596200006,26.808660304000057],[90.73959161600004,26.79119306800004],[90.73010350100003,26.78378191300004],[90.71527832000004,26.782723137000062],[90.70460419100004,26.795957126000076],[90.69215103900007,26.80336748600007],[90.66843075100007,26.813423628000066],[90.63285031800007,26.81606983300003],[90.62336220200007,26.826124849000053],[90.61446709400008,26.84676129500008],[90.62276919500005,26.865806984000073],[90.63107129600007,26.874799667000048],[90.63225731100005,26.88114701300003],[90.62810626000004,26.898071525000034],[90.62751325300007,26.90706164100004],[90.63759437600004,26.912349610000035],[90.65360557000008,26.91552227300008],[90.67969788800008,26.913407174000042],[90.68681397400007,26.920809845000065],[90.69748810400006,26.943543584000054],[90.70045314000004,26.958873053000048],[90.69570908200006,26.98952573200006],[90.68503495300007,27.00379223500005],[90.67613984400003,27.00590563700007],[90.66368669300005,27.033904462000066],[90.64945452000006,27.038130094000053],[90.62692024600005,27.038130094000053],[90.60913002900008,27.04446824300004],[90.57710764000007,27.027565716000026],[90.57295658900006,27.01435884700004],[90.55398035900004,27.00379223500005],[90.54271322200003,27.00432058900003],[90.52966706300003,27.019641781000075],[90.51187684700005,27.023867950000067],[90.53559713500005,27.05978395900007],[90.54212021400008,27.066120885000032],[90.54864329400004,27.077737653000042],[90.54923630100006,27.087241386000073],[90.53737615700004,27.106246432000034],[90.53796916400006,27.119442483000057],[90.54271322200003,27.129470441000024],[90.54982930800008,27.138442062000024],[90.56287546700008,27.143191453000043],[90.60972303700004,27.153217280000035],[90.63462934000006,27.14741296300008],[90.64530346900005,27.14846831600005],[90.65123354100007,27.160604157000023],[90.65419857800003,27.172211118000064],[90.64945452000006,27.18170682500005],[90.63996640400006,27.191201724000052],[90.62276919500005,27.20175066400003],[90.61209506500006,27.211771233000036],[90.60913002900008,27.22179090000003],[90.61861814500008,27.229700527000034],[90.63759437600004,27.240245822000077],[90.68206991700004,27.259751985000037],[90.69393006100006,27.268713129000048],[90.70697621900007,27.28347108500003],[90.72417342900007,27.309819702000027],[90.73662658000006,27.315615559000037],[90.74789371700007,27.317723068000078],[90.75797484000003,27.322991665000075],[90.76449791900006,27.33352811000003],[90.76864897000007,27.346170521000033],[90.76627694100006,27.35617807400007],[90.75856784700005,27.36355148100006],[90.80600842400008,27.377243649000036],[90.81193849600004,27.376190466000025],[90.84277487100007,27.347750721000068],[90.86530914500008,27.33668884800005],[90.86946019600003,27.339849496000056],[90.87242523200007,27.346170521000033],[90.88309936200005,27.353544595000074],[90.91215671500004,27.368291269000053],[90.94536511900009,27.369344528000056],[90.96196932100008,27.37197763100005]]]}}],"meta":{"provider":"geoBoundaries","license":"Creative Commons Attribution 3.0 License","sourceName":"geoBoundaries, Wikimedia Commons; credit to author 'Babbage'","sourceDataUpdateDate":"Wed May 3 23:23:22 2023","sourceUrl":"commons.wikimedia.org/wiki/File"}}