{"type":"FeatureCollection","crs":{"type":"name","properties":{"name":"urn:ogc:def:crs:OGC:1.3:CRS84"}},"features":[{"type":"Feature","properties":{"shapeName":"Banjul","shapeISO":"GM-B","shapeID":"31243875B86288540800273","shapeGroup":"GMB","shapeType":"ADM1"},"geometry":{"type":"Polygon","coordinates":[[[-16.611196974999928,13.469101997000053],[-16.60155148299998,13.464885227000025],[-16.583516492999934,13.462642069000026],[-16.571917231999976,13.456538129000023],[-16.570283290999953,13.45173909500005],[-16.57356767999994,13.443174566000039],[-16.578499680999983,13.443327552000028],[-16.578762394999956,13.445796594000058],[-16.58572036399994,13.448474934000046],[-16.58955578299998,13.447637127000064],[-16.591082667999956,13.448805807000042],[-16.603915723999933,13.443253549000076],[-16.60642745299998,13.443812666000042],[-16.60877039199994,13.446996001000059],[-16.612178176999976,13.446525309000037],[-16.612705914999935,13.448289405000025],[-16.60973984499998,13.450524761000054],[-16.61235359999995,13.45346784700007],[-16.60724484499997,13.456783005000034],[-16.607465332999936,13.459755451000035],[-16.611352159999967,13.460165428000039],[-16.618590653999945,13.466655770000045],[-16.62186367299995,13.467420210000057],[-16.627028761999952,13.466082266000058],[-16.627126700999952,13.467849096000066],[-16.616387138999983,13.47361359000007],[-16.612994868999976,13.472176528000034],[-16.611196974999928,13.469101997000053]]]}},{"type":"Feature","properties":{"shapeName":"Basse","shapeISO":"GM-U","shapeID":"31243875B74768451122912","shapeGroup":"GMB","shapeType":"ADM1"},"geometry":{"type":"MultiPolygon","coordinates":[[[[-14.522126527999944,13.380528237000021],[-14.520937849999939,13.381796183000063],[-14.514396120999947,13.380881099000021],[-14.510639770999944,13.381792828000073],[-14.509515649999969,13.380687885000043],[-14.505196486999978,13.381414647000042],[-14.498054391999972,13.385199421000038],[-14.497674539999934,13.387648804000037],[-14.50047683799994,13.394270935000065],[-14.500829564999947,13.405299252000077],[-14.504602472999977,13.412016600000072],[-14.503881968999963,13.412986851000028],[-14.503609688999973,13.414131363000024],[-14.50358058699993,13.414286279000066],[-14.50484290399993,13.416610461000062],[-14.504459108999981,13.420653165000033],[-14.488714498999968,13.407940007000036],[-14.484039295999935,13.39929221400007],[-14.48218628199993,13.38789323800006],[-14.478624962999959,13.385312811000063],[-14.475620533999972,13.385674183000049],[-14.465456084999971,13.397967014000074],[-14.453228715999956,13.408784590000039],[-14.442904465999959,13.408026844000062],[-14.43784179499994,13.405258740000022],[-14.427913667999974,13.395863060000067],[-14.42494701399994,13.380234023000071],[-14.419045897999979,13.37516626100006],[-14.404979733999937,13.369987407000053],[-14.386016108999968,13.37178001500007],[-14.38209378099998,13.36405125400006],[-14.379499221999936,13.350995758000067],[-14.373905700999956,13.336462520000055],[-14.370349183999963,13.332777899000064],[-14.359296430999962,13.326676246000034],[-14.347855971999934,13.323706465000043],[-14.317069095999955,13.326566140000068],[-14.30157608099995,13.32992407300003],[-14.297808196999938,13.334875963000059],[-14.288930170999947,13.354332760000034],[-14.286736294999969,13.366364687000043],[-14.280161692999968,13.368000160000065],[-14.265537838999933,13.362260752000054],[-14.253546986999936,13.35505801100004],[-14.249994391999962,13.35063664300003],[-14.24645901499997,13.340701687000035],[-14.243841724999982,13.337385740000059],[-14.225455416999978,13.335308613000052],[-14.220036881999931,13.327756800000031],[-14.217067800999928,13.317271879000032],[-14.212759827999946,13.314685565000048],[-14.208249356999943,13.316693185000076],[-14.20692242299998,13.320769078000069],[-14.208524645999944,13.335917977000065],[-14.205267978999927,13.344655954000075],[-14.200604195999972,13.347434816000032],[-14.191742429999977,13.348288874000048],[-14.18858191499993,13.350484184000038],[-14.186766809999938,13.35444810000007],[-14.188656389999949,13.373126601000024],[-14.184780944999943,13.386861148000037],[-14.181773002999932,13.388174668000033],[-14.170812302999934,13.387550839000028],[-14.162683115999982,13.393258050000043],[-14.16086570799996,13.39766279500003],[-14.159358004999945,13.420961341000066],[-14.157242469999971,13.424629914000036],[-14.152434135999954,13.425201894000054],[-14.14463851499994,13.421058864000031],[-14.140608390999944,13.413987966000036],[-14.15014518099997,13.392701595000062],[-14.15039133199997,13.386747890000038],[-14.148152186999937,13.382917689000067],[-14.141546282999968,13.38245426900005],[-14.133718039999962,13.387867494000034],[-14.130353337999964,13.388091178000025],[-14.126275864999968,13.386077578000027],[-14.11682107699994,13.37616467600003],[-14.112142841999969,13.374266386000045],[-14.107335030999934,13.374955182000065],[-14.104560299999946,13.37812109600003],[-14.104306562999966,13.381766393000078],[-14.11162253699996,13.401493440000024],[-14.111947561999955,13.41113935800007],[-14.109998335999933,13.41842487200006],[-14.101373991999935,13.42739212400005],[-14.08820542199993,13.446281365000061],[-14.075074928999982,13.454701936000049],[-14.064624336999941,13.45360473900007],[-14.057069388999935,13.44957755300004],[-14.050949557999957,13.432088412000041],[-14.052579869999931,13.414687189000063],[-14.051144310999973,13.401611561000038],[-14.049207022999951,13.397781708000025],[-14.038885815999947,13.387451141000042],[-14.033629350999945,13.387578118000022],[-13.997564488999956,13.41164738200007],[-13.995626792999929,13.417631777000054],[-14.001156241999979,13.437377742000024],[-14.00283589199995,13.447558483000023],[-14.001675632999934,13.450549930000022],[-13.977252380999971,13.46530714000005],[-13.95137868699993,13.475624125000024],[-13.94603189399993,13.473229919000062],[-13.93386665199995,13.45520267300003],[-13.928023975999963,13.43539185700007],[-13.921076773999971,13.42038228000007],[-13.906845764999957,13.40896125200004],[-13.898405558999968,13.406767599000034],[-13.889095347999955,13.406943779000073],[-13.887097522999966,13.407585937000022],[-13.884188062999954,13.41364870800004],[-13.881302321999954,13.438480818000073],[-13.87330375099998,13.442350893000025],[-13.869731464999973,13.447759503000043],[-13.868601661999946,13.452311104000046],[-13.869693818999963,13.45578776900004],[-13.887109191999969,13.477130016000046],[-13.888866852999968,13.480609567000045],[-13.890688852999972,13.494179218000056],[-13.886896350999962,13.499153078000063],[-13.870019207999974,13.504502202000026],[-13.858236253999962,13.510958307000067],[-13.853576582999949,13.511587981000048],[-13.83454166599995,13.50433978500007],[-13.830789109999955,13.500850612000022],[-13.83127690899994,13.491739668000037],[-13.823551721999934,13.484543195000072],[-13.814477508999971,13.481245800000067],[-13.813613141999951,13.476685129000032],[-13.823596296999938,13.475430197000037],[-13.82671498999997,13.472407043000032],[-13.829866293999942,13.462657561000071],[-13.827002230999938,13.458955526000068],[-13.82703180599998,13.452880175000075],[-13.825279472999966,13.448532365000062],[-13.821733639999934,13.448298807000072],[-13.819500897999944,13.451543063000031],[-13.817726367999967,13.451751713000021],[-13.816637121999975,13.447840932000076],[-13.813329013999976,13.444353660000047],[-13.793818323999972,13.444911870000055],[-13.791117503999942,13.430903737000051],[-13.797112759999948,13.384281636000026],[-13.821866016999934,13.352076563000026],[-13.823623527999928,13.345765421000067],[-13.828406083999937,13.340231877000065],[-13.851801605999981,13.325190537000026],[-13.879271794999966,13.318899080000051],[-13.888317938999933,13.319812672000069],[-13.893176450999931,13.316588248000073],[-13.91024687199996,13.31890906600006],[-13.94440670299997,13.318719435000048],[-13.977823498999953,13.30611321300006],[-14.031601507999937,13.293476445000067],[-14.068813790999968,13.290406862000054],[-14.080947521999974,13.284470494000061],[-14.09431464499994,13.282460059000073],[-14.119206898999948,13.282839400000057],[-14.123024388999966,13.271570391000068],[-14.132511791999946,13.254108169000062],[-14.132998544999964,13.234417958000051],[-14.136843790999933,13.23197970700005],[-14.146744471999966,13.23234820700003],[-14.157784600999946,13.23006054700005],[-14.184835029999931,13.219121132000055],[-14.201909162999982,13.21807227000005],[-14.206739797999944,13.219362587000035],[-14.207071694999968,13.216893715000026],[-14.222260476999963,13.21877822600004],[-14.239871153999957,13.226182694000045],[-14.248120874999927,13.227677400000061],[-14.25803518899994,13.23707958600005],[-14.266839438999966,13.241515940000056],[-14.274903360999929,13.242641702000071],[-14.281478338999932,13.239719663000074],[-14.306661410999936,13.233702894000032],[-14.321834081999953,13.232662190000042],[-14.346031171999982,13.234195606000071],[-14.396755169999949,13.242140519000031],[-14.422420239999951,13.258373711000047],[-14.462775548999957,13.294209931000069],[-14.486423008999964,13.292972207000048],[-14.500303934999977,13.295756776000076],[-14.531802090999975,13.310704163000025],[-14.546138569999982,13.321666033000042],[-14.526540077999982,13.362616556000035],[-14.526228898999932,13.377779038000028],[-14.52781569299998,13.384287989000029],[-14.522126527999944,13.380528237000021]]],[[[-13.891845381999929,13.553131336000035],[-13.885546355999963,13.547549937000042],[-13.880144980999944,13.537786180000069],[-13.86847973099998,13.522205463000034],[-13.858947168999975,13.51260639800006],[-13.870436522999967,13.50549157100005],[-13.885855112999934,13.50133392500004],[-13.891897450999977,13.494193761000076],[-13.889065345999938,13.477182726000024],[-13.87972386499996,13.467034030000036],[-13.870212640999966,13.453208935000077],[-13.87060880699994,13.448800302000052],[-13.874201751999976,13.443303379000042],[-13.878903031999926,13.441670448000025],[-13.883430119999957,13.437096365000059],[-13.88319654399993,13.426712432000045],[-13.885895105999964,13.411471594000034],[-13.88759641699994,13.408906340000044],[-13.88985493599995,13.407629904000032],[-13.901490900999931,13.408232128000066],[-13.909923315999947,13.411576550000063],[-13.918896960999973,13.419884824000064],[-13.926528480999934,13.434619071000043],[-13.933933297999943,13.45835693500004],[-13.944754886999931,13.474023106000061],[-13.947374851999939,13.476055579000047],[-13.951692048999973,13.476441175000048],[-13.978713138999979,13.466456342000072],[-14.000139314999956,13.453758848000064],[-14.003344904999949,13.450463632000037],[-14.003736364999952,13.44660592200006],[-13.996920803999956,13.414969695000025],[-14.000315127999954,13.411307677000025],[-14.029588158999957,13.391114687000027],[-14.038795560999972,13.388760782000077],[-14.048330560999943,13.39853706200006],[-14.050747842999954,13.404427031000068],[-14.051269199999979,13.415088066000067],[-14.04932244899993,13.432723314000043],[-14.054707319999977,13.447997056000077],[-14.058071886999926,13.451868986000022],[-14.063505540999927,13.454829701000051],[-14.072417611999981,13.456608606000032],[-14.075236918999963,13.45588387600003],[-14.086902750999968,13.449494256000037],[-14.101344178999966,13.428687316000037],[-14.111708711999938,13.418248615000039],[-14.113044455999955,13.412372359000074],[-14.112901204999957,13.400242373000026],[-14.105653271999927,13.380368573000055],[-14.10811038299994,13.375782746000027],[-14.115240487999927,13.376542909000023],[-14.124964040999942,13.386868467000056],[-14.131711217999964,13.389832234000039],[-14.136221667999962,13.388377441000046],[-14.142996998999934,13.38343840300007],[-14.147501452999961,13.383637415000067],[-14.149552748999952,13.387503744000071],[-14.14916053099995,13.392280752000033],[-14.140086005999933,13.410260598000036],[-14.139688304999936,13.416507801000023],[-14.142676466999944,13.420928723000031],[-14.150731269999937,13.426101861000063],[-14.155047498999977,13.42666771100005],[-14.158810112999959,13.42447491400003],[-14.160892542999932,13.419519743000023],[-14.163040372999944,13.395635195000068],[-14.166246849999936,13.391235019000021],[-14.17151180299993,13.388679377000074],[-14.175080947999959,13.387955920000024],[-14.182773031999943,13.389267393000068],[-14.185492974999931,13.388025033000076],[-14.188907426999947,13.379270950000034],[-14.190061932999981,13.370820596000044],[-14.18805373999993,13.353906044000041],[-14.189188479999927,13.351336702000026],[-14.20102262599994,13.348433741000065],[-14.205912128999955,13.34550855200007],[-14.209120729999938,13.340005034000058],[-14.208153967999976,13.319877543000075],[-14.212483370999962,13.315847726000072],[-14.215294771999936,13.31695914100004],[-14.21845262599993,13.327077089000056],[-14.224055256999975,13.33573221100005],[-14.230429380999965,13.337957061000054],[-14.242440433999946,13.338177009000049],[-14.246924880999927,13.344622892000075],[-14.248780163999982,13.351612282000076],[-14.254767724999965,13.357694922000064],[-14.268259263999937,13.365269528000056],[-14.281749483999931,13.369256459000042],[-14.287706858999968,13.367497207000042],[-14.289468952999982,13.357325332000073],[-14.298766268999941,13.33699752800004],[-14.304197854999927,13.330439918000025],[-14.317772703999935,13.32793255200005],[-14.349245641999971,13.325188267000044],[-14.360350195999956,13.328750169000045],[-14.371808098999963,13.335351439000021],[-14.377833573999965,13.349783717000037],[-14.381468973999972,13.367673042000035],[-14.384633097999938,13.372345212000027],[-14.389258199999972,13.373063156000057],[-14.403909431999978,13.37090721100003],[-14.416458918999979,13.375176899000053],[-14.422079799999949,13.37914754600007],[-14.424379305999935,13.383534578000024],[-14.427522084999964,13.397676509000064],[-14.437031486999956,13.406178766000039],[-14.449871562999931,13.410730219000072],[-14.456663247999927,13.408342012000048],[-14.47677839499994,13.387464874000045],[-14.479955268999959,13.387188733000073],[-14.482815915999936,13.399774671000046],[-14.486410196999941,13.406990807000057],[-14.502481950999936,13.420380500000022],[-14.50406392399998,13.423493299000029],[-14.504456206999976,13.443424288000074],[-14.509116284999948,13.459759220000024],[-14.50680846399996,13.458341217000054],[-14.505218405999926,13.459044838000068],[-14.502316880999956,13.465399805000061],[-14.499424309999938,13.467372943000044],[-14.488736039999935,13.467775475000053],[-14.475870618999977,13.473120206000033],[-14.474132245999954,13.475519489000021],[-14.47383380499997,13.479900652000026],[-14.48181453899997,13.496242940000059],[-14.478776065999966,13.498639558000036],[-14.472996203999969,13.499616915000047],[-14.469666528999937,13.503002240000058],[-14.468648220999967,13.506251078000048],[-14.460695717999954,13.50976778100005],[-14.458086066999954,13.51400256900007],[-14.451429359999963,13.519217925000078],[-14.448377612999934,13.52712665100006],[-14.445056696999927,13.526412578000077],[-14.44102307399993,13.521597814000074],[-14.427929217999974,13.499942212000065],[-14.42403640599997,13.49696502300003],[-14.395388434999973,13.487639442000045],[-14.366692735999948,13.469900489000054],[-14.351617573999931,13.463572182000064],[-14.346141971999941,13.45903495400006],[-14.330132743999968,13.451501545000042],[-14.326811310999972,13.451492681000047],[-14.325651681999943,13.453044369000054],[-14.320452492999948,13.453171725000061],[-14.288583931999938,13.461917620000065],[-14.265473696999948,13.463123262000067],[-14.25695583199996,13.462250177000044],[-14.247275226999932,13.463776152000037],[-14.243523104999952,13.462916836000034],[-14.239465669999959,13.46728620600004],[-14.230990955999971,13.485997482000073],[-14.225801401999945,13.493792332000055],[-14.213363134999952,13.506986014000063],[-14.185321836999947,13.523804355000038],[-14.157136091999973,13.527202887000044],[-14.138827479999975,13.525946004000048],[-14.108883703999936,13.547343236000074],[-14.06866217299995,13.553445005000071],[-14.032212258999948,13.555511780000074],[-14.011335397999972,13.561862096000027],[-14.003492714999936,13.573132937000025],[-13.996151002999966,13.57677895200004],[-13.985431541999958,13.579492162000065],[-13.962542619999965,13.572598506000077],[-13.943392525999968,13.570129154000028],[-13.909142089999932,13.56309051900007],[-13.891845381999929,13.553131336000035]]]]}},{"type":"Feature","properties":{"shapeName":"Brikama","shapeISO":"GM-W","shapeID":"31243875B88426941804625","shapeGroup":"GMB","shapeType":"ADM1"},"geometry":{"type":"Polygon","coordinates":[[[-16.643089370999974,13.400632416000064],[-16.64334193299993,13.400945573000058],[-16.64295033299993,13.401002943000037],[-16.64257631199996,13.401789044000054],[-16.64241198999997,13.402012359000025],[-16.64187605899997,13.402160050000077],[-16.64153469599995,13.401866948000077],[-16.640733490999935,13.401599113000032],[-16.640884530999926,13.40282116000003],[-16.640337690999957,13.403410927000039],[-16.640121299999976,13.403516555000067],[-16.640033045999928,13.403517129000022],[-16.639899569999955,13.403354236000041],[-16.63978831999998,13.40321847000007],[-16.63869731899996,13.403480767000076],[-16.638513511999975,13.403511985000023],[-16.638160008999932,13.403394179000031],[-16.638127458999975,13.40311666100007],[-16.637942278999958,13.40294522000005],[-16.63774455999993,13.403186701000038],[-16.637592740999935,13.403412873000036],[-16.637333377999937,13.403609716000062],[-16.637088535999965,13.403686367000034],[-16.63675178999995,13.403778626000076],[-16.636709241999938,13.404289324000047],[-16.63659570599998,13.404507742000021],[-16.636389147999978,13.404576636000058],[-16.635678435999978,13.403793090000022],[-16.63544791299995,13.403719522000074],[-16.635280248999948,13.403870733000076],[-16.632770541999946,13.39928382200003],[-16.62968627899994,13.40062376700007],[-16.62694165599993,13.39939909900005],[-16.625171741999964,13.401584649000029],[-16.622157209999955,13.401506977000054],[-16.62098974999998,13.398913254000036],[-16.62353275099997,13.393733299000075],[-16.621211569999957,13.390584033000039],[-16.622456847999956,13.387043036000023],[-16.615703748999977,13.385300384000061],[-16.617747599999973,13.38256960800004],[-16.613009077999948,13.379629822000027],[-16.585648968999976,13.38595663600006],[-16.584133018999978,13.378511764000052],[-16.57373549899995,13.363712215000021],[-16.571469718999936,13.357659861000059],[-16.572011259999954,13.351590066000028],[-16.57496350599996,13.344083481000041],[-16.57794635299996,13.341316081000059],[-16.579109003999974,13.333619132000024],[-16.575119695999945,13.32942498400007],[-16.571323663999976,13.320791095000061],[-16.569448291999947,13.31997025000004],[-16.567461640999966,13.312349679000022],[-16.56060634599993,13.306455829000072],[-16.556480845999943,13.299322047000032],[-16.550852221999946,13.296359608000046],[-16.54421752199994,13.29556752800005],[-16.542673969999953,13.293412508000074],[-16.52871439699993,13.290166942000042],[-16.52413421999995,13.291692857000044],[-16.515208488999974,13.29149643900007],[-16.506861752999953,13.288715620000062],[-16.482199874999935,13.28652954000006],[-16.459126665999975,13.27991974300005],[-16.448704500999952,13.27098836500005],[-16.440041621999967,13.272036472000025],[-16.430343178999976,13.270426120000025],[-16.42677658599996,13.270945617000052],[-16.426448291999975,13.272945450000066],[-16.414886833999958,13.272510430000068],[-16.38297861199993,13.28117727800003],[-16.377270413999952,13.278793935000067],[-16.377065708999964,13.272634444000062],[-16.37433008299996,13.269818668000028],[-16.36777905499997,13.268431753000073],[-16.366422736999937,13.269278437000025],[-16.361822134999954,13.267305023000063],[-16.361809732999973,13.265078101000029],[-16.35413372499994,13.275587950000045],[-16.35279781299994,13.279924158000028],[-16.341685937999955,13.284062323000057],[-16.333066324999947,13.293265400000053],[-16.310611103999975,13.290551476000076],[-16.308243612999945,13.29289475400003],[-16.30043776399998,13.295598893000033],[-16.29196845699994,13.301469823000048],[-16.287043495999967,13.30249384900003],[-16.282469891999938,13.305680618000054],[-16.277200404999974,13.305873662000067],[-16.267101553999964,13.309171135000042],[-16.256584651999958,13.313885627000047],[-16.252521317999935,13.317235887000038],[-16.240292462999946,13.31979356200003],[-16.23435849799995,13.323152693000054],[-16.22704901399993,13.323521152000069],[-16.221261218999928,13.325788244000023],[-16.211483378999958,13.316123649000076],[-16.202058815999976,13.302059277000069],[-16.204581279999957,13.282441105000032],[-16.20956514599993,13.268858028000068],[-16.208752603999926,13.25585213000005],[-16.203670630999966,13.249462890000075],[-16.192311519999976,13.25996073500005],[-16.169722173999958,13.269410519000076],[-16.15482915499996,13.284778908000021],[-16.143087778999927,13.294360361000031],[-16.139166647999957,13.296027108000033],[-16.12082685799993,13.29500914700003],[-16.11408160899998,13.29283988800006],[-16.110700683999937,13.289922812000043],[-16.11086275699995,13.284424863000027],[-16.11253647199993,13.282218658000033],[-16.116455929999972,13.280185847000041],[-16.125058966999973,13.279598257000032],[-16.12636090199993,13.277943336000021],[-16.114701194999952,13.264618022000036],[-16.095926410999937,13.249490301000037],[-16.091993334999927,13.248407705000034],[-16.08171256999998,13.250100683000028],[-16.07649349899998,13.254337361000069],[-16.07706355099998,13.256350635000047],[-16.08418002199994,13.25815291500004],[-16.08905752299995,13.261247261000051],[-16.090953510999952,13.266919681000047],[-16.089865405999944,13.274620532000029],[-16.083900937999942,13.279593542000043],[-16.075859735999927,13.280360618000032],[-16.07061304399997,13.27845867600007],[-16.06910758799995,13.27644931900005],[-16.069445664999932,13.268201927000064],[-16.06774841699996,13.265093897000042],[-16.064186123999946,13.263276352000048],[-16.059699658999932,13.264028019000023],[-16.051699818999964,13.27432286100003],[-16.04534780299997,13.276364702000023],[-16.034304670999973,13.275127069000064],[-16.030941110999947,13.276056934000053],[-16.026105505999965,13.282856564000042],[-16.01789359399993,13.287653936000027],[-16.016603807999957,13.292423497000073],[-16.01157051599995,13.296841476000054],[-16.005767479999975,13.296131504000073],[-16.00518656299994,13.291369382000028],[-15.99955650399994,13.287176877000036],[-15.996573529999978,13.289754039000059],[-15.993797738999945,13.297278040000037],[-15.991181336999944,13.298021240000026],[-15.984064170999943,13.296216402000027],[-15.975280802999976,13.298815710000042],[-15.967570430999956,13.288949732000049],[-15.965697319999947,13.288407101000075],[-15.961225843999955,13.293188506000035],[-15.955805047999945,13.294491676000064],[-15.951420583999948,13.292877192000049],[-15.952740792999975,13.285982070000045],[-15.947634819999962,13.281603135000069],[-15.942655512999977,13.271213009000064],[-15.937418918999981,13.27167213100006],[-15.933070782999948,13.269635684000036],[-15.92738686499996,13.270536038000046],[-15.925146322999979,13.271716991000062],[-15.925019130999942,13.277654786000028],[-15.922028500999943,13.27839863500003],[-15.918881011999929,13.277237203000027],[-15.91361461899993,13.269779486000061],[-15.913605306999955,13.267287297000053],[-15.916291015999946,13.265078636000055],[-15.914014860999941,13.256730529000038],[-15.90953221899997,13.258652376000043],[-15.904437316999974,13.25691127500005],[-15.900547826999968,13.257364843000062],[-15.896967848999964,13.260602704000064],[-15.897285452999938,13.265586054000039],[-15.89534734199998,13.267645297000058],[-15.888455295999961,13.265616986000055],[-15.881728872999929,13.267985983000074],[-15.87829762299998,13.271076485000037],[-15.879515009999977,13.276643180000065],[-15.877732650999974,13.280460993000077],[-15.875041155999952,13.281203271000038],[-15.868746501999965,13.278879181000036],[-15.866037322999944,13.274636924000049],[-15.869161370999961,13.269275279000055],[-15.868110058999946,13.26825264200005],[-15.861220238999977,13.266809987000045],[-15.859290040999952,13.271214599000075],[-15.852703599999927,13.27094352000006],[-15.85029564599995,13.267139875000055],[-15.85267241899993,13.262000811000064],[-15.850402506999956,13.254824812000038],[-15.848158639999951,13.255125491000058],[-15.84413200199998,13.259243757000036],[-15.83842727299998,13.254131434000044],[-15.83153897699998,13.252981145000035],[-15.829144938999946,13.253135542000052],[-15.829160333999937,13.257680230000062],[-15.825279025999976,13.260624909000057],[-15.819892616999937,13.261082099000078],[-15.81614515299998,13.259334865000028],[-15.80746324599994,13.258922688000041],[-15.805655706999971,13.255409882000038],[-15.809983741999929,13.251731047000021],[-15.810102850999954,13.242494545000056],[-15.802167077999968,13.241212499000028],[-15.801210310999977,13.165829388000077],[-15.923058543999957,13.165900299000043],[-15.927170329999967,13.163831997000045],[-15.93059571799995,13.165873083000065],[-16.275789569999972,13.165513408000038],[-16.637068409999927,13.167637703000025],[-16.64625195499997,13.167578949000074],[-16.65588293099995,13.163795211000036],[-16.663135471999965,13.167937875000064],[-16.678959849999956,13.168421329000068],[-16.67898525299995,13.166958799000042],[-16.681651219999935,13.16530162500004],[-16.68544117299996,13.16896612000005],[-16.690109907999954,13.16655782600003],[-16.68932100099994,13.161315944000023],[-16.69115137199998,13.159828152000046],[-16.69767275199996,13.159211215000028],[-16.69911301299993,13.161825216000068],[-16.70137631999995,13.162466106000068],[-16.69924134599995,13.15616738500006],[-16.701392665999947,13.152709763000075],[-16.70423184999993,13.151953075000051],[-16.706183132999968,13.155875403000039],[-16.70885558699996,13.155201754000075],[-16.707172954999976,13.14779330400006],[-16.702549386999976,13.144544574000065],[-16.701050984999938,13.145620305000023],[-16.697773290999976,13.143428374000052],[-16.696831139999972,13.140237164000041],[-16.698803245999954,13.135059062000039],[-16.702790732999972,13.131015414000046],[-16.705800359999955,13.130749521000041],[-16.708500327999957,13.134092990000056],[-16.709998628999926,13.133017228000028],[-16.708579603999965,13.127410682000061],[-16.70955614899998,13.123468915000046],[-16.712298269999962,13.120827169000052],[-16.720396334999975,13.118559595000022],[-16.72257676099997,13.119364862000054],[-16.72309746899998,13.122066868000047],[-16.725356429999977,13.122133721000068],[-16.72506375699993,13.116150817000062],[-16.72009866899998,13.111838839000029],[-16.71751547699995,13.113249817000053],[-16.716323460999945,13.110224323000068],[-16.72583214599996,13.106389515000046],[-16.729858252999975,13.108002208000073],[-16.730402500999958,13.114065392000043],[-16.734496884999942,13.113463962000026],[-16.735741142999927,13.111979868000049],[-16.736737467999944,13.104963514000076],[-16.73580538599998,13.10324812600004],[-16.731692257999953,13.101144201000068],[-16.731102788999976,13.098985318000075],[-16.726659767999934,13.099128342000029],[-16.725640144999943,13.096839601000056],[-16.727534040999956,13.092563726000037],[-16.73328986699994,13.090393523000046],[-16.73034211399994,13.087461870000027],[-16.728588515999945,13.081857683000067],[-16.732213874999957,13.07404486200005],[-16.73630014699995,13.072377739000046],[-16.74157839999998,13.073735937000038],[-16.744228540999927,13.070028776000072],[-16.74057690999996,13.062100938000071],[-16.740629523999928,13.057673437000062],[-16.736632219999933,13.046878692000064],[-16.73803746899995,13.043466586000022],[-16.739467867999963,13.043657135000046],[-16.744672530999935,13.058033374000047],[-16.752167442999962,13.069837896000024],[-16.75882446099996,13.074580496000067],[-16.772263146999933,13.077997498000059],[-16.77108286999993,13.090729335000049],[-16.766515027999958,13.111649906000025],[-16.767070543999978,13.123845139000025],[-16.769035926999948,13.127307705000021],[-16.771886630999973,13.128239089000033],[-16.773862477999955,13.133144423000033],[-16.773385536999967,13.14128037100005],[-16.77746866299998,13.150696525000058],[-16.780674629999965,13.15444549700004],[-16.785149376999982,13.153168309000023],[-16.786577054999952,13.156240899000068],[-16.791079415999945,13.15876736100006],[-16.78795592299997,13.16180606000006],[-16.783549989999926,13.186464056000034],[-16.78298237599995,13.218932757000061],[-16.786253934999934,13.249898881000036],[-16.79169369799996,13.265896223000027],[-16.796277264999958,13.270061370000064],[-16.80103042999997,13.26996222400004],[-16.807099807999975,13.275821826000026],[-16.80654888999993,13.28733576600007],[-16.802935265999963,13.301232475000063],[-16.803702227999963,13.318901972000049],[-16.807342494999943,13.331140294000022],[-16.814264806999972,13.338862549000055],[-16.812338289999957,13.340975009000033],[-16.81196579599998,13.34491269800003],[-16.808693396999956,13.346182168000041],[-16.80553784999995,13.345155329000022],[-16.800618648999944,13.349976317000028],[-16.79837978599994,13.35986428800004],[-16.79626357999996,13.362155010000038],[-16.793539377999934,13.379128257000048],[-16.785127770999964,13.381068196000058],[-16.766356239999936,13.389722620000043],[-16.754092784999955,13.398876604000066],[-16.737751328999934,13.418382673000053],[-16.724282348999964,13.443738231000054],[-16.71898580499993,13.441055751000022],[-16.707246638999948,13.441277565000064],[-16.704778214999976,13.435116788000073],[-16.70570734499995,13.432962703000044],[-16.704755975999944,13.428108661000067],[-16.698571930999947,13.426456732000076],[-16.697638095999935,13.428340938000076],[-16.690844294999977,13.425339951000069],[-16.689557014999934,13.418751158000077],[-16.684806048999974,13.417952768000077],[-16.68358816799997,13.415153291000024],[-16.673142878999954,13.40832559000006],[-16.671360824999965,13.408846164000067],[-16.66857439299997,13.404524707000064],[-16.665666145999978,13.404223708000075],[-16.664955951999957,13.396130872000072],[-16.659484799999973,13.384473644000025],[-16.644752488999927,13.39459411300004],[-16.64505513699993,13.399678958000038],[-16.643089370999974,13.400632416000064]]]}},{"type":"Feature","properties":{"shapeName":"Janjanbureh","shapeISO":"GM-M","shapeID":"31243875B72482523363184","shapeGroup":"GMB","shapeType":"ADM1"},"geometry":{"type":"Polygon","coordinates":[[[-14.522126527999944,13.380528237000021],[-14.52781569299998,13.384287989000029],[-14.52660439799996,13.37740326100004],[-14.526915550999945,13.362240777000068],[-14.546485304999976,13.321350083000027],[-14.581084136999948,13.363365092000038],[-14.58473195099998,13.359212247000073],[-14.590957382999932,13.355657643000029],[-14.599302975999933,13.354111407000062],[-14.613572278999982,13.347598206000043],[-14.632235591999972,13.343764156000077],[-14.663478834999978,13.34281862000006],[-14.682136340999932,13.346579477000034],[-14.695933553999964,13.351646501000062],[-14.71937970199997,13.374415379000027],[-14.733413794999933,13.373660591000032],[-14.735521906999963,13.375729041000056],[-14.736284620999982,13.380050151000034],[-14.734839995999948,13.38648424400003],[-14.744398255999954,13.394922999000073],[-14.75561055199995,13.409638795000035],[-14.76515524499996,13.424204018000069],[-14.768786473999967,13.435124486000063],[-14.81036370399994,13.43590187600006],[-14.816129091999926,13.437094410000043],[-14.854207780999957,13.45271525100003],[-14.892907032999972,13.449169912000059],[-14.904895556999975,13.44917472800006],[-14.917034868999963,13.452001146000043],[-14.938885512999946,13.460399507000034],[-14.962557458999981,13.477931008000041],[-14.996250691999933,13.48498907000004],[-15.013401857999952,13.49300949600007],[-15.046799047999968,13.520186896000041],[-15.066690494999932,13.541199659000029],[-15.073982232999981,13.556644906000031],[-15.076572149999947,13.584568036000064],[-15.116961512999978,13.584849425000073],[-15.14245521099997,13.559214545000032],[-15.157935344999942,13.550441893000027],[-15.16431145799993,13.550140721000048],[-15.168621086999963,13.545999852000023],[-15.170499635999931,13.551399161000063],[-15.173725827999931,13.552510854000047],[-15.177216438999949,13.550874560000068],[-15.179192955999952,13.554734960000076],[-15.182382187999963,13.556069432000072],[-15.186783706999961,13.554432339000073],[-15.18906287699997,13.556807121000077],[-15.192402338999955,13.556061917000022],[-15.19528874599996,13.558287642000039],[-15.198628948999954,13.558433539000077],[-15.200904778999927,13.556649348000064],[-15.202880085999936,13.55857865400003],[-15.20409364699998,13.55738941800007],[-15.206371732999969,13.558278732000076],[-15.211680889999968,13.553075711000076],[-15.207730774999959,13.549811345000023],[-15.204087056999981,13.549665816000072],[-15.204234055999962,13.544021518000022],[-15.20969735899996,13.541789032000054],[-15.215308495999977,13.535248900000056],[-15.221078256999931,13.536432116000071],[-15.220174785999973,13.544453583000063],[-15.222605447999968,13.546233802000074],[-15.226701890999948,13.543556565000074],[-15.22943450899993,13.543554073000053],[-15.232321533999936,13.546224962000053],[-15.237180456999965,13.54711158400005],[-15.238848041999972,13.544733505000067],[-15.238237390999927,13.541317881000055],[-15.242486883999959,13.540125551000074],[-15.245519575999936,13.536706386000048],[-15.245059442999946,13.532102383000051],[-15.24262786099996,13.529431198000054],[-15.245507704999966,13.525120994000076],[-15.25142729099997,13.524520997000025],[-15.256280119999929,13.520060153000031],[-15.25597335599997,13.517089850000048],[-15.262199386999953,13.51931137300005],[-15.262504767999928,13.520944891000056],[-15.259317825999972,13.52169086500004],[-15.256740123999975,13.524367075000043],[-15.257047703999945,13.528080028000034],[-15.26540207599993,13.532824289000075],[-15.270409288999929,13.530739502000074],[-15.26903905499995,13.527176244000032],[-15.275103434999949,13.520485777000033],[-15.279811392999932,13.522411459000068],[-15.283146039999963,13.51824885600007],[-15.287850894999963,13.517575106000038],[-15.291647393999938,13.51890749000006],[-15.297105232999968,13.51340545000005],[-15.295278973999928,13.50954581600007],[-15.298617424999975,13.508799208000028],[-15.299826543999927,13.504638911000029],[-15.30251532099993,13.504912604000026],[-15.309702441999946,13.512201954000034],[-15.317294947999926,13.51442041000007],[-15.338395134999928,13.515135451000049],[-15.344470144999946,13.517429384000025],[-15.353283165999926,13.523506825000027],[-15.359974310999974,13.531517885000028],[-15.368207975999951,13.555122039000025],[-15.371883492999928,13.575613572000066],[-15.371290493999936,13.58482323100003],[-15.369623284999932,13.586756581000031],[-15.36673802799993,13.586538048000023],[-15.367528354999934,13.606736762000025],[-15.368744077999963,13.607329078000078],[-15.36890098899994,13.61059646900003],[-15.367550595999944,13.621143975000052],[-15.356220908999944,13.661040266000043],[-15.351220901999966,13.669290696000076],[-15.342272220999973,13.67821488900006],[-15.32800648899996,13.687294394000048],[-15.31752879499993,13.689981556000077],[-15.307199482999977,13.690143116000058],[-15.30385567299993,13.688661959000058],[-15.295945908999954,13.68005689000006],[-15.28194960999997,13.661878441000056],[-15.26796862699996,13.655358659000058],[-15.252161752999939,13.644978171000048],[-15.240614925999978,13.64083080000006],[-15.214022236999938,13.639917639000032],[-15.205988849999926,13.642272959000024],[-15.194606481999926,13.652382169000077],[-15.163025911999966,13.668223358000034],[-15.158927510999945,13.672236326000075],[-15.14677997299998,13.678779131000056],[-15.125825507999934,13.693123789000026],[-15.114738280999973,13.697436541000059],[-15.070690987999967,13.720846487000074],[-15.051397066999982,13.724267437000037],[-15.04729475299996,13.723080018000076],[-15.04638265999995,13.72040665700007],[-15.04076079999993,13.716991464000046],[-15.025567748999947,13.711052309000024],[-15.004450543999951,13.695829269000058],[-14.989107452999974,13.698651140000038],[-14.964192327999967,13.708600295000053],[-14.95857123299993,13.709193537000033],[-14.947634016999928,13.704884096000058],[-14.908593419999931,13.700045531000058],[-14.897810163999964,13.69410011900004],[-14.893254832999958,13.68979082900006],[-14.891890794999938,13.682957860000045],[-14.896152250999933,13.664244890000077],[-14.906331609999938,13.657342283000048],[-14.919547122999973,13.65303953800003],[-14.925017159999982,13.645911786000056],[-14.929270329999952,13.643982136000034],[-14.95083772299995,13.639977015000056],[-14.956153774999962,13.637601518000054],[-14.96860888499998,13.62616653200007],[-14.977873883999962,13.613468132000037],[-14.981366520999927,13.614656665000041],[-14.98375554699993,13.613386715000047],[-14.97438399799995,13.587029244000064],[-14.967855976999942,13.578562199000032],[-14.956924783999966,13.573213418000023],[-14.937337311999954,13.57751668000003],[-14.926765385999943,13.575877449000075],[-14.915928320999967,13.578327307000052],[-14.906666778999977,13.577284294000037],[-14.889059355999962,13.565691645000072],[-14.87949589799996,13.562419523000074],[-14.859998914999949,13.548446581000064],[-14.853385706999973,13.556390044000068],[-14.84533573699997,13.56173231400004],[-14.833036830999959,13.563358237000045],[-14.820131911999965,13.563052213000049],[-14.809203600999979,13.559182299000042],[-14.79737240399993,13.546250791000034],[-14.792060202999949,13.544761119000043],[-14.76640337699996,13.545184058000075],[-14.747133167999948,13.535659353000028],[-14.735143224999945,13.53312192900006],[-14.714342226999975,13.536218185000052],[-14.708889184999975,13.526334634000023],[-14.704355953999936,13.509471120000057],[-14.689348189999976,13.494451397000034],[-14.678438115999938,13.480921382000076],[-14.659820090999972,13.445620864000034],[-14.651642815999935,13.433727229000056],[-14.641163415999927,13.433375750000039],[-14.632052181999939,13.437818522000043],[-14.627186295999934,13.44434669800006],[-14.619415870999944,13.46416382600006],[-14.617885543999932,13.472182114000077],[-14.617709701999956,13.487331873000073],[-14.627049670999952,13.532424614000035],[-14.62734588199993,13.537177989000043],[-14.625056812999958,13.54482381400004],[-14.617450598999937,13.554615196000043],[-14.60726740399997,13.561580242000048],[-14.595723475999932,13.564829446000033],[-14.588891185999955,13.564966819000063],[-14.577361051999958,13.560194672000023],[-14.571902989999955,13.55602659300007],[-14.568448160999935,13.535523775000058],[-14.580800891999957,13.503165542000033],[-14.58142601399993,13.492843830000027],[-14.576124292999964,13.486893776000045],[-14.571270726999956,13.48510318700005],[-14.55533769799996,13.48344165900005],[-14.537604242999976,13.471081777000052],[-14.522275064999974,13.471647216000065],[-14.513326635999931,13.46888228000006],[-14.506700861999946,13.443619607000073],[-14.506432452999945,13.426464073000034],[-14.505088144999945,13.416064453000047],[-14.50358058699993,13.414286279000066],[-14.503609688999973,13.414131363000024],[-14.503881968999963,13.412986851000028],[-14.504602472999977,13.412016600000072],[-14.501015415999973,13.404471215000058],[-14.500852400999975,13.393895198000052],[-14.498054391999972,13.385199421000038],[-14.505196486999978,13.381414647000042],[-14.509515649999969,13.380687885000043],[-14.510639770999944,13.381792828000073],[-14.514396120999947,13.380881099000021],[-14.520937849999939,13.381796183000063],[-14.522126527999944,13.380528237000021]]]}},{"type":"Feature","properties":{"shapeName":"Kanifing","shapeISO":"GM-W","shapeID":"31243875B42421745591684","shapeGroup":"GMB","shapeType":"ADM1"},"geometry":{"type":"Polygon","coordinates":[[[-16.635280248999948,13.403870733000076],[-16.63544791299995,13.403719522000074],[-16.635678435999978,13.403793090000022],[-16.636389147999978,13.404576636000058],[-16.63659570599998,13.404507742000021],[-16.636709241999938,13.404289324000047],[-16.63675178999995,13.403778626000076],[-16.637088535999965,13.403686367000034],[-16.637333377999937,13.403609716000062],[-16.637592740999935,13.403412873000036],[-16.63774455999993,13.403186701000038],[-16.637942278999958,13.40294522000005],[-16.638127458999975,13.40311666100007],[-16.638160008999932,13.403394179000031],[-16.638513511999975,13.403511985000023],[-16.63869731899996,13.403480767000076],[-16.63978831999998,13.40321847000007],[-16.639899569999955,13.403354236000041],[-16.640033045999928,13.403517129000022],[-16.640121299999976,13.403516555000067],[-16.640337690999957,13.403410927000039],[-16.640884530999926,13.40282116000003],[-16.640733490999935,13.401599113000032],[-16.64153469599995,13.401866948000077],[-16.64187605899997,13.402160050000077],[-16.64241198999997,13.402012359000025],[-16.64257631199996,13.401789044000054],[-16.64295033299993,13.401002943000037],[-16.64334193299993,13.400945573000058],[-16.643089370999974,13.400632416000064],[-16.64505513699993,13.399678958000038],[-16.644752488999927,13.39459411300004],[-16.659484799999973,13.384473644000025],[-16.664955951999957,13.396130872000072],[-16.665666145999978,13.404223708000075],[-16.66857439299997,13.404524707000064],[-16.671360824999965,13.408846164000067],[-16.673142878999954,13.40832559000006],[-16.68358816799997,13.415153291000024],[-16.684806048999974,13.417952768000077],[-16.689557014999934,13.418751158000077],[-16.690844294999977,13.425339951000069],[-16.697638095999935,13.428340938000076],[-16.698571930999947,13.426456732000076],[-16.704755975999944,13.428108661000067],[-16.70570734499995,13.432962703000044],[-16.704778214999976,13.435116788000073],[-16.707246638999948,13.441277565000064],[-16.71898580499993,13.441055751000022],[-16.724282348999964,13.443738231000054],[-16.723153511999953,13.449020243000064],[-16.71484942199993,13.458932301000061],[-16.707459163999943,13.460709132000034],[-16.70853741299993,13.46193867200003],[-16.700379220999935,13.467433967000034],[-16.69367383699995,13.475771580000071],[-16.680666255999938,13.482039439000062],[-16.676603263999937,13.482055255000034],[-16.67118776999996,13.484647085000063],[-16.667204357999935,13.489229752000028],[-16.66155946799995,13.475967862000061],[-16.65914494499998,13.474410851000073],[-16.64208949199997,13.47420276300005],[-16.62904180299995,13.469318165000061],[-16.631737554999972,13.456623931000024],[-16.633997436999948,13.453847965000023],[-16.64062572199998,13.45359241400007],[-16.64335833399997,13.449313893000067],[-16.645264707999956,13.448825646000046],[-16.646803078999937,13.450378890000025],[-16.648797806999937,13.447579063000035],[-16.650057962999938,13.449066137000045],[-16.649516159999962,13.451074801000061],[-16.65157073699993,13.449413055000036],[-16.651513404999946,13.451180644000033],[-16.654294077999964,13.451604179000071],[-16.654526156999964,13.450005365000038],[-16.661091712999962,13.446609717000058],[-16.657346692999965,13.445188834000021],[-16.65516474599997,13.44093573400005],[-16.657846776999975,13.432010439000067],[-16.65725000699996,13.42884990400006],[-16.654344660999982,13.429005920000066],[-16.654009643999927,13.426611948000073],[-16.656232803999956,13.425570418000063],[-16.65601866399993,13.423807027000066],[-16.652995501999953,13.424907050000058],[-16.65279890599993,13.423432602000048],[-16.64997239099995,13.422606753000025],[-16.650923472999978,13.420774868000024],[-16.654412203999982,13.419580536000069],[-16.65545680499997,13.416660241000045],[-16.652771377999954,13.416000841000027],[-16.651525876999926,13.413407439000025],[-16.649076054999966,13.414245013000027],[-16.646162474999926,13.413168649000056],[-16.64606419499995,13.411134181000023],[-16.64257749199993,13.410316212000055],[-16.641071428999965,13.407586249000076],[-16.638389810999968,13.407888910000054],[-16.635280248999948,13.403870733000076]]]}},{"type":"Feature","properties":{"shapeName":"Kerewan","shapeISO":"GM-N","shapeID":"31243875B21899311231896","shapeGroup":"GMB","shapeType":"ADM1"},"geometry":{"type":"MultiPolygon","coordinates":[[[[-16.13327977399996,13.602416480000045],[-16.12358399599998,13.593226694000066],[-16.088142305999952,13.59302658100006],[-16.09105866899995,13.591584240000032],[-16.09214411199997,13.589256405000071],[-16.09028466099994,13.582116595000059],[-16.084961954999926,13.576600136000025],[-16.085298055999942,13.570165503000055],[-16.08710355599993,13.565511468000068],[-16.089470809999966,13.563892857000042],[-16.091684764999968,13.568708058000027],[-16.09516928299996,13.571730672000058],[-16.098274583999967,13.571717025000055],[-16.102088279999975,13.566875357000072],[-16.102940153999953,13.553558562000035],[-16.099053597999955,13.542496362000065],[-16.10614196499995,13.534959767000032],[-16.10740306799994,13.531201518000046],[-16.10463885599995,13.525852772000064],[-16.097150227999975,13.525707005000072],[-16.093326416999957,13.528225526000028],[-16.08912019899998,13.52699296700007],[-16.08818838299993,13.52288692600007],[-16.089983794999966,13.516088529000058],[-16.094332909999935,13.508653537000043],[-16.103969674999973,13.499497618000078],[-16.108712560999948,13.498404502000028],[-16.120416964999947,13.50210515200007],[-16.130268644999944,13.500095262000059],[-16.13463941499998,13.497573759000034],[-16.13681969099997,13.495240821000039],[-16.13789415699995,13.490768513000035],[-16.130716421999978,13.478828196000052],[-16.130489332999957,13.469358219000071],[-16.13831553899996,13.464051307000034],[-16.145936293999966,13.454009628000051],[-16.181098949999978,13.438836568000056],[-16.185443920999944,13.43140028700003],[-16.20802800799993,13.415567915000054],[-16.211429514999963,13.407488020000073],[-16.243694588999972,13.381197286000031],[-16.245277784999928,13.378509102000066],[-16.264145431999964,13.365460340000027],[-16.283039306999967,13.357770917000039],[-16.30008314099996,13.345622436000042],[-16.301434994999966,13.34248843000006],[-16.31007617499995,13.33752996800007],[-16.315553982999973,13.338171694000039],[-16.320605960999956,13.344399530000032],[-16.335448155999927,13.347225438000066],[-16.354795319999937,13.339751938000063],[-16.382139828999982,13.335025564000034],[-16.390557144999946,13.331182520000027],[-16.40743095399995,13.330419411000037],[-16.411295276999965,13.328164412000035],[-16.417240772999946,13.330811507000021],[-16.44107029299994,13.349215360000073],[-16.447015248999946,13.351638325000067],[-16.45066470599994,13.351617453000074],[-16.455017160999944,13.354719379000073],[-16.475120491999974,13.359740077000026],[-16.483331931999942,13.359692103000043],[-16.49566554699993,13.362299687000075],[-16.507525132999945,13.362005994000071],[-16.507765714999948,13.36401465800003],[-16.49846201699995,13.371886978000077],[-16.496451804999936,13.378822569000022],[-16.484436426999935,13.391065742000023],[-16.482611429999963,13.391076458000043],[-16.482861440999955,13.394648525000036],[-16.480143021999936,13.397791315000063],[-16.47996953699993,13.40672617000007],[-16.47817308799995,13.411426965000032],[-16.478689500999963,13.42125115500005],[-16.477360700999952,13.423715750000042],[-16.48491942499993,13.437013969000077],[-16.484644082999978,13.439731467000058],[-16.480551755999954,13.439183799000034],[-16.484522685999934,13.443734523000046],[-16.486106142999972,13.448156339000036],[-16.499374071999966,13.460084573000074],[-16.50100189699998,13.463505410000039],[-16.50965243899998,13.46888529100005],[-16.517684,13.468693973000029],[-16.523404151999955,13.472518690000072],[-16.528801502999954,13.471485339000026],[-16.528384247999952,13.47477544700007],[-16.52999349499993,13.475194463000037],[-16.53000985899996,13.477767242000027],[-16.532649670999945,13.479466395000031],[-16.53848891599995,13.47900187600004],[-16.538496230999954,13.480145328000049],[-16.544633071999954,13.480536462000032],[-16.544648680999956,13.482966289000046],[-16.547137068999973,13.483808586000066],[-16.54978811099994,13.487222707000058],[-16.54935916599993,13.488654720000056],[-16.543232216999968,13.489835967000033],[-16.54368736999993,13.492477497000039],[-16.53313012999996,13.508980017000056],[-16.52713638499995,13.531171912000048],[-16.528599459999953,13.554390252000076],[-16.536301178999963,13.570637757000043],[-16.54853591099993,13.587214120000056],[-16.546214756999973,13.589801369000043],[-16.54565345499998,13.59337823900006],[-16.152995244999943,13.59309234500006],[-16.148836719999963,13.602046322000035],[-16.138180811999973,13.603860417000021],[-16.13327977399996,13.602416480000045]]],[[[-15.373032515999967,13.62965457100006],[-15.37596627499994,13.61320370900006],[-15.377407262999952,13.564187136000044],[-15.376826219999941,13.556761574000063],[-15.372822757999927,13.545070923000026],[-15.361788821999937,13.526799461000053],[-15.351527095999927,13.51641700500005],[-15.339376008999977,13.511049552000031],[-15.31318661399996,13.506813402000034],[-15.307110706999936,13.503386153000065],[-15.304256726999938,13.497077085000058],[-15.307436764999977,13.461611498000025],[-15.310465012999941,13.456223532000024],[-15.320129953999981,13.449063370000033],[-15.347619576999932,13.438444098000048],[-15.355585866999945,13.438247314000023],[-15.35976269799994,13.440840666000042],[-15.391645915999959,13.45109736300003],[-15.412721101999978,13.462574713000038],[-15.424312613999973,13.473880765000047],[-15.437249430999941,13.494095621000042],[-15.444089885999972,13.499746253000069],[-15.451304713999946,13.502518279000071],[-15.460032208999962,13.502502420000042],[-15.470842329999982,13.50025443800007],[-15.490368535999949,13.492604983000035],[-15.500425586999938,13.493513423000024],[-15.508023796999964,13.497953971000072],[-15.51449506399996,13.507595036000055],[-15.522096395999938,13.513149072000033],[-15.527423660999943,13.519821611000054],[-15.544509069999947,13.523683860000062],[-15.561585417999936,13.523460488000069],[-15.569927861999929,13.52084244200006],[-15.578265190999957,13.516181911000047],[-15.589055023999947,13.50594566500007],[-15.595863531999953,13.497203721000062],[-15.59849879799998,13.488842904000023],[-15.608511302999943,13.47210975400003],[-15.612876751999977,13.473027427000034],[-15.622190286999967,13.480059466000057],[-15.635317460999943,13.494229243000063],[-15.640068269999972,13.497187650000058],[-15.653550863999953,13.501794253000071],[-15.67347571299996,13.503226765000022],[-15.680303053999978,13.502280066000026],[-15.688636909999957,13.497430328000064],[-15.706260307999969,13.490512170000045],[-15.724800394999932,13.47504301400005],[-15.726788415999977,13.471965581000063],[-15.735903422999968,13.466912660000048],[-15.787623562999954,13.45676818100003],[-15.788934708999932,13.455302927000048],[-15.796923117999938,13.455277748000071],[-15.803495254999973,13.458328485000038],[-15.816622964999965,13.459403162000058],[-15.816924203999974,13.460422262000066],[-15.847643190999975,13.467897980000032],[-15.873189108999952,13.462878112000055],[-15.894340782999961,13.45494052500004],[-15.905563963999953,13.44846683000003],[-15.913752281999962,13.450724713000056],[-15.933332038999936,13.452439936000076],[-15.954351412999927,13.448786939000058],[-15.95756821599997,13.449632516000065],[-15.958731041999954,13.448198431000037],[-15.966905397999938,13.446880470000053],[-15.987363351999932,13.449088485000061],[-15.994817356999931,13.44580669000004],[-16.012892971999975,13.445913310000037],[-16.02292542899994,13.443728289000035],[-16.040456891999952,13.44472866600006],[-16.083345631999975,13.441152427000077],[-16.116607242999976,13.448512493000067],[-16.12832012299998,13.454536002000054],[-16.131834354999967,13.464169920000074],[-16.12874388499995,13.46704298700007],[-16.12787702999998,13.476875284000073],[-16.13102224599993,13.485617342000069],[-16.13598191999995,13.491849362000039],[-16.13580861099996,13.493815820000066],[-16.126155770999958,13.499220276000074],[-16.119583553999973,13.49960709800007],[-16.106600217999926,13.495733345000076],[-16.102589440999964,13.497180599000046],[-16.094226121999952,13.505258710000021],[-16.085617833999947,13.519860186000074],[-16.085087748999968,13.523793882000064],[-16.08913887999995,13.531102977000046],[-16.101903523999965,13.526758322000035],[-16.10611721099997,13.529598917000044],[-16.09795364599995,13.541607699000053],[-16.097787395999944,13.545182408000073],[-16.10055336399995,13.550888607000047],[-16.101495412999952,13.557138906000034],[-16.099991793999948,13.56777809600004],[-16.095437542999946,13.570478604000073],[-16.091020965999974,13.563349991000052],[-16.087914138999963,13.563006148000056],[-16.085910576999936,13.564265765000073],[-16.083563554999955,13.570351740000035],[-16.083039063999934,13.575536296000053],[-16.08891542799995,13.582301276000067],[-16.091317152999977,13.588187835000042],[-16.09132614699996,13.590153481000073],[-16.086039838999966,13.592678356000022],[-15.770405240999935,13.593261686000062],[-15.66062754799998,13.591167988000052],[-15.60965011999997,13.591865132000066],[-15.601207160999934,13.590582963000031],[-15.470254308999927,13.590301508000039],[-15.462575350999941,13.640075400000057],[-15.421804443999974,13.640197812000054],[-15.418741644999955,13.640616246000036],[-15.417371785999933,13.642581501000052],[-15.417157240999927,13.640722224000058],[-15.414307324999982,13.642070065000041],[-15.41282244599995,13.638663202000032],[-15.408178796999948,13.641253705000054],[-15.40775978499994,13.64332065900004],[-15.405645917999948,13.642704240000057],[-15.405229878999933,13.646527509000066],[-15.399203601999943,13.643747811000026],[-15.401093100999958,13.63661614800003],[-15.398238290999927,13.635071038000035],[-15.39918225699995,13.631040301000041],[-15.395482450999964,13.62949651300005],[-15.373032515999967,13.62965457100006]]]]}},{"type":"Feature","properties":{"shapeName":"Kuntaur","shapeISO":"GM-M","shapeID":"31243875B86283726287100","shapeGroup":"GMB","shapeType":"ADM1"},"geometry":{"type":"Polygon","coordinates":[[[-15.373032515999967,13.62965457100006],[-15.395482450999964,13.62949651300005],[-15.39918225699995,13.631040301000041],[-15.398238290999927,13.635071038000035],[-15.401093100999958,13.63661614800003],[-15.399203601999943,13.643747811000026],[-15.405229878999933,13.646527509000066],[-15.405645917999948,13.642704240000057],[-15.40775978499994,13.64332065900004],[-15.408178796999948,13.641253705000054],[-15.41282244599995,13.638663202000032],[-15.414307324999982,13.642070065000041],[-15.417157240999927,13.640722224000058],[-15.417371785999933,13.642581501000052],[-15.418741644999955,13.640616246000036],[-15.421804443999974,13.640197812000054],[-15.462575350999941,13.640075400000057],[-15.449772559999928,13.68209365100006],[-15.413487760999942,13.747398755000063],[-15.405471916999943,13.756916798000077],[-15.394126276999941,13.766594910000038],[-15.37284993999998,13.780110318000027],[-15.340148036999949,13.789094243000022],[-15.294537348999938,13.79054781900004],[-15.27465621899995,13.783648835000065],[-15.264607644999955,13.77777098200005],[-15.248580941999933,13.765648339000052],[-15.242125360999978,13.757802924000032],[-15.237889699999982,13.74995519600003],[-15.232920949999937,13.748616859000037],[-15.217491264999978,13.749664088000031],[-15.200538811999934,13.762334429000077],[-15.138937010999939,13.794300941000074],[-15.068927692999978,13.823236244000043],[-15.008754944999964,13.807202664000044],[-14.988325442999951,13.796824456000024],[-14.962004449999938,13.786701157000039],[-14.944648102999963,13.793143411000074],[-14.92532500699997,13.795852214000035],[-14.913233741999932,13.796583261000023],[-14.887317930999927,13.792841122000027],[-14.873899208999944,13.787859107000031],[-14.84866872799995,13.771727817000055],[-14.842173050999975,13.770436802000063],[-14.81422086699996,13.756164226000067],[-14.804514924999978,13.745550310000056],[-14.800910251999937,13.733391362000077],[-14.801936848999958,13.716147517000024],[-14.804403473999969,13.705548236000027],[-14.800008157999969,13.68879473800007],[-14.796413039999948,13.666741169000034],[-14.760088027999927,13.63794391500005],[-14.71754855499995,13.616908710000075],[-14.660860541999966,13.642846189000068],[-14.63945980699998,13.649318096000059],[-14.58994553399998,13.655389897000077],[-14.554753034999976,13.653845105000073],[-14.539584522999974,13.649718359000076],[-14.519086613999946,13.636816923000026],[-14.503581722999968,13.621591645000024],[-14.491909926999938,13.60559588700005],[-14.48947798599994,13.594068341000025],[-14.476891846999933,13.567754520000051],[-14.467340183999966,13.542362540000056],[-14.45089381899993,13.532291346000022],[-14.446858022999947,13.528324747000056],[-14.450039698999944,13.526776940000047],[-14.45193317199994,13.519996437000032],[-14.458445119999965,13.514922102000071],[-14.461560823999946,13.510476378000021],[-14.468356821999976,13.50738124000003],[-14.472270573999936,13.50117021400007],[-14.479208166999967,13.499205848000031],[-14.482536438999944,13.496385779000036],[-14.474627403999932,13.480255682000063],[-14.474562443999957,13.476933871000028],[-14.477026956999964,13.472698570000034],[-14.489890532999937,13.468201866000072],[-14.498844258999952,13.468502575000059],[-14.502748980999968,13.465966055000024],[-14.507096433999948,13.458765829000072],[-14.508970423999926,13.460465681000073],[-14.510832094999955,13.468243494000035],[-14.514002878999975,13.471500668000033],[-14.522520702999941,13.473213185000077],[-14.537974791999943,13.473100729000066],[-14.55427294599997,13.485144872000035],[-14.569001871999944,13.487149484000042],[-14.57715699199997,13.490343723000024],[-14.57989392899998,13.494588811000028],[-14.579590198999938,13.50306928200007],[-14.574945112999956,13.515924253000037],[-14.565014185999928,13.535625409000033],[-14.570465861999935,13.556837175000055],[-14.575659343999973,13.56122786700007],[-14.589664898999956,13.566622535000022],[-14.596456203999935,13.566350906000025],[-14.61192375099995,13.561710896000022],[-14.624513538999963,13.549150016000056],[-14.628715833999934,13.541099349000035],[-14.628316844999972,13.518906797000056],[-14.62544093799994,13.510421501000053],[-14.620645424999964,13.482780301000048],[-14.620812803999968,13.46822144600003],[-14.63146504599996,13.444136956000023],[-14.642596972999968,13.435954631000072],[-14.648519345999944,13.43483215200007],[-14.651550063999935,13.436108526000055],[-14.65601885999996,13.441627374000063],[-14.668545348999942,13.468783651000024],[-14.677047443999982,13.483071202000076],[-14.689809758999957,13.49884796300006],[-14.702651487999958,13.510171620000051],[-14.703216186999953,13.520773628000029],[-14.712947836999945,13.536969677000059],[-14.741409761999932,13.53572855300007],[-14.764802826999926,13.546918408000067],[-14.794348670999966,13.546449727000038],[-14.810661402999926,13.563000768000052],[-14.82481734299995,13.568099762000031],[-14.833486225999934,13.568812453000021],[-14.842807464999964,13.566344840000056],[-14.858418522999955,13.555752781000024],[-14.862898042999973,13.554765815000053],[-14.877630702999966,13.56353729500006],[-14.889332201999935,13.567783318000068],[-14.903054832999942,13.57740096300006],[-14.910278553999945,13.580230706000066],[-14.929279528999928,13.581721013000049],[-14.933759370999951,13.58030872300003],[-14.961647538999955,13.579466457000024],[-14.967571420999946,13.58314245300005],[-14.972916724999948,13.593461790000049],[-14.974794445999976,13.601519048000057],[-14.975226933999977,13.611555074000023],[-14.973347505999982,13.617915708000055],[-14.963157207999927,13.628303754000058],[-14.956508177999979,13.632684578000067],[-14.942921061999982,13.63833588700004],[-14.919505465999976,13.642145891000041],[-14.898469430999967,13.656626680000045],[-14.892249877999973,13.665811873000052],[-14.888338388999955,13.684185753000065],[-14.888625314999956,13.688850455000022],[-14.89274130299998,13.697828039000058],[-14.900979716999927,13.702637393000032],[-14.903726639999945,13.702497127000072],[-14.90820748699997,13.70476043900004],[-14.91970093499998,13.705117814000062],[-14.925916928999982,13.707240013000046],[-14.931988295999929,13.709927419000053],[-14.934011615999964,13.712613629000032],[-14.957432807999965,13.715163081000071],[-14.985626458999945,13.705130431000043],[-15.003018631999964,13.702968164000026],[-15.031703449999952,13.715518090000046],[-15.051021570999978,13.725918255000067],[-15.071320500999946,13.72269043800003],[-15.103354658999933,13.709674876000065],[-15.119946858999981,13.699546690000034],[-15.134284781999952,13.693546064000031],[-15.15208761699995,13.681549243000063],[-15.160584866999955,13.677416446000052],[-15.161158554999929,13.670744325000044],[-15.163122982999937,13.668594511000038],[-15.196355897999979,13.652004141000077],[-15.197626062999973,13.64985460400004],[-15.201675651999949,13.652791440000044],[-15.20894371299994,13.645117210000024],[-15.212851214999944,13.643667483000058],[-15.240742068999964,13.644881792000035],[-15.244335201999945,13.64611805800007],[-15.278590533999932,13.669017777000022],[-15.29075801099998,13.683148723000045],[-15.302444671999979,13.691977183000063],[-15.312908337999943,13.69423708200003],[-15.326219312999967,13.692256938000071],[-15.337095699999963,13.68738662900006],[-15.348494906999974,13.679105767000067],[-15.356827080999949,13.669382583000072],[-15.36772612599998,13.646069311000076],[-15.373032515999967,13.62965457100006]]]}},{"type":"Feature","properties":{"shapeName":"Mansakonko","shapeISO":"GM-L","shapeID":"31243875B75097494588605","shapeGroup":"GMB","shapeType":"ADM1"},"geometry":{"type":"Polygon","coordinates":[[[-15.802167077999968,13.241212499000028],[-15.810102850999954,13.242494545000056],[-15.809983741999929,13.251731047000021],[-15.805655706999971,13.255409882000038],[-15.80746324599994,13.258922688000041],[-15.81614515299998,13.259334865000028],[-15.819892616999937,13.261082099000078],[-15.825279025999976,13.260624909000057],[-15.829160333999937,13.257680230000062],[-15.829144938999946,13.253135542000052],[-15.83153897699998,13.252981145000035],[-15.83842727299998,13.254131434000044],[-15.84413200199998,13.259243757000036],[-15.848158639999951,13.255125491000058],[-15.850402506999956,13.254824812000038],[-15.85267241899993,13.262000811000064],[-15.85029564599995,13.267139875000055],[-15.852703599999927,13.27094352000006],[-15.859290040999952,13.271214599000075],[-15.861220238999977,13.266809987000045],[-15.868110058999946,13.26825264200005],[-15.869161370999961,13.269275279000055],[-15.866037322999944,13.274636924000049],[-15.868746501999965,13.278879181000036],[-15.875041155999952,13.281203271000038],[-15.877732650999974,13.280460993000077],[-15.879515009999977,13.276643180000065],[-15.87829762299998,13.271076485000037],[-15.881728872999929,13.267985983000074],[-15.888455295999961,13.265616986000055],[-15.89534734199998,13.267645297000058],[-15.897285452999938,13.265586054000039],[-15.896967848999964,13.260602704000064],[-15.900547826999968,13.257364843000062],[-15.904437316999974,13.25691127500005],[-15.90953221899997,13.258652376000043],[-15.914014860999941,13.256730529000038],[-15.916291015999946,13.265078636000055],[-15.913605306999955,13.267287297000053],[-15.91361461899993,13.269779486000061],[-15.918881011999929,13.277237203000027],[-15.922028500999943,13.27839863500003],[-15.925019130999942,13.277654786000028],[-15.925146322999979,13.271716991000062],[-15.92738686499996,13.270536038000046],[-15.933070782999948,13.269635684000036],[-15.937418918999981,13.27167213100006],[-15.942655512999977,13.271213009000064],[-15.947634819999962,13.281603135000069],[-15.952740792999975,13.285982070000045],[-15.951420583999948,13.292877192000049],[-15.955805047999945,13.294491676000064],[-15.961225843999955,13.293188506000035],[-15.965697319999947,13.288407101000075],[-15.967570430999956,13.288949732000049],[-15.975280802999976,13.298815710000042],[-15.984064170999943,13.296216402000027],[-15.991181336999944,13.298021240000026],[-15.993797738999945,13.297278040000037],[-15.996573529999978,13.289754039000059],[-15.99955650399994,13.287176877000036],[-16.00518656299994,13.291369382000028],[-16.005767479999975,13.296131504000073],[-16.01157051599995,13.296841476000054],[-16.016603807999957,13.292423497000073],[-16.01789359399993,13.287653936000027],[-16.026105505999965,13.282856564000042],[-16.030941110999947,13.276056934000053],[-16.034304670999973,13.275127069000064],[-16.04534780299997,13.276364702000023],[-16.051699818999964,13.27432286100003],[-16.059699658999932,13.264028019000023],[-16.064186123999946,13.263276352000048],[-16.06774841699996,13.265093897000042],[-16.069445664999932,13.268201927000064],[-16.06910758799995,13.27644931900005],[-16.07061304399997,13.27845867600007],[-16.075859735999927,13.280360618000032],[-16.083900937999942,13.279593542000043],[-16.089865405999944,13.274620532000029],[-16.090953510999952,13.266919681000047],[-16.08905752299995,13.261247261000051],[-16.08418002199994,13.25815291500004],[-16.07706355099998,13.256350635000047],[-16.07649349899998,13.254337361000069],[-16.08171256999998,13.250100683000028],[-16.091993334999927,13.248407705000034],[-16.095926410999937,13.249490301000037],[-16.114701194999952,13.264618022000036],[-16.12636090199993,13.277943336000021],[-16.125058966999973,13.279598257000032],[-16.116455929999972,13.280185847000041],[-16.11253647199993,13.282218658000033],[-16.11086275699995,13.284424863000027],[-16.110700683999937,13.289922812000043],[-16.11408160899998,13.29283988800006],[-16.12082685799993,13.29500914700003],[-16.139166647999957,13.296027108000033],[-16.143087778999927,13.294360361000031],[-16.15482915499996,13.284778908000021],[-16.169722173999958,13.269410519000076],[-16.192311519999976,13.25996073500005],[-16.203670630999966,13.249462890000075],[-16.208752603999926,13.25585213000005],[-16.20956514599993,13.268858028000068],[-16.204581279999957,13.282441105000032],[-16.202058815999976,13.302059277000069],[-16.211483378999958,13.316123649000076],[-16.221261218999928,13.325788244000023],[-16.223921252999958,13.333837732000063],[-16.223197226999957,13.338696927000058],[-16.21595929199998,13.350641974000041],[-16.213018370999976,13.361283669000045],[-16.208012277999956,13.370652569000072],[-16.19682628199996,13.379317781000054],[-16.18826280199994,13.388611562000051],[-16.171663455999976,13.400599434000071],[-16.15081842099994,13.425432341000032],[-16.14618135099994,13.434432101000027],[-16.141668739999943,13.430238128000042],[-16.126095031999967,13.42242894900005],[-16.073243979999972,13.408275005000064],[-16.04649388499996,13.41223545300005],[-16.04163657299995,13.414454473000035],[-16.038473306999947,13.418865357000072],[-16.033044805999964,13.41888765300007],[-16.026692023999942,13.421662256000047],[-15.962862780999956,13.422921947000077],[-15.946773853999957,13.425548349000053],[-15.940232908999974,13.428413179000074],[-15.93756253999993,13.425307906000057],[-15.925142248999975,13.427919280000026],[-15.914799192999965,13.425464843000043],[-15.90970841099994,13.425776466000059],[-15.905969867999943,13.427255928000022],[-15.903736592999962,13.430782342000043],[-15.894309531999966,13.433014979000063],[-15.885167295999963,13.431288058000064],[-15.881724815999974,13.431886530000043],[-15.879035421999959,13.433655135000038],[-15.876956250999967,13.438500206000072],[-15.872762663999936,13.438514773000065],[-15.86768098899995,13.441464352000025],[-15.867245373999936,13.445277478000037],[-15.862917357999947,13.449617084000067],[-15.845240386999933,13.448797467000077],[-15.836537456999963,13.444281881000052],[-15.814048967999952,13.437831777000042],[-15.81030562799998,13.438137054000038],[-15.809712929999932,13.440044799000077],[-15.806264686999953,13.439029641000047],[-15.802073938999968,13.439922642000056],[-15.800730831999942,13.441392948000043],[-15.788597071999959,13.440844826000045],[-15.75730740199998,13.445265706000043],[-15.738153524999973,13.451186802000052],[-15.73305953199997,13.450761878000037],[-15.71255556999995,13.456391792000034],[-15.701175080999974,13.457596619000071],[-15.69190309399994,13.462826819000043],[-15.681162399999948,13.478543038000055],[-15.677128040999946,13.482219108000038],[-15.667405749999944,13.48766958300007],[-15.646083225999973,13.469252850000032],[-15.629411941999933,13.452581849000069],[-15.616368545999933,13.447995974000037],[-15.607232716999931,13.448458007000056],[-15.601071004999937,13.450457763000031],[-15.592273881999972,13.456557144000044],[-15.586302548999981,13.464927845000034],[-15.583772884999973,13.471897657000056],[-15.57904949999994,13.501083750000078],[-15.572634,13.512314052000022],[-15.569641288999946,13.513933569000073],[-15.555260153999939,13.514992115000041],[-15.541773532999969,13.514141985000037],[-15.535326634999933,13.512249917000076],[-15.53052663099993,13.509767761000035],[-15.51731598699996,13.49777335500005],[-15.50441520399994,13.490029277000076],[-15.496319752999966,13.487406426000064],[-15.488229234999949,13.487129071000027],[-15.48149056899996,13.48860819600003],[-15.463827587999958,13.496485156000062],[-15.45768581699997,13.496936270000049],[-15.45064124399994,13.49533629900003],[-15.442989243999932,13.48926554600007],[-15.430073106999942,13.471401353000033],[-15.40862164799995,13.454136873000039],[-15.387034630999949,13.44383478900005],[-15.357513879999942,13.435521465000022],[-15.350023306999958,13.434578995000038],[-15.341189197999938,13.436790321000046],[-15.315290570999935,13.447673512000051],[-15.306761940999934,13.455161370000042],[-15.303623229999971,13.46073651200004],[-15.299712599999964,13.487423642000067],[-15.300021787999981,13.497261993000052],[-15.30251532099993,13.504912604000026],[-15.299826543999927,13.504638911000029],[-15.298617424999975,13.508799208000028],[-15.295278973999928,13.50954581600007],[-15.297105232999968,13.51340545000005],[-15.291647393999938,13.51890749000006],[-15.287850894999963,13.517575106000038],[-15.283146039999963,13.51824885600007],[-15.279811392999932,13.522411459000068],[-15.275103434999949,13.520485777000033],[-15.26903905499995,13.527176244000032],[-15.270409288999929,13.530739502000074],[-15.26540207599993,13.532824289000075],[-15.257047703999945,13.528080028000034],[-15.256740123999975,13.524367075000043],[-15.259317825999972,13.52169086500004],[-15.262504767999928,13.520944891000056],[-15.262199386999953,13.51931137300005],[-15.25597335599997,13.517089850000048],[-15.256280119999929,13.520060153000031],[-15.25142729099997,13.524520997000025],[-15.245507704999966,13.525120994000076],[-15.24262786099996,13.529431198000054],[-15.245059442999946,13.532102383000051],[-15.245519575999936,13.536706386000048],[-15.242486883999959,13.540125551000074],[-15.238237390999927,13.541317881000055],[-15.238848041999972,13.544733505000067],[-15.237180456999965,13.54711158400005],[-15.232321533999936,13.546224962000053],[-15.22943450899993,13.543554073000053],[-15.226701890999948,13.543556565000074],[-15.222605447999968,13.546233802000074],[-15.220174785999973,13.544453583000063],[-15.221078256999931,13.536432116000071],[-15.215308495999977,13.535248900000056],[-15.20969735899996,13.541789032000054],[-15.204234055999962,13.544021518000022],[-15.204087056999981,13.549665816000072],[-15.207730774999959,13.549811345000023],[-15.211680889999968,13.553075711000076],[-15.206371732999969,13.558278732000076],[-15.20409364699998,13.55738941800007],[-15.202880085999936,13.55857865400003],[-15.200904778999927,13.556649348000064],[-15.198628948999954,13.558433539000077],[-15.19528874599996,13.558287642000039],[-15.192402338999955,13.556061917000022],[-15.18906287699997,13.556807121000077],[-15.186783706999961,13.554432339000073],[-15.182382187999963,13.556069432000072],[-15.179192955999952,13.554734960000076],[-15.177216438999949,13.550874560000068],[-15.173725827999931,13.552510854000047],[-15.170499635999931,13.551399161000063],[-15.168621086999963,13.545999852000023],[-15.169430255999941,13.54363898500003],[-15.210627238999962,13.526878797000052],[-15.208419626999955,13.50886489800007],[-15.207803561999981,13.472333399000036],[-15.209424264999939,13.469468815000027],[-15.210885154999971,13.447855944000025],[-15.216117018999967,13.435682448000023],[-15.218354920999957,13.425857294000025],[-15.229718867999964,13.405540970000061],[-15.247819938999953,13.38529092300007],[-15.264429126999971,13.372885092000047],[-15.280891363999956,13.364363660000038],[-15.31621334099998,13.351419879000048],[-15.335373096999945,13.347070105000057],[-15.350492688999964,13.344923735000066],[-15.36651399699997,13.345194307000042],[-15.399765308999974,13.35232813500005],[-15.414298759999951,13.357876107000038],[-15.464307018999932,13.382469018000052],[-15.46903115799995,13.38181810900005],[-15.478931930999977,13.383952720000025],[-15.48248797399998,13.390455584000051],[-15.516647871999965,13.395733691000032],[-15.527288324999972,13.386946615000056],[-15.530727733999981,13.381406061000064],[-15.536735108999949,13.37953361700005],[-15.562094791999982,13.361696324000036],[-15.58079043999993,13.352857512000071],[-15.592011081999942,13.349166289000038],[-15.625090826999951,13.345421620000025],[-15.644257148999941,13.346106676000034],[-15.660141979999935,13.35134370700007],[-15.687225030999969,13.364875882000035],[-15.71615118099993,13.355443193000042],[-15.737695998999982,13.350250149000033],[-15.770472783999935,13.346340871000052],[-15.793682823999973,13.34744209300004],[-15.803387179999959,13.342723679000073],[-15.802167077999968,13.241212499000028]]]}}],"meta":{"provider":"geoBoundaries","license":"Creative Commons Attribution 4.0 (CC BY 4.0)","sourceName":"Knippenberg, Erwin, & Moritz, Meyer. “The Hidden Potential of Mobile Phone Data Insights on COVID-19 in the Gambia.” Data Blog, The World Bank Data Catalog","sourceDataUpdateDate":"Thu Jan 19 07:31:04 2023","sourceUrl":"blogs.worldbank.org/opendata/hidden-potential-mobile-phone-data-insights-covid-19-gambia"}}