{"type":"FeatureCollection","crs":{"type":"name","properties":{"name":"urn:ogc:def:crs:OGC:1.3:CRS84"}},"features":[{"type":"Feature","properties":{"shapeName":"Belait","shapeISO":"BN-BE","shapeID":"89281809B69825435871977","shapeGroup":"BRN","shapeType":"ADM1"},"geometry":{"type":"Polygon","coordinates":[[[114.52339396700006,4.708672970000066],[114.52573312200002,4.704010433000064],[114.5256161640001,4.700163817000032],[114.52374484000006,4.691654561000064],[114.52011915000003,4.689789505000022],[114.52327700900003,4.685826244000054],[114.5231600510001,4.681862960000046],[114.52608399500002,4.680464149000045],[114.52608399500002,4.676617403000023],[114.52924185400002,4.673003774000051],[114.53204884000002,4.672071222000056],[114.53123013600009,4.663678195000045],[114.53356929100005,4.661113638000074],[114.54011892500012,4.659598215000074],[114.54082067200011,4.657383358000061],[114.53871543200012,4.653769630000056],[114.54842292600006,4.643860927000048],[114.5509959960001,4.644094074000066],[114.55181470100001,4.645959252000068],[114.55555003900008,4.646163256000023],[114.5573775040001,4.641063150000036],[114.56249440500005,4.639241675000051],[114.57071799700009,4.628859176000049],[114.57126623700003,4.62248388200004],[114.57492116700007,4.614833454000063],[114.574007434,4.612465448000023],[114.56852503900006,4.610643899000024],[114.56980426500002,4.604450598000028],[114.574007434,4.600625297000022],[114.58405849100006,4.596253499000056],[114.58716518100005,4.584595241000045],[114.58424123700001,4.581134159000044],[114.58478947700007,4.577855223000029],[114.59155109700009,4.577855223000029],[114.59374405500012,4.57512276600005],[114.59283032200005,4.560185147000027],[114.594109548,4.558545633000051],[114.60087116800003,4.557270453000058],[114.60434335100001,4.559638643000028],[114.61165321100009,4.551076690000059],[114.61549088700008,4.542878981000058],[114.62133877500003,4.541785946000061],[114.6218870140001,4.535774224000022],[114.62407997200012,4.533770305000075],[114.63047609900002,4.530855505000034],[114.63796870500005,4.530308978000051],[114.63650673300003,4.527394164000043],[114.63924793000001,4.522293210000043],[114.6385169450001,4.520289255000023],[114.63358278900012,4.520107077000034],[114.63358278900012,4.51682786300006],[114.63817500900007,4.50867815700002],[114.65289823700004,4.510012489000076],[114.65423671200006,4.50556470600003],[114.66003677100002,4.501116896000042],[114.66895994000004,4.500672114000054],[114.67475999900012,4.48643893000002],[114.68502164300003,4.475763860000029],[114.68502164300003,4.46508863400004],[114.687252435,4.456192494000049],[114.70152950400006,4.456192494000049],[114.70911419700008,4.445072168000024],[114.71491425700003,4.425944814000047],[114.74257607900006,4.391692273000046],[114.75328388100002,4.372563545000048],[114.76265320800007,4.365890618000037],[114.76577631700002,4.357883027000071],[114.77246869300006,4.363221430000067],[114.77916106900011,4.355658681000023],[114.7840688120001,4.346316357000035],[114.79789972300011,4.335194391000073],[114.8014689900001,4.319623364000051],[114.80459209900005,4.316509120000035],[114.8112844750001,4.316509120000035],[114.82333075300005,4.322292705000052],[114.83136160400011,4.321847816000059],[114.84206940600006,4.312949969000044],[114.8536695250001,4.31873358100006],[114.85188489100005,4.311170387000061],[114.84608483200009,4.305386716000044],[114.83805398000004,4.285365981000041],[114.83046928700003,4.274688040000058],[114.81306910900003,4.259115778000023],[114.81619221800008,4.251996924000025],[114.8202076440001,4.251107063000063],[114.82823849500005,4.260450556000023],[114.838946297,4.264454875000069],[114.85233105000009,4.279582115000039],[114.85590031700008,4.278692286000023],[114.85411568400002,4.264899798000044],[114.845192515,4.240428647000044],[114.83225392100007,4.21907137200003],[114.81529990100012,4.201273194000066],[114.81039215800001,4.191484023000044],[114.81039215800001,4.188369261000048],[114.80414594100012,4.187034360000041],[114.80325362400004,4.182584671000029],[114.79700740600003,4.174130192000064],[114.79477661400006,4.160335847000056],[114.79745356400008,4.155441022000048],[114.8014689900001,4.157220962000054],[114.80325362400004,4.161670794000031],[114.80905368300012,4.159445881000067],[114.80905368300012,4.154106064000075],[114.80726905000006,4.14832122100006],[114.79433045500002,4.130076440000039],[114.79477661400006,4.127406436000058],[114.79165350500011,4.123401415000046],[114.77960722800003,4.121176394000031],[114.7715763760001,4.108271150000064],[114.76265320800007,4.102040958000032],[114.72696053400011,4.053087763000065],[114.69885255400004,4.024604538000062],[114.687252435,4.020153944000072],[114.67297536500007,4.017038514000035],[114.63683653300006,4.002351325000063],[114.61631324600012,4.002351325000063],[114.61006702800012,4.004576673000031],[114.61586708800007,4.012142813000025],[114.62612873100011,4.018373699000051],[114.622559464,4.029945219000069],[114.61586708800007,4.039291326000068],[114.60828239500006,4.046412097000029],[114.58865142400009,4.045967051000048],[114.58195904800004,4.055758014000048],[114.57615898800009,4.06955417000006],[114.56902045400011,4.079344848000062],[114.56322039400004,4.079789876000063],[114.55697417600004,4.07711970400004],[114.55206643400004,4.080234903000076],[114.55206643400004,4.084240141000066],[114.5551895430001,4.09047047200005],[114.55340490900005,4.100705911000034],[114.5489433250001,4.101595943000063],[114.54448174100003,4.104711047000023],[114.5440355820001,4.106936113000074],[114.54938948300003,4.111386228000072],[114.54760485000008,4.122956411000075],[114.54180479000001,4.129186439000023],[114.53511241400008,4.130076440000039],[114.53065083000001,4.132301435000045],[114.52217382000003,4.144761297000059],[114.51637376000008,4.147431242000039],[114.50968138400003,4.142536336000035],[114.50388132500007,4.142091343000061],[114.49986589900004,4.143871313000034],[114.4967427900001,4.147431242000039],[114.49272736400007,4.157220962000054],[114.482019562,4.167455539000059],[114.47978877000003,4.183474611000065],[114.47398871000007,4.192373953000072],[114.4668501760001,4.209727379000071],[114.46149627500006,4.215956720000065],[114.45926548300008,4.236869142000046],[114.45435774000009,4.242653329000063],[114.45346542300001,4.247547607000058],[114.45658853200007,4.25244185400004],[114.45792700700008,4.259560704000023],[114.45034231400007,4.277802455000028],[114.43472677000011,4.275132958000029],[114.42624976000002,4.264454875000069],[114.42401896700005,4.255556359000025],[114.42000354200002,4.255111431000046],[114.40751110600002,4.257780998000044],[114.4034956800001,4.265789643000062],[114.3959109870001,4.263565028000073],[114.37047995700004,4.263565028000073],[114.36646453100002,4.255111431000046],[114.34281813500002,4.261340406000045],[114.32452564000005,4.256001287000061],[114.31783326400011,4.264009951000048],[114.32407948200012,4.319623364000051],[114.3338949670001,4.347650982000062],[114.30667930300001,4.365890618000037],[114.3151563130001,4.392137121000076],[114.31158704600011,4.405482447000054],[114.2977561350001,4.441068809000058],[114.2852636990001,4.452189196000063],[114.28392522400009,4.464199025000028],[114.26206346100003,4.506899044000022],[114.21164756000007,4.534919570000056],[114.19737049100002,4.530027175000043],[114.19603201500001,4.538032895000072],[114.19157043100006,4.54514901500005],[114.18175494600007,4.555378316000031],[114.17149330200004,4.569165403000056],[114.15944702500008,4.573612794000042],[114.08047698500002,4.583396957000048],[114.08047698500002,4.588288988000045],[114.11380791700003,4.586271127000032],[114.16772544100002,4.590701277000051],[114.17661423000004,4.593848999000045],[114.18140949800011,4.589652034000039],[114.22269558500011,4.592450013000075],[114.26901085500003,4.602359436000029],[114.31240218100004,4.615299768000057],[114.397664383,4.64677526600002],[114.41953548200001,4.653536486000064],[114.465733795,4.674868875000072],[114.50666900800002,4.699114737000059],[114.51906653000003,4.708323281000048],[114.52339396700006,4.708672970000066]]]}},{"type":"Feature","properties":{"shapeName":"Tutong","shapeISO":"BN-TU","shapeID":"89281809B59327831149370","shapeGroup":"BRN","shapeType":"ADM1"},"geometry":{"type":"Polygon","coordinates":[[[114.8536695250001,4.31873358100006],[114.84206940600006,4.312949969000044],[114.83136160400011,4.321847816000059],[114.82333075300005,4.322292705000052],[114.8112844750001,4.316509120000035],[114.80459209900005,4.316509120000035],[114.8014689900001,4.319623364000051],[114.79789972300011,4.335194391000073],[114.7840688120001,4.346316357000035],[114.77916106900011,4.355658681000023],[114.77246869300006,4.363221430000067],[114.76577631700002,4.357883027000071],[114.76265320800007,4.365890618000037],[114.75328388100002,4.372563545000048],[114.74257607900006,4.391692273000046],[114.71491425700003,4.425944814000047],[114.70911419700008,4.445072168000024],[114.70152950400006,4.456192494000049],[114.687252435,4.456192494000049],[114.68502164300003,4.46508863400004],[114.68502164300003,4.475763860000029],[114.67475999900012,4.48643893000002],[114.66895994000004,4.500672114000054],[114.66003677100002,4.501116896000042],[114.65423671200006,4.50556470600003],[114.65289823700004,4.510012489000076],[114.63817500900007,4.50867815700002],[114.63358278900012,4.51682786300006],[114.63358278900012,4.520107077000034],[114.6385169450001,4.520289255000023],[114.63924793000001,4.522293210000043],[114.63650673300003,4.527394164000043],[114.63796870500005,4.530308978000051],[114.63047609900002,4.530855505000034],[114.62407997200012,4.533770305000075],[114.6218870140001,4.535774224000022],[114.62133877500003,4.541785946000061],[114.61549088700008,4.542878981000058],[114.61165321100009,4.551076690000059],[114.60434335100001,4.559638643000028],[114.60087116800003,4.557270453000058],[114.594109548,4.558545633000051],[114.59283032200005,4.560185147000027],[114.59374405500012,4.57512276600005],[114.59155109700009,4.577855223000029],[114.58478947700007,4.577855223000029],[114.58424123700001,4.581134159000044],[114.58716518100005,4.584595241000045],[114.58405849100006,4.596253499000056],[114.574007434,4.600625297000022],[114.56980426500002,4.604450598000028],[114.56852503900006,4.610643899000024],[114.574007434,4.612465448000023],[114.57492116700007,4.614833454000063],[114.57126623700003,4.62248388200004],[114.57071799700009,4.628859176000049],[114.56249440500005,4.639241675000051],[114.5573775040001,4.641063150000036],[114.55555003900008,4.646163256000023],[114.55181470100001,4.645959252000068],[114.5509959960001,4.644094074000066],[114.54842292600006,4.643860927000048],[114.53871543200012,4.653769630000056],[114.54082067200011,4.657383358000061],[114.54011892500012,4.659598215000074],[114.53356929100005,4.661113638000074],[114.53123013600009,4.663678195000045],[114.53204884000002,4.672071222000056],[114.52924185400002,4.673003774000051],[114.52608399500002,4.676617403000023],[114.52608399500002,4.680464149000045],[114.5231600510001,4.681862960000046],[114.52327700900003,4.685826244000054],[114.52011915000003,4.689789505000022],[114.52374484000006,4.691654561000064],[114.5256161640001,4.700163817000032],[114.52573312200002,4.704010433000064],[114.52339396700006,4.708672970000066],[114.56054344400002,4.739480523000054],[114.63358278900012,4.804248033000022],[114.67317056000002,4.843405583000049],[114.79307563500004,4.923978211000076],[114.79516700200008,4.916338119000045],[114.79516700200008,4.910087070000031],[114.79237851200003,4.894806482000035],[114.79516700200008,4.887166056000069],[114.79516700200008,4.877441753000028],[114.80632096300008,4.862160420000066],[114.80632096300008,4.85521424500007],[114.79656124700011,4.839237771000057],[114.79656124700011,4.830207423000047],[114.79307563500004,4.814230359000021],[114.78192167400005,4.802420984000037],[114.77773893900007,4.791306091000024],[114.77773893900007,4.78158041100005],[114.77425332700011,4.768381054000031],[114.77425332700011,4.75934976800005],[114.78122455200003,4.741981578000036],[114.78192167400005,4.737118407000025],[114.77861422700005,4.733272889000034],[114.77773893900007,4.732255201000044],[114.77704181700005,4.728086712000049],[114.7847101640001,4.719054899000071],[114.78192167400005,4.709328201000062],[114.77564757200003,4.696822245000021],[114.78540728700011,4.685010859000045],[114.79168139,4.682926476000034],[114.7958641250001,4.678757691000044],[114.80283535,4.678062891000025],[114.81468643300002,4.658608216000061],[114.81468643300002,4.646101355000042],[114.80074398300007,4.656523755000023],[114.79865261500004,4.648185847000036],[114.80074398300007,4.63359427100005],[114.80910945300002,4.626645796000048],[114.81120082100006,4.618307536000032],[114.80492671800005,4.605799961000059],[114.80632096300008,4.596766577000039],[114.81468643300002,4.593292167000072],[114.82026341400001,4.53422463000004],[114.82026341400001,4.500171733000059],[114.81747492300008,4.487662105000027],[114.81747492300008,4.477237251000076],[114.82374902600009,4.453607033000026],[114.82584039400001,4.430671096000026],[114.83769147700002,4.423025625000037],[114.8641821330001,4.425110761000042],[114.87463897100008,4.429976056000044],[114.88021595100008,4.430671096000026],[114.88439868600005,4.421635531000049],[114.882307319,4.400088740000058],[114.87951882900006,4.392442954000046],[114.87812458300004,4.356993290000048],[114.87463897100008,4.345871481000074],[114.86627350000003,4.328493327000047],[114.8536695250001,4.31873358100006]]]}},{"type":"Feature","properties":{"shapeName":"Brunei-Muara","shapeISO":"BN-BM","shapeID":"89281809B42057356743122","shapeGroup":"BRN","shapeType":"ADM1"},"geometry":{"type":"MultiPolygon","coordinates":[[[[115.05150968100008,4.890668996000045],[115.04578343000003,4.890165578000051],[115.03332041100009,4.882949876000055],[115.03652037600011,4.890501190000066],[115.04106769300006,4.891172414000039],[115.04561501,4.89637437500005],[115.05201493900006,4.89687778800004],[115.05285703400011,4.892514859000073],[115.05150968100008,4.890668996000045]]],[[[115.03972034000003,4.898891439000067],[115.03769931000011,4.897381202000076],[115.03601511800002,4.89805241800002],[115.0358466990001,4.90157629600003],[115.04123611200009,4.907281582000053],[115.04578343000003,4.92154458300007],[115.04780446000007,4.921208987000057],[115.04746762100001,4.915839419000065],[115.0437624000001,4.908959598000024],[115.04443607600001,4.903925537000021],[115.03972034000003,4.898891439000067]]],[[[115.02570786500007,4.929424341000072],[115.02419883000005,4.92813566500007],[115.02484555900003,4.931786908000049],[115.0258156540001,4.931894297000042],[115.02570786500007,4.929424341000072]]],[[[115.02732468900001,4.943384841000068],[115.02603123000006,4.942203579000022],[115.02603123000006,4.946391679000044],[115.02894151300006,4.950579753000056],[115.0301271840001,4.948432026000035],[115.02743247700005,4.946176905000073],[115.02732468900001,4.943384841000068]]],[[[115.0623558750001,4.976351928000042],[115.06106241600003,4.974955961000035],[115.05901443900007,4.976244546000032],[115.06149356900005,4.982902196000055],[115.06429606400002,4.981721005000054],[115.0623558750001,4.976351928000042]]],[[[115.09663254400004,5.011787021000032],[115.11581885500004,5.011464892000049],[115.1174356790001,5.014041916000053],[115.12045375000002,5.011679645000072],[115.12875344600002,4.994713988000058],[115.12551979800003,4.993318060000036],[115.11592664300008,4.994713988000058],[115.09145870700002,4.994284472000061],[115.08660823500009,4.997613214000069],[115.08574592900004,5.002767361000053],[115.0772306560001,5.008995235000043],[115.07518267900002,5.012323901000059],[115.07561383200004,5.01887380900007],[115.07679950300007,5.020484432000046],[115.07970978600008,5.020699181000055],[115.08854842400001,5.014686171000051],[115.09663254400004,5.011787021000032]]],[[[115.12917476900009,5.043360002000043],[115.13707763200011,5.042568377000066],[115.1376957330001,5.040765228000055],[115.13222112400001,5.042128585000057],[115.1208304050001,5.041908689000024],[115.09650371500004,5.037114934000044],[115.09866706900004,5.041292979000048],[115.10409752800001,5.04028145500007],[115.11751915000002,5.043008169000075],[115.12917476900009,5.043360002000043]]],[[[114.77861422700005,4.733272889000034],[114.78192167400005,4.737118407000025],[114.78122455200003,4.741981578000036],[114.77425332700011,4.75934976800005],[114.77425332700011,4.768381054000031],[114.77773893900007,4.78158041100005],[114.77773893900007,4.791306091000024],[114.78192167400005,4.802420984000037],[114.79307563500004,4.814230359000021],[114.79656124700011,4.830207423000047],[114.79656124700011,4.839237771000057],[114.80632096300008,4.85521424500007],[114.80632096300008,4.862160420000066],[114.79516700200008,4.877441753000028],[114.79516700200008,4.887166056000069],[114.79237851200003,4.894806482000035],[114.79516700200008,4.910087070000031],[114.79516700200008,4.916338119000045],[114.79307563500004,4.923978211000076],[114.81285972600006,4.941847858000074],[114.83172267200007,4.952250948000028],[114.84149098400007,4.961311570000021],[114.84755407400007,4.96483511200006],[114.87079591800011,4.972217710000052],[114.87551165500008,4.975405624000075],[114.94220564400007,5.003760603000046],[115.02283195900009,5.034231822000038],[115.05446303400004,5.044708695000054],[115.05932935300007,5.045646914000031],[115.06058517800011,5.040643063000061],[115.06458811800007,5.037828380000064],[115.09300114300004,5.03939209400005],[115.091352873,5.03657740500006],[115.07589053600009,5.028524202000028],[115.06937594800002,5.02266015500004],[115.06780616700007,5.023363844000073],[115.06670732100008,5.021018213000048],[115.06568696400007,5.004363993000027],[115.06396020500006,5.000454490000038],[115.06929745900004,4.98833488300005],[115.06709976600007,4.989273183000023],[115.06278287000009,5.00068906100006],[115.05579734700007,4.999047063000035],[115.05022462700003,5.001314583000067],[115.04111990100012,5.001314583000067],[115.04017803300007,4.99881249200007],[115.03531171300006,4.994746574000033],[115.04524149400004,4.982627778000051],[115.04370850500004,4.980527880000068],[115.03949278700009,4.97976428000004],[115.03872629200009,4.975182657000062],[115.041600646,4.97270093100002],[115.04849909500001,4.973655442000052],[115.04849909500001,4.971364614000038],[115.04504987100006,4.966019316000029],[115.02780374800011,4.951510432000021],[115.01534821500002,4.927837360000069],[115.00979113100004,4.920773457000053],[115.00365917700003,4.905499897000027],[114.9946528690001,4.903781600000059],[114.9854549370001,4.897481138000046],[114.9561365290001,4.872278700000038],[114.94559723200007,4.871705906000045],[114.9408066420001,4.873615216000076],[114.93735741800003,4.878770327000041],[114.93486631100006,4.878770327000041],[114.9331297220001,4.870643850000022],[114.93402795800012,4.863782210000068],[114.9391179590001,4.857218837000062],[114.94630384400011,4.851252078000073],[114.94750149100003,4.864677210000025],[114.9513938450001,4.861395536000032],[114.95528619900006,4.861992205000035],[114.96816090800007,4.874522137000042],[114.9759456160001,4.879593710000051],[114.9882215020001,4.894509877000075],[114.99929974000008,4.896299795000061],[115.00438974200006,4.899879616000021],[115.01217445000009,4.914198710000051],[115.01786327500008,4.920761525000046],[115.02175562900004,4.917480125000054],[115.02534857100011,4.904652682000062],[115.0248994530001,4.902247509000063],[115.01260485400007,4.895199742000045],[114.99711029100001,4.882278644000053],[114.9885209140001,4.872881326000027],[114.98751039900003,4.870364165000069],[114.99239455500003,4.855932259000042],[114.98414201600008,4.849219639000069],[114.98515253100004,4.84351386000003],[114.9878472370001,4.839486222000062],[114.97218425500012,4.808271218000073],[114.96696326100005,4.810788610000031],[114.96140542900002,4.810788610000031],[114.95803704500008,4.812466866000022],[114.95231079400003,4.803739888000052],[114.94203722500004,4.809949480000057],[114.93782674600004,4.814480768000067],[114.9302478830001,4.813305993000029],[114.92351111700009,4.810285132000047],[114.91509015800011,4.810285132000047],[114.89639563100002,4.81649466500005],[114.8780379420001,4.804411198000025],[114.871469595,4.802900750000049],[114.8507540380001,4.791320535000068],[114.84789091200003,4.784103780000066],[114.8470488160001,4.766145478000055],[114.841154146,4.75422896300006],[114.83424896000008,4.74482987500005],[114.82549116300004,4.741305185000044],[114.81387024100002,4.739962441000046],[114.8046071870001,4.73442359400002],[114.80005987000004,4.73442359400002],[114.79820725900004,4.735766349000073],[114.79399678000004,4.73442359400002],[114.78827052800011,4.728549011000041],[114.78574424100009,4.731738076000056],[114.78439688700007,4.729220394000038],[114.78052324700002,4.730898850000074],[114.77861422700005,4.733272889000034]]]]}},{"type":"Feature","properties":{"shapeName":"Temburong","shapeISO":"BN-TE","shapeID":"89281809B70839875343945","shapeGroup":"BRN","shapeType":"ADM1"},"geometry":{"type":"Polygon","coordinates":[[[115.18330421500002,4.859548622000034],[115.189293539,4.842417390000037],[115.23826505400007,4.803087872000049],[115.23770038500004,4.789020568000069],[115.229230346,4.756946037000034],[115.23995906200003,4.750193313000068],[115.24504108500003,4.749067853000042],[115.24504108500003,4.741189578000046],[115.26367517000006,4.732185727000058],[115.25464046200011,4.718116974000054],[115.24729976200001,4.711926632000029],[115.2439117460001,4.700108554000053],[115.25012310800003,4.692792501000042],[115.25802847700004,4.692229724000072],[115.2698865320001,4.686601934000066],[115.26875719300006,4.677034587000037],[115.25972248500011,4.658462304000068],[115.25859314600007,4.652834243000029],[115.28174458600006,4.638763892000043],[115.28626194000003,4.632010025000056],[115.2879559480001,4.625256093000075],[115.28739127800009,4.599365424000041],[115.28852061700002,4.58923403600005],[115.28626194000003,4.579102504000048],[115.28287392400011,4.571785197000054],[115.27835657000003,4.566156449000061],[115.27440388500008,4.556024591000039],[115.27045120100001,4.541952329000026],[115.27101587000004,4.533508840000025],[115.26819252400003,4.525065253000037],[115.26762785400001,4.507614860000047],[115.27722723200009,4.51211822700003],[115.27892124000005,4.504237316000058],[115.27666256200007,4.48228289900004],[115.27835657000003,4.46314261200007],[115.27383921700005,4.450194489000069],[115.27383921700005,4.441749938000044],[115.29473197900006,4.416978697000047],[115.30207267900005,4.401214749000076],[115.30884870900002,4.396147694000035],[115.32296544100006,4.392206629000043],[115.3393408500001,4.373064012000043],[115.34103485700007,4.362366454000039],[115.34668155000008,4.35110570300003],[115.35289291100003,4.348290489000021],[115.36198426600004,4.348290489000021],[115.3634635200001,4.344056387000023],[115.35731991800003,4.325678307000032],[115.35334464700009,4.319912543000044],[115.33925050200003,4.304777204000061],[115.32660191100001,4.29829053800006],[115.31720581500008,4.300092395000036],[115.29407696200008,4.325678307000032],[115.29660668100007,4.331083671000044],[115.2962452920001,4.339011468000024],[115.28359670100008,4.336849350000023],[115.2778144880001,4.344416737000074],[115.27058672200008,4.34369603600004],[115.26444312000001,4.338651115000062],[115.25540841200007,4.335768288000054],[115.24890342200001,4.33757005700005],[115.2442053740001,4.342254634000028],[115.24745786900007,4.355587502000049],[115.246373704,4.360632310000028],[115.24203704400009,4.366397762000076],[115.23625483100011,4.368559796000056],[115.230834006,4.362434018000044],[115.22252207500003,4.362794360000066],[115.217824027,4.35666853500004],[115.21276459,4.35702887900004],[115.20336849400007,4.36387538200006],[115.19650211600003,4.362434018000044],[115.18132380700001,4.373244180000029],[115.17445742900009,4.37180283400005],[115.16686827400008,4.375045859000068],[115.15964050700006,4.376126864000071],[115.15530384800002,4.38189219700007],[115.15132857600008,4.384054186000071],[115.145184975,4.384054186000071],[115.14410081000005,4.377928535000024],[115.14193248000004,4.37540619400005],[115.12061056900006,4.373244180000029],[115.10796197800005,4.373244180000029],[115.106516424,4.379730202000076],[115.10037282300004,4.382252529000027],[115.09061533800002,4.382973192000065],[115.09025395000003,4.386936828000046],[115.09748171600006,4.394143383000028],[115.09856588100001,4.40279115800007],[115.10470948300008,4.407115008000062],[115.1068778130001,4.414681685000062],[115.09278366800004,4.430895732000067],[115.0913381150001,4.437381252000023],[115.09857231100011,4.437244855000074],[115.09753021800009,4.439606146000074],[115.0928881640001,4.441022918000044],[115.0912776560001,4.443856453000024],[115.09374078600001,4.444234257000062],[115.09478288000003,4.446123273000069],[115.0928881640001,4.446217723000075],[115.09459340800004,4.447634482000069],[115.09298290000004,4.452923691000024],[115.0971512750001,4.452734791000069],[115.09753021800009,4.472285648000025],[115.09686706700006,4.474457933000053],[115.09525655900006,4.475213509000071],[115.0943092010001,4.473891251000055],[115.09383552200006,4.47587463800005],[115.09061450600007,4.475402403000032],[115.09298290000004,4.478802485000074],[115.09156186400003,4.479085824000038],[115.09379555600003,4.484262652000041],[115.09472071000005,4.492332925000028],[115.0900949390001,4.492332925000028],[115.09102009300011,4.49533043200006],[115.08778205400006,4.502708860000041],[115.0829249950001,4.507320339000046],[115.08107468700007,4.505245177000063],[115.07922437900004,4.506628619000026],[115.07899309000004,4.50985663900002],[115.08130597500008,4.51331521700007],[115.07829922400003,4.52322971600006],[115.0829249950001,4.522307443000045],[115.08477530300001,4.52876333100005],[115.084312726,4.534527468000022],[115.07968695600005,4.54075268400004],[115.07459860800009,4.544672237000043],[115.07367345400007,4.55043624700005],[115.07020412600002,4.556891884000038],[115.07274830000006,4.559428011000023],[115.07367345400007,4.563578018000044],[115.07112928000004,4.566114121000055],[115.06997283800001,4.578333402000055],[115.06257160500002,4.583174947000032],[115.06141516200012,4.595624482000062],[115.05609552600004,4.59608557100006],[115.054013929,4.598621560000026],[115.04869429300004,4.610148664000064],[115.04198692600005,4.62006182500005],[115.0454562540001,4.625825227000064],[115.03967404100001,4.63112751500006],[115.038980175,4.633432845000073],[115.04129306100003,4.640118260000065],[115.04961944700005,4.649569946000042],[115.04869429300004,4.655333107000047],[115.04244950300006,4.653949953000051],[115.04314336900006,4.656024684000045],[115.0382863100001,4.659021506000045],[115.03990532900002,4.666628766000031],[115.04453110000009,4.666167722000068],[115.04684398500001,4.668703459000028],[115.04383723400008,4.671700227000031],[115.04244950300006,4.679076832000021],[115.0375924440001,4.684378719000051],[115.03435440500004,4.692907757000057],[115.0375924440001,4.69313827000002],[115.03944275200001,4.691755190000038],[115.03643600200007,4.695904421000023],[115.02995992300009,4.698209539000061],[115.02949734600008,4.70051464900007],[115.02995992300009,4.703280771000038],[115.03366053900004,4.706277391000071],[115.03597342400008,4.704433319000032],[115.0380550210001,4.706046882000066],[115.03620471300007,4.709504505000041],[115.03851759800011,4.712270591000049],[115.03389182800004,4.712501098000075],[115.03458569300005,4.715728184000056],[115.04221821500005,4.71526717200004],[115.04268079200006,4.717341721000025],[115.03296667400002,4.722412813000062],[115.04036790600003,4.725409350000064],[115.04406852300008,4.729788882000037],[115.03874888700011,4.732093887000076],[115.03435440500004,4.736703874000057],[115.03389182800004,4.733015887000022],[115.03204152,4.732324387000062],[115.02672188300005,4.734168385000032],[115.02579672900004,4.74131383100007],[115.02417771000012,4.743157805000067],[115.03065378800011,4.743618798000057],[115.03134765400011,4.748459203000039],[115.02903476900008,4.748689698000021],[115.02440899800001,4.74546276600006],[115.02117095900007,4.747537224000041],[115.02487157500002,4.751455627000041],[115.02926605700009,4.751455627000041],[115.031810231,4.753530067000042],[115.03389182800004,4.75975335000004],[115.03157894300011,4.767589996000027],[115.03250409700001,4.771508285000039],[115.03967404100001,4.784415433000049],[115.04013661800002,4.787872664000076],[115.02903476900008,4.788794589000076],[115.02348384400011,4.791560357000037],[115.02209611300009,4.79616994600002],[115.04152434900004,4.794095635000076],[115.04730656200002,4.786720256000024],[115.05031331300006,4.776578980000068],[115.05540166100002,4.769894875000034],[115.05794583400007,4.769894875000034],[115.05447650600001,4.780036250000023],[115.06534706700006,4.776809465000042],[115.07182314600004,4.777039950000074],[115.06465320200004,4.78326301900006],[115.05447650600001,4.78764218200007],[115.04661269700011,4.795478510000066],[115.04360594600007,4.803084271000046],[115.04291208000006,4.810459473000037],[115.0456875430001,4.819447893000074],[115.05956485400009,4.833045533000075],[115.07482989700009,4.839268091000065],[115.08038082100006,4.837654840000027],[115.0826937060001,4.835350190000042],[115.084312726,4.827744790000054],[115.10304709700006,4.81760412400007],[115.10327838500007,4.819447893000074],[115.08940107400008,4.837654840000027],[115.0903262280001,4.845721053000034],[115.09680230600009,4.847103823000054],[115.10027163400002,4.845721053000034],[115.10466611600009,4.853556710000021],[115.1125299260001,4.85424808700003],[115.11530538800002,4.857474505000027],[115.13218945100004,4.860009536000064],[115.12201275600012,4.865310026000031],[115.10975446400005,4.860700907000023],[115.1053599820001,4.860700907000023],[115.09587715200007,4.86830593600007],[115.08940107400008,4.869688659000076],[115.08639432300004,4.889737828000023],[115.10119678800004,4.900107852000076],[115.10767286700002,4.902412280000021],[115.11646183100004,4.901490510000031],[115.12201275600012,4.89895563500005],[115.1282575460001,4.892042292000042],[115.13010785400002,4.885589773000049],[115.13427104700008,4.889276934000065],[115.13496491300009,4.892503183000031],[115.13357718200007,4.898264304000065],[115.12710110300009,4.902873165000074],[115.14005326000006,4.905177583000068],[115.14722320500005,4.901260067000067],[115.14884222400008,4.889737828000023],[115.15300541800002,4.880750344000035],[115.16156309300004,4.870149566000066],[115.16896432600004,4.873836812000036],[115.17150850000007,4.867384119000064],[115.18330421500002,4.868536390000031],[115.18631096500008,4.863696838000067],[115.18330421500002,4.859548622000034]]]}}],"meta":{"provider":"geoBoundaries","license":"Public Domain","sourceName":"geoBoundaries, Wikimedia Commons; credit to user 'Tachymetre'","sourceDataUpdateDate":"Wed May 3 23:20:00 2023","sourceUrl":"commons.wikimedia.org/wiki/File"}}