{"type":"FeatureCollection","crs":{"type":"name","properties":{"name":"urn:ogc:def:crs:OGC:1.3:CRS84"}},"features":[{"type":"Feature","properties":{"shapeName":"Tuapa","shapeISO":"","shapeID":"93272968B79995440519868","shapeGroup":"NIU","shapeType":"ADM1"},"geometry":{"type":"Polygon","coordinates":[[[-169.91087675296984,-18.996857992804223],[-169.90453901495363,-18.990597649650397],[-169.90018067309305,-18.98171318637901],[-169.89511102677068,-18.983662106267218],[-169.89165862181602,-18.988894495929458],[-169.88457984591165,-18.991002248899918],[-169.86759325598084,-18.998127286893293],[-169.85632235384293,-19.01830795206513],[-169.85823384119817,-19.02737219545662],[-169.86511961153425,-19.030555196430782],[-169.8840596638352,-19.02268668158456],[-169.8987492481033,-19.00357006784151],[-169.91087675296984,-18.996857992804223]]]}},{"type":"Feature","properties":{"shapeName":"Namukulu","shapeISO":"","shapeID":"93272968B92904151584159","shapeGroup":"NIU","shapeType":"ADM1"},"geometry":{"type":"Polygon","coordinates":[[[-169.88457984591165,-18.991002248899918],[-169.89165862181602,-18.988894495929458],[-169.89511102677068,-18.983662106267218],[-169.90018067309305,-18.98171318637901],[-169.89367514023812,-18.97208417066406],[-169.88983452979804,-18.975313255661206],[-169.88457984591165,-18.991002248899918]]]}},{"type":"Feature","properties":{"shapeName":"Hikutavake","shapeISO":"","shapeID":"93272968B4423412382248","shapeGroup":"NIU","shapeType":"ADM1"},"geometry":{"type":"Polygon","coordinates":[[[-169.86759325598084,-18.998127286893293],[-169.88457984591165,-18.991002248899918],[-169.88983452979804,-18.975313255661206],[-169.89367514023812,-18.97208417066406],[-169.88052325938799,-18.960987444063562],[-169.8806633775527,-18.961910398864006],[-169.8776644077998,-18.95967522797224],[-169.86720456755882,-18.9576830929023],[-169.86136654661846,-18.972468778856353],[-169.8612970792908,-18.978495488613305],[-169.8543338502404,-18.987985860154367],[-169.8540519222839,-18.991720445775343],[-169.86759325598084,-18.998127286893293]]]}},{"type":"Feature","properties":{"shapeName":"Toi","shapeISO":"","shapeID":"93272968B22364225711306","shapeGroup":"NIU","shapeType":"ADM1"},"geometry":{"type":"Polygon","coordinates":[[[-169.8543338502404,-18.987985860154367],[-169.8612970792908,-18.978495488613305],[-169.86136654661846,-18.972468778856353],[-169.86720456755882,-18.9576830929023],[-169.85958187823522,-18.95641748963601],[-169.85032093755333,-18.95273902988174],[-169.84254165716044,-18.95309609629851],[-169.8402086767678,-18.963626151204778],[-169.84122717297578,-18.97236707888294],[-169.8543338502404,-18.987985860154367]]]}},{"type":"Feature","properties":{"shapeName":"Mutalau","shapeISO":"","shapeID":"93272968B97328284886537","shapeGroup":"NIU","shapeType":"ADM1"},"geometry":{"type":"Polygon","coordinates":[[[-169.85823384119817,-19.02737219545662],[-169.85632235384293,-19.01830795206513],[-169.86759325598084,-18.998127286893293],[-169.8540519222839,-18.991720445775343],[-169.8543338502404,-18.987985860154367],[-169.84122717297578,-18.97236707888294],[-169.8402086767678,-18.963626151204778],[-169.84254165716044,-18.95309609629851],[-169.81948010608065,-18.95763729306549],[-169.8077598210917,-18.963074819267774],[-169.80512525533422,-18.96638039171006],[-169.80231835225612,-18.97463043996231],[-169.80249677889472,-18.986732961628093],[-169.81292726792174,-18.991214634884955],[-169.82025241613732,-18.989775027851977],[-169.83544060321972,-18.998821246106957],[-169.84758628251046,-19.010252916670765],[-169.84773667994028,-19.02361532730265],[-169.84812523256448,-19.030038050469784],[-169.85823384119817,-19.02737219545662]]]}},{"type":"Feature","properties":{"shapeName":"Lakepa","shapeISO":"","shapeID":"93272968B46019940392073","shapeGroup":"NIU","shapeType":"ADM1"},"geometry":{"type":"Polygon","coordinates":[[[-169.84773667994028,-19.02361532730265],[-169.84758628251046,-19.010252916670765],[-169.83544060321972,-18.998821246106957],[-169.82025241613732,-18.989775027851977],[-169.81292726792174,-18.991214634884955],[-169.80249677889472,-18.986732961628093],[-169.79977757062855,-18.99624334850813],[-169.79300181630825,-19.01066535442203],[-169.79498137344277,-19.018253047479448],[-169.7938814210285,-19.023928558004684],[-169.81465240649962,-19.02722327651429],[-169.83378422330273,-19.027188836029893],[-169.84037960125156,-19.028602852818835],[-169.84773667994028,-19.02361532730265]]]}},{"type":"Feature","properties":{"shapeName":"Liku","shapeISO":"","shapeID":"93272968B39016058610074","shapeGroup":"NIU","shapeType":"ADM1"},"geometry":{"type":"Polygon","coordinates":[[[-169.83378422330273,-19.027188836029893],[-169.81465240649962,-19.02722327651429],[-169.7938814210285,-19.023928558004684],[-169.7869978522358,-19.039491756600626],[-169.77504480349555,-19.056742705308295],[-169.77368188985278,-19.06067990037093],[-169.7791163304769,-19.073345554893763],[-169.79176752568,-19.089312365282296],[-169.79338591008764,-19.093754588824083],[-169.8028550863776,-19.101520166228113],[-169.84145051271838,-19.080120576265585],[-169.84368188666727,-19.06979323332382],[-169.8576495535595,-19.068280296369664],[-169.85616106920546,-19.06635978430529],[-169.8577177402508,-19.06209347289422],[-169.85146881490533,-19.04811073334372],[-169.833431388202,-19.0292716471684],[-169.83378422330273,-19.027188836029893]]]}},{"type":"Feature","properties":{"shapeName":"Hakupu","shapeISO":"","shapeID":"93272968B74056989697157","shapeGroup":"NIU","shapeType":"ADM1"},"geometry":{"type":"Polygon","coordinates":[[[-169.8576495535595,-19.068280296369664],[-169.84368188666727,-19.06979323332382],[-169.84145051271838,-19.080120576265585],[-169.8028550863776,-19.101520166228113],[-169.81385329481046,-19.11317535549989],[-169.83050893287398,-19.127188796148573],[-169.84275741830578,-19.14667950769268],[-169.85696846186337,-19.148056257424116],[-169.87761527147362,-19.155172062065333],[-169.876475053658,-19.14607878671967],[-169.8775185456573,-19.12549846497899],[-169.87923943763064,-19.1254988624799],[-169.87931018829258,-19.123829767030998],[-169.87756070413414,-19.1238338805357],[-169.87759154822476,-19.122182481970356],[-169.87932894367964,-19.122182882169227],[-169.87907522569586,-19.118209692591563],[-169.88050369011336,-19.11823350037679],[-169.87486939197686,-19.10127208969925],[-169.8754806817971,-19.094131518594168],[-169.87689162739704,-19.090620082059274],[-169.87369991467824,-19.083559777355788],[-169.86862209800384,-19.081021483256393],[-169.86359760220688,-19.074189299098123],[-169.8576495535595,-19.068280296369664]]]}},{"type":"Feature","properties":{"shapeName":"Vaiea","shapeISO":"","shapeID":"93272968B84240109118138","shapeGroup":"NIU","shapeType":"ADM1"},"geometry":{"type":"Polygon","coordinates":[[[-169.88050369011336,-19.11823350037679],[-169.87907522569586,-19.118209692591563],[-169.87932894367964,-19.122182882169227],[-169.87759154822476,-19.122182481970356],[-169.87756070413414,-19.1238338805357],[-169.87931018829258,-19.123829767030998],[-169.87923943763064,-19.1254988624799],[-169.8775185456573,-19.12549846497899],[-169.876475053658,-19.14607878671967],[-169.87761527147362,-19.155172062065333],[-169.88179631264836,-19.154741448091215],[-169.89906485122012,-19.139403076718622],[-169.89188224484548,-19.129006279939063],[-169.88444310290723,-19.12712824471197],[-169.88451415754045,-19.123837192743338],[-169.881069191788,-19.122181460339107],[-169.88050369011336,-19.11823350037679]]]}},{"type":"Feature","properties":{"shapeName":"Avatele","shapeISO":"","shapeID":"93272968B73075059072765","shapeGroup":"NIU","shapeType":"ADM1"},"geometry":{"type":"Polygon","coordinates":[[[-169.8754806817971,-19.094131518594168],[-169.87486939197686,-19.10127208969925],[-169.88050369011336,-19.11823350037679],[-169.881069191788,-19.122181460339107],[-169.88451415754045,-19.123837192743338],[-169.88444310290723,-19.12712824471197],[-169.89188224484548,-19.129006279939063],[-169.89906485122012,-19.139403076718622],[-169.90539434154252,-19.137586813309838],[-169.91559314870412,-19.138417156697926],[-169.92274470144582,-19.13549185321307],[-169.92287376243078,-19.133935485239647],[-169.91267143441848,-19.12645909243173],[-169.91193138039,-19.118106447580715],[-169.91386917385057,-19.111390053993034],[-169.9074630090238,-19.107598144606698],[-169.88812117775112,-19.100252097017346],[-169.87919100367594,-19.09348041303423],[-169.8754806817971,-19.094131518594168]]]}},{"type":"Feature","properties":{"shapeName":"Tamakautoga","shapeISO":"","shapeID":"93272968B40499677561204","shapeGroup":"NIU","shapeType":"ADM1"},"geometry":{"type":"Polygon","coordinates":[[[-169.87919100367594,-19.09348041303423],[-169.88812117775112,-19.100252097017346],[-169.9074630090238,-19.107598144606698],[-169.91386917385057,-19.111390053993034],[-169.9173610617953,-19.10573398863579],[-169.92475408733495,-19.098992832181523],[-169.94053454355017,-19.08860744601577],[-169.94635821848553,-19.080603072199892],[-169.9429471329391,-19.079399009625774],[-169.93812000712632,-19.08249764148553],[-169.93428821545035,-19.08275615106379],[-169.9238259785128,-19.080521516168687],[-169.91410291606562,-19.08224013195479],[-169.91365100521682,-19.079873209302832],[-169.910313924084,-19.07986401462159],[-169.90811882613838,-19.081826962154366],[-169.90471941290883,-19.081407698539408],[-169.89310277852547,-19.084418246180235],[-169.88552614984243,-19.087796201556216],[-169.87919100367594,-19.09348041303423]]]}},{"type":"Feature","properties":{"shapeName":"Alofi South","shapeISO":"","shapeID":"93272968B84066650409930","shapeGroup":"NIU","shapeType":"ADM1"},"geometry":{"type":"Polygon","coordinates":[[[-169.86359760220688,-19.074189299098123],[-169.86862209800384,-19.081021483256393],[-169.87369991467824,-19.083559777355788],[-169.87689162739704,-19.090620082059274],[-169.8754806817971,-19.094131518594168],[-169.87919100367594,-19.09348041303423],[-169.88552614984243,-19.087796201556216],[-169.89310277852547,-19.084418246180235],[-169.90471941290883,-19.081407698539408],[-169.90811882613838,-19.081826962154366],[-169.910313924084,-19.07986401462159],[-169.91365100521682,-19.079873209302832],[-169.91410291606562,-19.08224013195479],[-169.9238259785128,-19.080521516168687],[-169.93428821545035,-19.08275615106379],[-169.93812000712632,-19.08249764148553],[-169.9429471329391,-19.079399009625774],[-169.94635821848553,-19.080603072199892],[-169.94976854230515,-19.075488966931687],[-169.9489246092429,-19.072706716103426],[-169.92989616425518,-19.06013835217192],[-169.9277158269026,-19.060264018211512],[-169.92675759614644,-19.058201676570206],[-169.92406081520429,-19.057879951759787],[-169.9238772273494,-19.055964833836413],[-169.9204575955338,-19.053700752399095],[-169.9122069654194,-19.056684936377906],[-169.90757659355435,-19.056195017429218],[-169.86359760220688,-19.074189299098123]]]}},{"type":"Feature","properties":{"shapeName":"Alofi North","shapeISO":"","shapeID":"93272968B57426624534658","shapeGroup":"NIU","shapeType":"ADM1"},"geometry":{"type":"Polygon","coordinates":[[[-169.86511961153425,-19.030555196430782],[-169.85823384119817,-19.02737219545662],[-169.84812523256448,-19.030038050469784],[-169.84773667994028,-19.02361532730265],[-169.84037960125156,-19.028602852818835],[-169.83378422330273,-19.027188836029893],[-169.833431388202,-19.0292716471684],[-169.85146881490533,-19.04811073334372],[-169.8577177402508,-19.06209347289422],[-169.85616106920546,-19.06635978430529],[-169.8576495535595,-19.068280296369664],[-169.86359760220688,-19.074189299098123],[-169.90757659355435,-19.056195017429218],[-169.9122069654194,-19.056684936377906],[-169.9204575955338,-19.053700752399095],[-169.91777326662182,-19.047339781265237],[-169.91711724446154,-19.04072396979211],[-169.9216765491028,-19.02382050611095],[-169.9159497411775,-19.024233659723564],[-169.89991556877717,-19.03073108517907],[-169.88574889603169,-19.04037710350002],[-169.878741073137,-19.039991239852384],[-169.86511961153425,-19.030555196430782]]]}},{"type":"Feature","properties":{"shapeName":"Makefu","shapeISO":"","shapeID":"93272968B40090915564601","shapeGroup":"NIU","shapeType":"ADM1"},"geometry":{"type":"Polygon","coordinates":[[[-169.91087675296984,-18.996857992804223],[-169.8987492481033,-19.00357006784151],[-169.8840596638352,-19.02268668158456],[-169.86511961153425,-19.030555196430782],[-169.878741073137,-19.039991239852384],[-169.88574889603169,-19.04037710350002],[-169.89991556877717,-19.03073108517907],[-169.9159497411775,-19.024233659723564],[-169.9216765491028,-19.02382050611095],[-169.92397241262495,-19.01441576273686],[-169.92196568603475,-19.008401811679335],[-169.91087675296984,-18.996857992804223]]]}}],"meta":{"provider":"geoBoundaries","license":"Creative Commons Attribution 4.0 International (CC BY 4.0)","sourceName":"Pacific Data Hub","sourceDataUpdateDate":"Thu Jan 19 07:31:04 2023","sourceUrl":"pacificdata.org/data/dataset/2011_niu_phc_admin_boundaries"}}