{"type":"FeatureCollection","crs":{"type":"name","properties":{"name":"urn:ogc:def:crs:OGC:1.3:CRS84"}},"features":[{"type":"Feature","properties":{"shapeName":"Orange Walk","shapeISO":"BZ-OW","shapeID":"66346737B60973332075708","shapeGroup":"BLZ","shapeType":"ADM1"},"geometry":{"type":"Polygon","coordinates":[[[-89.15490176959088,17.328973295661],[-89.16132987511617,17.582655423827248],[-89.16053201086675,17.763276219459897],[-89.1557448253701,17.94326409938418],[-89.14138326888002,17.954839351584496],[-89.13390329154151,17.965512580658412],[-89.13327996009673,17.976185165075492],[-89.13016330287235,17.97796386644677],[-89.11333335386058,17.972627708585605],[-89.10398338218744,17.976185165075492],[-89.07842679294754,17.993378527607263],[-89.07344014138857,17.993378527607263],[-89.06471350116027,17.99041427425942],[-89.05349353515254,17.99041427425942],[-89.04850688359346,17.99456421500031],[-89.04289690058965,18.002863803570165],[-89.03604025469599,18.00108535318867],[-89.02918360880227,17.996935565876356],[-89.01297699123558,17.99100712891328],[-88.99988703089315,17.98211409996327],[-89.00051036233799,17.973220622976783],[-88.99801703655845,17.96432669814584],[-88.99240705355464,17.95780420208382],[-88.97744709887763,17.954839351584496],[-88.95874715553123,17.953653397463654],[-88.94565719518891,17.954839351584496],[-88.93007390906695,17.932304863565435],[-88.90140066260267,17.903836147380275],[-88.8864407079256,17.894345559319277],[-88.86400077591009,17.893159200115463],[-88.8540274727921,17.901463547966273],[-88.8540274727921,17.91213999535057],[-88.85839079290616,17.921036543672074],[-88.84343083822921,17.935270091731752],[-88.819120911879,17.948316505493665],[-88.7929409911942,17.970256031117458],[-88.78857767108008,17.97796386644677],[-88.79107099685962,17.989228558975412],[-88.783591019521,17.99634273114623],[-88.77361771640307,18.00108535318867],[-88.76987772773373,18.00938463480975],[-88.76987772773373,18.02183282444048],[-88.7673844019543,18.029538405714504],[-88.75367111016703,18.037836346797405],[-88.73434783537584,18.046133896545484],[-88.71814121780903,18.05561633115809],[-88.71315456625007,18.085838176248956],[-88.71315456625007,18.099465933231897],[-88.71128457191537,18.111907742732285],[-88.70442792602182,18.129087836403528],[-88.68011799967161,18.164627502013786],[-88.68011799967161,18.170550076894415],[-88.68759797701011,18.178841344155444],[-88.68946797134475,18.18594783109978],[-88.66266471921506,18.201344226039396],[-88.64458810731367,18.214962980018868],[-88.62775815830202,18.21792343778793],[-88.60718822062108,18.241605286933634],[-88.50870185255411,18.202528507827367],[-88.48813191476796,18.19305402875159],[-88.45509534807127,18.119016951464914],[-88.44823870228242,18.108945487038227],[-88.3728155973476,18.044948556260863],[-88.32232575031259,17.9998997096356],[-88.29489916687527,17.972627708179346],[-88.34351901943836,17.95721123596178],[-88.48065193731105,17.929932645275017],[-88.50932518377539,17.920443454346525],[-88.52989512145632,17.915698668273137],[-88.54610173902313,17.91451245190467],[-88.55420504780659,17.90739498698713],[-88.56168502520404,17.896125083155084],[-88.56667167670406,17.882481610442596],[-88.57539831736096,17.862904361784842],[-88.57539831736096,17.854004899506265],[-88.56916500282586,17.82671043984493],[-88.56916500282586,17.808313988454472],[-88.57539831736096,17.792883243459073],[-88.57539831736096,17.778638295161898],[-88.57602164845508,17.7685474357221],[-88.57664497982205,17.759049636411703],[-88.56916500282586,17.75370690222951],[-88.57602164845508,17.72995948974136],[-88.57789164271179,17.718084602614567],[-88.57664497982216,17.705615124996257],[-88.5685416710387,17.69908314804354],[-88.5685416710387,17.690769379129847],[-88.61030487784541,17.678891898926565],[-88.6265114958299,17.67176503443693],[-88.63336814145924,17.667607565921855],[-88.63648479872677,17.653352659020584],[-88.63586146708536,17.638502598335833],[-88.64832809598283,17.615928161832073],[-88.64521143875845,17.604045744763482],[-88.64209478153407,17.546999266156035],[-88.63523813564052,17.492312865416295],[-88.63897812430974,17.4578281967419],[-88.65019809031753,17.458422815337883],[-88.66578137643944,17.450097978412487],[-88.6707680279984,17.443556768360622],[-88.67824800539324,17.4435567686715],[-88.68635131412037,17.444746096735457],[-88.69881794317928,17.441178088274683],[-88.70505125771439,17.436420635264994],[-88.72001121214362,17.431663058036293],[-88.72312786936811,17.424526459682056],[-88.73123117815146,17.416794829960338],[-88.73871115566482,17.412631508857373],[-88.74556780138357,17.411441971485658],[-88.75055445294265,17.40846809345186],[-88.76551440798602,17.406683743028907],[-88.77673437396959,17.406683743028907],[-88.78982433413393,17.413821038960236],[-88.79855097419812,17.414415801114274],[-88.80291429431219,17.407873312037168],[-88.819120911879,17.407278528686447],[-88.82660088935188,17.412631508857373],[-88.84031418100477,17.415010561230645],[-88.86026078730242,17.412631508857373],[-88.87584407364011,17.415010561317672],[-88.8864407079256,17.415010561230645],[-88.89766067393344,17.41084719975123],[-88.90140066287466,17.400735784482436],[-88.91012730283097,17.38943412827632],[-88.91947727450406,17.38467532745682],[-88.93443722918113,17.38289074524323],[-88.94815052098949,17.38229588027224],[-88.96061715005959,17.38467532746637],[-88.97121378442887,17.384080468652428],[-88.99427704801008,17.379916403001232],[-89.0117303285287,17.379916403001232],[-89.0185869742395,17.377536894203047],[-89.03417026049561,17.375157354814405],[-89.04102690625496,17.37039818260928],[-89.04788355214868,17.371587987199746],[-89.05287020410094,17.377536893942477],[-89.06409017008434,17.38289074539972],[-89.07531013606786,17.38348560773636],[-89.08341344478379,17.377536893942477],[-89.09712673629389,17.367423637319916],[-89.10834670230162,17.359094653585885],[-89.11582667964757,17.35493001936902],[-89.12891663998255,17.35314514774609],[-89.14262993196877,17.335890489314806],[-89.15490176959088,17.328973295661]]]}},{"type":"Feature","properties":{"shapeName":"Corozal","shapeISO":"BZ-CZL","shapeID":"66346737B23604924227645","shapeGroup":"BLZ","shapeType":"ADM1"},"geometry":{"type":"Polygon","coordinates":[[[-88.29489916687527,17.972627708179346],[-88.32232575031259,17.9998997096356],[-88.3728155973476,18.044948556260863],[-88.44823870228242,18.108945487038227],[-88.45509534807127,18.119016951464914],[-88.48813191476796,18.19305402875159],[-88.50870185255411,18.202528507827367],[-88.60718822062108,18.241605286933634],[-88.60812271912334,18.26377994024824],[-88.60378233760622,18.270083647393278],[-88.59893132296963,18.282690374749905],[-88.60454828728587,18.286569183450467],[-88.6048036038456,18.293599303041447],[-88.60199512168754,18.300144330466367],[-88.58795271089741,18.308628257265127],[-88.55705940715893,18.346194934533116],[-88.54812332756529,18.353707290502257],[-88.54633611164655,18.360250043982376],[-88.54888927724471,18.369457943619636],[-88.55271902564203,18.374304009240802],[-88.53995319765102,18.402650764375267],[-88.52922990213847,18.432688386811776],[-88.529995851818,18.448916209270692],[-88.52488952062151,18.458603730668244],[-88.50267697991706,18.47918789809478],[-88.47995380609296,18.49226361513189],[-88.46693266154199,18.488389432612053],[-88.44472012083764,18.474344786807137],[-88.4339968253251,18.47846144012243],[-88.42863517756894,18.48548373823735],[-88.40463542094557,18.494442804300036],[-88.40055035598857,18.49395854243619],[-88.38701857831802,18.485725881316966],[-88.37527401656627,18.48306228862515],[-88.3694017356903,18.485725881316966],[-88.36148692233581,18.48669445021426],[-88.31910437340542,18.488389432612053],[-88.29944499829935,18.46344728636734],[-88.29816841550007,18.457150637305062],[-88.29970031485908,18.45133814086057],[-88.30642926577207,18.446751154157198],[-88.31961500652511,18.42324163540269],[-88.34585097591315,18.406678449719607],[-88.35714654081897,18.403619801769935],[-88.38395477960017,18.38593401121824],[-88.39238022607418,18.381815141894265],[-88.39825250695009,18.373334807006756],[-88.40029503942867,18.364127114230882],[-88.39416744199309,18.349345317134294],[-88.38803984455723,18.345467915005543],[-88.37680591592522,18.34692195100149],[-88.35459337522076,18.35782683085978],[-88.33008298547776,18.36703485976608],[-88.32089158932433,18.366550238912225],[-88.32038095620464,18.361461637789546],[-88.32318943836265,18.355645909971486],[-88.33774248227252,18.345710255187953],[-88.34284881346889,18.339166950971958],[-88.34335944658858,18.333350472602433],[-88.33901906507162,18.331653962884843],[-88.31859374028579,18.338439901878132],[-88.30429601293594,18.344983233621065],[-88.24863700289484,18.35758450767679],[-88.24123282266004,18.356857536087887],[-88.23561585834398,18.354434275353412],[-88.23280737618597,18.351768649271605],[-88.23280737618597,18.346437273695756],[-88.22463724627164,18.344983233621065],[-88.21799901571637,18.34764896441078],[-88.20931825268235,18.34813363831711],[-88.20778635332351,18.344498550877006],[-88.2123820514002,18.336743442100328],[-88.19936090684928,18.342317461705704],[-88.17536115022608,18.343771524212002],[-88.16106342287617,18.34692195100149],[-88.13987214841092,18.364854055207445],[-88.12761695353947,18.371638689994597],[-88.11408517586892,18.373092505597413],[-88.10489377971538,18.377211583267865],[-88.09595770012169,18.375757802381088],[-88.09800023260021,18.3488606466272],[-88.0951917504421,18.34037869266598],[-88.09391516764305,18.316384626606464],[-88.09927681539932,18.300629137477813],[-88.09953213195905,18.29262964832492],[-88.09365985108315,18.275902250775687],[-88.09519175044227,18.252869137021662],[-88.09876618227963,18.239290291560053],[-88.09468111732264,18.22522536925186],[-88.0880428867672,18.21164436543944],[-88.08778757020741,18.203398239167825],[-88.09187263516452,18.19490917208833],[-88.09621301668147,18.17259308171697],[-88.10744694531354,18.095192382621804],[-88.11587239178772,18.084271034819153],[-88.12429783826184,18.061940830656454],[-88.13348923441544,18.018728683934057],[-88.1403827815306,18.01144469309247],[-88.15340392608147,17.993233398923053],[-88.15493582544042,17.98206287481861],[-88.15289329296189,17.969434474616946],[-88.15493582544042,17.961662702651267],[-88.1643825381538,17.95510500421699],[-88.17255266849531,17.95243327941489],[-88.17791431626927,17.959476830281744],[-88.1991055902896,17.962148448413075],[-88.21595648363655,17.9628770643572],[-88.25680713312829,17.96846302147611],[-88.27518992511636,17.97137736419313],[-88.2869344870723,17.972105942435462],[-88.29489916687527,17.972627708179346]]]}},{"type":"Feature","properties":{"shapeName":"Belize","shapeISO":"BZ-BZ","shapeID":"66346737B58775340764376","shapeGroup":"BLZ","shapeType":"ADM1"},"geometry":{"type":"MultiPolygon","coordinates":[[[[-87.78461511270541,17.517304217163996],[-87.77743433446034,17.512358532732776],[-87.75988132097257,17.50931496766418],[-87.76706209921764,17.498281616775955],[-87.78142365570756,17.48915006115925],[-87.80256705831778,17.463274830542275],[-87.80496065106615,17.455663768664976],[-87.80456171894139,17.443485408411732],[-87.80775317593918,17.413416599759387],[-87.80735424381442,17.40085474516212],[-87.78262045208174,17.349837138986402],[-87.78182258783238,17.336509305098843],[-87.78740763757844,17.318991251588102],[-87.79379055157386,17.307946402776736],[-87.80575851531557,17.30642292327542],[-87.81214142931117,17.301471527729404],[-87.829295510674,17.27861720619086],[-87.84724745628654,17.21537214954253],[-87.85921542002819,17.19022050884047],[-87.86839085889676,17.19022050884047],[-87.86918872314618,17.200510229554368],[-87.87198124801921,17.21003723871354],[-87.87557163714177,17.214991089587045],[-87.87716736564062,17.22413631176073],[-87.8763695013912,17.231375958407],[-87.86839085889676,17.228327720708137],[-87.85881648790348,17.235567203115977],[-87.85801862365406,17.263379416072667],[-87.8392688137921,17.289282909366648],[-87.82450832517748,17.304899431152023],[-87.81732754693246,17.316706164910386],[-87.81692861480781,17.359737188663473],[-87.81453502205943,17.367732992280764],[-87.80894997231337,17.37001744350806],[-87.8085510401886,17.379535683575284],[-87.81293929356059,17.389434128276662],[-87.83328483192128,17.41836497202422],[-87.84924211691015,17.4354929174101],[-87.85522609878103,17.4362541221181],[-87.86200794490128,17.435112313865147],[-87.87158231589456,17.42064879092743],[-87.89033212575634,17.419126248165526],[-87.89551824337781,17.40884875254153],[-87.89631610762723,17.39666726844797],[-87.8935235827542,17.389434128276662],[-87.89551824337781,17.365067763176683],[-87.89472037912833,17.353264139755083],[-87.9058904786205,17.33498606244416],[-87.91107659624191,17.329654613615276],[-87.91785844236222,17.286997453553226],[-87.91307125686552,17.260331706881118],[-87.9142680532396,17.250807291036324],[-87.91745951023739,17.24699738701827],[-87.91985310298577,17.238615321346686],[-87.90230008949806,17.207750801253553],[-87.90030542887445,17.195174890198643],[-87.89551824337781,17.1803113485455],[-87.89392251487891,17.170782810093385],[-87.89791183612601,17.164303124233527],[-87.90309795374748,17.1620161222379],[-87.91347018899017,17.16735241636769],[-87.92663494910602,17.18793382658663],[-87.93341679522615,17.2016534965519],[-87.94259223409483,17.262998455178717],[-87.94339009834425,17.278998134798485],[-87.93820398072296,17.292711039881738],[-87.93740611647343,17.302995048249272],[-87.9258370848566,17.3372709216859],[-87.92424135635764,17.387911325480275],[-87.91546484961378,17.39971271556925],[-87.89950756462497,17.42940316541643],[-87.87756629776527,17.463274830542275],[-87.86480046977431,17.47887651294286],[-87.85562503090563,17.479257025075242],[-87.85323143815737,17.472788210611554],[-87.858018623654,17.470124514299357],[-87.8632047412753,17.46441646239458],[-87.86200794490122,17.45718600647899],[-87.8528325060326,17.456044329310714],[-87.82969444279883,17.46251373866494],[-87.8117424971864,17.474310305289237],[-87.8189232754313,17.481540081158244],[-87.8169286148077,17.487247596010263],[-87.81054570081221,17.49333541442178],[-87.80057239769417,17.496759722695344],[-87.79418948369869,17.50246675978201],[-87.79418948369869,17.508934518443994],[-87.7965830764469,17.512738974779722],[-87.80615744744034,17.516923784683286],[-87.81054570081221,17.515402046788154],[-87.81573181843362,17.50855406842703],[-87.82650298580097,17.507412713594363],[-87.8288965785494,17.5112172018097],[-87.81613075055827,17.52681477002551],[-87.81054570081221,17.538226775371015],[-87.80894997231337,17.545073633820493],[-87.79339161944927,17.534803249170352],[-87.7842161805807,17.532901262240102],[-87.78341831633116,17.527195181772072],[-87.78461511270541,17.517304217163996]]],[[[-88.63897812430974,17.4578281967419],[-88.63523813564052,17.492312865416295],[-88.64209478153407,17.546999266156035],[-88.64521143875845,17.604045744763482],[-88.64832809598283,17.615928161832073],[-88.63586146708536,17.638502598335833],[-88.63648479872677,17.653352659020584],[-88.63336814145924,17.667607565921855],[-88.6265114958299,17.67176503443693],[-88.61030487784541,17.678891898926565],[-88.5685416710387,17.690769379129847],[-88.5685416710387,17.69908314804354],[-88.57664497982216,17.705615124996257],[-88.57789164271179,17.718084602614567],[-88.57602164845508,17.72995948974136],[-88.56916500282586,17.75370690222951],[-88.57664497982205,17.759049636411703],[-88.57602164845508,17.7685474357221],[-88.57539831736096,17.778638295161898],[-88.57539831736096,17.792883243459073],[-88.56916500282586,17.808313988454472],[-88.56916500282586,17.82671043984493],[-88.57539831736096,17.854004899506265],[-88.57539831736096,17.862904361784842],[-88.56667167670406,17.882481610442596],[-88.56168502520404,17.896125083155084],[-88.55420504780659,17.90739498698713],[-88.54610173902313,17.91451245190467],[-88.52989512145632,17.915698668273137],[-88.50932518377539,17.920443454346525],[-88.48065193731105,17.929932645275017],[-88.34351901943836,17.95721123596178],[-88.29489916687527,17.972627708179346],[-88.2869344870723,17.972105942435462],[-88.27518992511636,17.97137736419313],[-88.25680713312829,17.96846302147611],[-88.21595648363655,17.9628770643572],[-88.1991055902896,17.962148448413075],[-88.17791431626927,17.959476830281744],[-88.17255266849531,17.95243327941489],[-88.17716432343025,17.948197906065275],[-88.18035578042804,17.93415517176777],[-88.19591413329209,17.920870478861275],[-88.20628636853479,17.894298105103587],[-88.2134671467798,17.86810144187342],[-88.21586073952818,17.84152117066094],[-88.22264258564832,17.81151866843487],[-88.22423831414733,17.7830306086355],[-88.2286265675192,17.754917936238428],[-88.22944936502648,17.728772036278315],[-88.24129266247911,17.705615124996484],[-88.2531359599318,17.692550933439293],[-88.27432922905757,17.652758680468935],[-88.28430253217562,17.645630780443298],[-88.2930291724038,17.633750320267666],[-88.2897429690264,17.56509540626297],[-88.27544524167644,17.554628372754735],[-88.23816902394248,17.533449036521176],[-88.23478863269048,17.524139472978163],[-88.22600410900657,17.517058914391612],[-88.22098438118735,17.514465964689748],[-88.20655266370676,17.513867586422407],[-88.19990345453925,17.516543351405346],[-88.18673869442352,17.508934518443994],[-88.18314830530096,17.500944900750483],[-88.18354723742573,17.488769569721626],[-88.18753655867295,17.483062102629617],[-88.19551520116727,17.479257025075242],[-88.21546180740341,17.48001804695275],[-88.22144578927413,17.48382310859006],[-88.22982336389333,17.4853451109592],[-88.23660521001347,17.483442606007713],[-88.24327953145956,17.474885546740495],[-88.26081072834671,17.412631509146195],[-88.27444610370344,17.354074770760747],[-88.29197730059053,17.29549932464198],[-88.29879498826892,17.26573957031553],[-88.30301943013717,17.178878287656346],[-88.30148753077816,17.158631307546784],[-88.30211050331138,17.121302772497984],[-88.30861245852566,17.120368700739732],[-88.31983242453344,17.114411498903394],[-88.32544240755828,17.10726260489082],[-88.33541571065535,17.10607109592786],[-88.34102569389597,17.10070921117017],[-88.37156893457893,17.102496523162756],[-88.40522883252942,17.10070921117017],[-88.47254862852816,17.100709210974742],[-88.52739693357876,17.102518757258963],[-88.54475682553448,17.101919036525942],[-88.56975088696822,17.102318850375696],[-88.58481007079723,17.102818616790614],[-88.57726831154173,17.10964560042879],[-88.56791833973915,17.121560117840545],[-88.5579450368424,17.138239161001025],[-88.54777226752827,17.161634952822396],[-88.5421872177264,17.186028236432662],[-88.54737333559206,17.19022050853124],[-88.5497669281076,17.2005102295318],[-88.55814450253854,17.214991089586874],[-88.56891567002879,17.223755270018046],[-88.57091033060817,17.23061390403666],[-88.57170819477909,17.242806401756525],[-88.56931460203072,17.264903251776673],[-88.57170819477909,17.274807876789794],[-88.5737028554027,17.34107895721081],[-88.58128256577237,17.411132690425518],[-88.57968683769639,17.424455091931236],[-88.58327722639598,17.441201875293416],[-88.5836761588551,17.45984989210575],[-88.5860697513707,17.47583238745358],[-88.58567081943448,17.48838907776826],[-88.58966014059314,17.497140196982286],[-88.60242596838259,17.492574448267533],[-88.60521849329183,17.483442606055007],[-88.60681422193505,17.473168735235276],[-88.60896751062052,17.4577109925537],[-88.61147737477819,17.457910514096113],[-88.61733372388073,17.460005474099773],[-88.61994816541227,17.457311949670157],[-88.6346936156308,17.4558155302567],[-88.63897812430974,17.4578281967419]]],[[[-88.01144791882092,17.87517871848337],[-88.02906476144864,17.876150682954062],[-88.0328945098459,17.88076744156109],[-88.03037368362061,17.884925330611566],[-88.00685222074418,17.88927168270584],[-88.0004693067487,17.894859962205032],[-87.99893740738969,17.90360648114438],[-87.99557441634369,17.90988812302305],[-87.99663955835138,17.914781960960624],[-87.99227042498745,17.92274105028315],[-87.99127791059516,17.930086365983186],[-87.99255449339421,17.93955985871463],[-87.9746823342067,17.967491563672638],[-87.96651220429237,17.991047917240337],[-87.95323574318172,18.009987858789316],[-87.94915067822456,18.02042823846159],[-87.92872535343884,18.044948556260863],[-87.92642750440041,18.055144118016074],[-87.93204446871647,18.063882700265367],[-87.93153383559678,18.068494554554434],[-87.92055522352462,18.079659594942257],[-87.91059787769149,18.08184397630555],[-87.90906597833259,18.089610445370738],[-87.91212977705044,18.094464313925812],[-87.90957661145222,18.101987544659153],[-87.90370433057632,18.1102384586913],[-87.89706610002094,18.126253829485847],[-87.89144913570487,18.13474623464697],[-87.89144913570487,18.14275298193121],[-87.88098115675223,18.173563405873324],[-87.86923659500042,18.185934565927198],[-87.84727937085586,18.186662253904444],[-87.8383432912621,18.177202073413184],[-87.83170506070672,18.16677102351167],[-87.82608809639066,18.144936576659177],[-87.82864126198882,18.131106682904488],[-87.837066708463,18.125525889866708],[-87.86157709820588,18.098104627174337],[-87.87025786123979,18.091309314645684],[-87.87587482555585,18.083785625802193],[-87.88736407074782,18.054658628483253],[-87.89093850258519,18.041064377238172],[-87.89604483378173,18.030625221177388],[-87.91417230952896,18.001246600096238],[-87.9269381375201,17.971863083248138],[-87.9417464979897,17.94538944836313],[-87.961405873096,17.918911851288613],[-87.97238448516833,17.898747357194964],[-87.98055461508255,17.89145842172627],[-87.9854056297192,17.884412166214588],[-87.99255449339421,17.880281472622073],[-88.01144791882092,17.87517871848337]]]]}},{"type":"Feature","properties":{"shapeName":"Cayo","shapeISO":"BZ-CY","shapeID":"66346737B25506523624111","shapeGroup":"BLZ","shapeType":"ADM1"},"geometry":{"type":"Polygon","coordinates":[[[-89.15490176959088,17.328973295661],[-89.14262993196877,17.335890489314806],[-89.12891663998255,17.35314514774609],[-89.11582667964757,17.35493001936902],[-89.10834670230162,17.359094653585885],[-89.09712673629389,17.367423637319916],[-89.08341344478379,17.377536893942477],[-89.07531013606786,17.38348560773636],[-89.06409017008434,17.38289074539972],[-89.05287020410094,17.377536893942477],[-89.04788355214868,17.371587987199746],[-89.04102690625496,17.37039818260928],[-89.03417026049561,17.375157354814405],[-89.0185869742395,17.377536894203047],[-89.0117303285287,17.379916403001232],[-88.99427704801008,17.379916403001232],[-88.97121378442887,17.384080468652428],[-88.96061715005959,17.38467532746637],[-88.94815052098949,17.38229588027224],[-88.93443722918113,17.38289074524323],[-88.91947727450406,17.38467532745682],[-88.91012730283097,17.38943412827632],[-88.90140066287466,17.400735784482436],[-88.89766067393344,17.41084719975123],[-88.8864407079256,17.415010561230645],[-88.87584407364011,17.415010561317672],[-88.86026078730242,17.412631508857373],[-88.84031418100477,17.415010561230645],[-88.82660088935188,17.412631508857373],[-88.819120911879,17.407278528686447],[-88.80291429431219,17.407873312037168],[-88.79855097419812,17.414415801114274],[-88.78982433413393,17.413821038960236],[-88.77673437396959,17.406683743028907],[-88.76551440798602,17.406683743028907],[-88.75055445294265,17.40846809345186],[-88.74556780138357,17.411441971485658],[-88.73871115566482,17.412631508857373],[-88.73123117815146,17.416794829960338],[-88.72312786936811,17.424526459682056],[-88.72001121214362,17.431663058036293],[-88.70505125771439,17.436420635264994],[-88.69881794317928,17.441178088274683],[-88.68635131412037,17.444746096735457],[-88.67824800539324,17.4435567686715],[-88.6707680279984,17.443556768360622],[-88.66578137643944,17.450097978412487],[-88.65019809031753,17.458422815337883],[-88.63897812430974,17.4578281967419],[-88.6346936156308,17.4558155302567],[-88.61994816541227,17.457311949670157],[-88.61733372388073,17.460005474099773],[-88.61147737477819,17.457910514096113],[-88.60896751062052,17.4577109925537],[-88.60681422193505,17.473168735235276],[-88.60521849329183,17.483442606055007],[-88.60242596838259,17.492574448267533],[-88.58966014059314,17.497140196982286],[-88.58567081943448,17.48838907776826],[-88.5860697513707,17.47583238745358],[-88.5836761588551,17.45984989210575],[-88.58327722639598,17.441201875293416],[-88.57968683769639,17.424455091931236],[-88.58128256577237,17.411132690425518],[-88.5737028554027,17.34107895721081],[-88.57170819477909,17.274807876789794],[-88.56931460203072,17.264903251776673],[-88.57170819477909,17.242806401756525],[-88.57091033060817,17.23061390403666],[-88.56891567002879,17.223755270018046],[-88.55814450253854,17.214991089586874],[-88.5497669281076,17.2005102295318],[-88.54737333559206,17.19022050853124],[-88.5421872177264,17.186028236432662],[-88.54777226752827,17.161634952822396],[-88.5579450368424,17.138239161001025],[-88.56791833973915,17.121560117840545],[-88.57726831154173,17.10964560042879],[-88.58481007079723,17.102818616790614],[-88.59459094145336,17.102269654577356],[-88.6055695535257,17.098365184681654],[-88.6088886690813,17.09372852075029],[-88.6086333526062,17.088603652250754],[-88.59561220788419,17.073228201346296],[-88.57442093326375,17.049796506334303],[-88.56676143643284,17.044426328441148],[-88.56088915559161,17.03807955598353],[-88.56139978867657,17.02953548372318],[-88.56829333606464,17.030267848035464],[-88.57901663161232,17.02733837354475],[-88.5815697972617,17.013422743184208],[-88.58718676151074,17.005121698373046],[-88.59152714273557,17.00268014508157],[-88.59561220788419,16.99804110598899],[-88.59842069000865,16.9863209156033],[-88.59918663953022,16.980216359957808],[-88.60301638835716,16.974599993687775],[-88.60582487048174,16.966785638794477],[-88.61220778415594,16.959947811189522],[-88.62522892887796,16.956773021249603],[-88.62880336046948,16.951400176999925],[-88.63007994370167,16.946515640395262],[-88.63161184262754,16.94016555251801],[-88.6356969079506,16.9347922338697],[-88.63876070655022,16.933815250706857],[-88.64616488653729,16.93039576838362],[-88.6497393185731,16.922091052899248],[-88.66020729764574,16.914763058670587],[-88.66786679412206,16.906701936354068],[-88.66276046329511,16.900594795732786],[-88.66556894541958,16.88056198618432],[-88.67067527671833,16.874942645791123],[-88.66556894541958,16.86150441467555],[-88.66556894541958,16.85612885469311],[-88.66684552788286,16.850020078074692],[-88.67220717563913,16.84537727603572],[-88.67705819039264,16.842933650505188],[-88.68778148594038,16.840245625740636],[-88.69288781723913,16.833403208261586],[-88.6905899680649,16.82680492859174],[-88.6803773055534,16.822894729137374],[-88.67271780875876,16.81702927804406],[-88.67373907531788,16.81140805083163],[-88.68241983816654,16.80871957875661],[-88.71203655916031,16.804564592021848],[-88.72071732200885,16.798698574189302],[-88.72990871815875,16.791854656991177],[-88.73552568247482,16.782810531296604],[-88.73858948155458,16.775966041954746],[-88.74241922958998,16.76838792672038],[-88.7498234100525,16.76032056920502],[-88.75697227349985,16.75274183054279],[-88.7587594894186,16.745651769692188],[-88.76105733855042,16.737094448241976],[-88.77969544752148,16.7089748291732],[-88.78224861317085,16.69283474157362],[-88.7776529148453,16.68818809967945],[-88.7720359505733,16.682318496224582],[-88.77892949764441,16.681584782883874],[-88.78556772824555,16.682563066561045],[-88.79348254166877,16.681340210889744],[-88.79833355649248,16.676204133565022],[-88.8081683500751,16.669766722258828],[-88.81241681800242,16.66413136378509],[-88.81192661004678,16.656773839409368],[-88.8140508436228,16.65270359885926],[-88.81878951896368,16.651607749962636],[-88.82091375274143,16.64863327141279],[-88.82173076573287,16.634856137069733],[-88.81290702542543,16.625618640380765],[-88.81094619424607,16.620138559285692],[-88.81666528518599,16.615128062508063],[-88.8207503505526,16.612309600294395],[-88.82646944108319,16.61152668718438],[-88.83349575290657,16.60635937886218],[-88.83758081776654,16.599782602903872],[-88.844116921698,16.593988590277718],[-88.8531040648424,16.587254788743394],[-88.8576793373557,16.58193022048971],[-88.86552266207343,16.58005092595215],[-88.87875827253453,16.577858392462588],[-88.88447736347456,16.571593873445295],[-88.89281089598717,16.567365207878822],[-88.9053928963715,16.558594346443783],[-88.91258261037973,16.548413381343664],[-88.91650427310515,16.547003666693968],[-88.91911871463674,16.549979718550276],[-88.92500120784939,16.551389411327364],[-88.92859606501173,16.551232779315455],[-88.93366154555855,16.548413381343664],[-88.94019764954089,16.543870930866774],[-88.9475507664128,16.539485015833634],[-88.95277964955801,16.534315773252786],[-88.9594791561729,16.529772991406105],[-88.95817193530138,16.5253867554365],[-88.9537600651542,16.521313732972487],[-88.95308730605814,16.515586512208188],[-88.96226274508251,16.514056613383843],[-88.97941682642431,16.50908435877949],[-88.98779440086327,16.507936897289085],[-88.99856556834555,16.504111976280512],[-89.00614527872676,16.499521971918853],[-89.01412392109489,16.504111976504134],[-89.02210256358921,16.512526702341518],[-89.03127800245784,16.51635145662584],[-89.04244810198986,16.502581986643293],[-89.06558616518379,16.481160863538662],[-89.07276694351475,16.47771796207536],[-89.08712849991878,16.47810050953626],[-89.10228792065823,16.474657553486907],[-89.11465481657967,16.471979656797316],[-89.13739394772347,16.46509346581007],[-89.15095763987415,16.458972201841675],[-89.1609309429922,16.446346485031825],[-89.16611706061349,16.433337311690423],[-89.18087754943156,16.41611794856891],[-89.19763269865172,16.398514356777525],[-89.19484017359338,16.442902965148733],[-89.1904519202215,16.507936897289085],[-89.16561527880032,16.80665051007577],[-89.15879759112204,16.93620331742335],[-89.15015977562456,17.04114617249428],[-89.15490176959088,17.328973295661]]]}},{"type":"Feature","properties":{"shapeName":"Stann Creek","shapeISO":"BZ-SC","shapeID":"66346737B48775360277934","shapeGroup":"BLZ","shapeType":"ADM1"},"geometry":{"type":"Polygon","coordinates":[[[-88.58481007079723,17.102818616790614],[-88.56975088696822,17.102318850375696],[-88.54475682553448,17.101919036525942],[-88.52739693357876,17.102518757258963],[-88.47254862852816,17.100709210974742],[-88.40522883252942,17.10070921117017],[-88.37156893457893,17.102496523162756],[-88.34102569389597,17.10070921117017],[-88.33541571065535,17.10607109592786],[-88.32544240755828,17.10726260489082],[-88.31983242453344,17.114411498903394],[-88.30861245852566,17.120368700739732],[-88.30211050331138,17.121302772497984],[-88.29970031485988,17.116178663155665],[-88.28974296902692,17.105930020754954],[-88.28897701934744,17.09446063293791],[-88.29204081806529,17.085675092341546],[-88.2869344868688,17.073716330072386],[-88.26804106144209,17.065662037706716],[-88.26267941368582,17.06541796281431],[-88.25450928377154,17.06834684045674],[-88.25119016849379,17.066882407381172],[-88.24838168633585,17.063465352184494],[-88.24608383729742,17.0595600696509],[-88.245317887618,17.041497075647612],[-88.23970092330194,17.029047239230124],[-88.23536054178498,16.994378624974843],[-88.22029686475548,16.965564616054678],[-88.21902028195638,16.95555193354471],[-88.2200415481957,16.946271409961128],[-88.22489256283228,16.93796739531649],[-88.26114751432692,16.925266428686655],[-88.27110486015994,16.919892684838885],[-88.27493460855726,16.914030243960667],[-88.2782537238349,16.891311563133456],[-88.28821106966791,16.888135615543206],[-88.28514727095006,16.868101483892815],[-88.276721824476,16.849287011642957],[-88.26242409712592,16.833891960575613],[-88.26038156464739,16.81702927804406],[-88.24991358569474,16.806764301957855],[-88.26574321240366,16.803831349602206],[-88.27493460855726,16.79258794560269],[-88.28920169791996,16.785880693599665],[-88.29263315248403,16.773677971824554],[-88.30603216554346,16.765698845522877],[-88.31191465908171,16.753338361550163],[-88.31289507467147,16.744576013253777],[-88.31142445128688,16.733935476871977],[-88.30129349019313,16.714061119562245],[-88.30243730838112,16.706079495688584],[-88.30733938632977,16.70216681306681],[-88.30848320451776,16.69684543603995],[-88.30881000971425,16.666949063602033],[-88.32498686694464,16.66507060144994],[-88.33233998386743,16.660687451402964],[-88.33903949039717,16.65332979538249],[-88.34819003590115,16.636421770381958],[-88.36714473730234,16.61998198324079],[-88.37024938666968,16.613249092504986],[-88.36861536068687,16.584749127880627],[-88.37368084123375,16.57049756165941],[-88.38299478933601,16.56110034749065],[-88.38136076335314,16.557497960519527],[-88.37662208800288,16.55452202483889],[-88.37417104902852,16.55013635166989],[-88.37433445162685,16.546377123837033],[-88.37596847760972,16.5432443779992],[-88.37972673737033,16.54230454432593],[-88.3857726335068,16.545750578740353],[-88.3927989452331,16.544967394506784],[-88.39590359460055,16.541521346100353],[-88.39623039979716,16.53776195035931],[-88.3914917244469,16.532749308770974],[-88.38642624389996,16.531496128032018],[-88.38168756854975,16.526483323726495],[-88.38136076341522,16.510817471662392],[-88.38652888913566,16.50757831417991],[-88.3977488551435,16.512359367613215],[-88.41520213559994,16.514152232161962],[-88.42766876449758,16.512956990977557],[-88.45073202795794,16.514152232161962],[-88.46943197130429,16.514152232161962],[-88.4769119487845,16.516542692714665],[-88.48314526331961,16.517737911048016],[-88.4924952351223,16.517737911048016],[-88.50309186932759,16.51355461249375],[-88.50994851564082,16.516542692714665],[-88.55919169936641,16.521323524011393],[-88.55856836793657,16.52729939752669],[-88.55171172230729,16.536262859773956],[-88.55046505922053,16.544628383414874],[-88.55046505922053,16.554188536845743],[-88.54921839624848,16.571515106832862],[-88.5545062419173,16.58177361331593],[-88.57186776762939,16.605507933669628],[-88.57901663161232,16.611135229006322],[-88.58744207798577,16.617251668213214],[-88.59025056011035,16.62165538279106],[-88.59050587658538,16.62703756406296],[-88.58871866057768,16.63217496033542],[-88.58591017841957,16.637801474142123],[-88.58259106316217,16.644650920069694],[-88.58335701282141,16.651500121610013],[-88.58795271093601,16.659572080252303],[-88.59229309280948,16.665197789440924],[-88.60097385565803,16.668132876387403],[-88.60786740256424,16.67278000574197],[-88.63237779230712,16.6850087533997],[-88.63927133950045,16.693079298453597],[-88.65024995152322,16.695524850895936],[-88.65918603108832,16.695280296934186],[-88.67731350686773,16.692101069055866],[-88.68599426986958,16.69087827445304],[-88.7005473141873,16.685987019279878],[-88.7138237748901,16.68623158515021],[-88.72837681895703,16.6847641863705],[-88.73884479802973,16.685008753578188],[-88.7531425251272,16.689900033739207],[-88.75978075565797,16.69063371467496],[-88.76565303689898,16.68672071527078],[-88.7720359505733,16.682318496224582],[-88.7776529148453,16.68818809967945],[-88.78224861317085,16.69283474157362],[-88.77969544752148,16.7089748291732],[-88.76105733855042,16.737094448241976],[-88.7587594894186,16.745651769692188],[-88.75697227349985,16.75274183054279],[-88.7498234100525,16.76032056920502],[-88.74241922958998,16.76838792672038],[-88.73858948155458,16.775966041954746],[-88.73552568247482,16.782810531296604],[-88.72990871815875,16.791854656991177],[-88.72071732200885,16.798698574189302],[-88.71203655916031,16.804564592021848],[-88.68241983816654,16.80871957875661],[-88.67373907531788,16.81140805083163],[-88.67271780875876,16.81702927804406],[-88.6803773055534,16.822894729137374],[-88.6905899680649,16.82680492859174],[-88.69288781723913,16.833403208261586],[-88.68778148594038,16.840245625740636],[-88.67705819039264,16.842933650505188],[-88.67220717563913,16.84537727603572],[-88.66684552788286,16.850020078074692],[-88.66556894541958,16.85612885469311],[-88.66556894541958,16.86150441467555],[-88.67067527671833,16.874942645791123],[-88.66556894541958,16.88056198618432],[-88.66276046329511,16.900594795732786],[-88.66786679412206,16.906701936354068],[-88.66020729764574,16.914763058670587],[-88.6497393185731,16.922091052899248],[-88.64616488653729,16.93039576838362],[-88.63876070655022,16.933815250706857],[-88.6356969079506,16.9347922338697],[-88.63161184262754,16.94016555251801],[-88.63007994370167,16.946515640395262],[-88.62880336046948,16.951400176999925],[-88.62522892887796,16.956773021249603],[-88.61220778415594,16.959947811189522],[-88.60582487048174,16.966785638794477],[-88.60301638835716,16.974599993687775],[-88.59918663953022,16.980216359957808],[-88.59842069000865,16.9863209156033],[-88.59561220788419,16.99804110598899],[-88.59152714273557,17.00268014508157],[-88.58718676151074,17.005121698373046],[-88.5815697972617,17.013422743184208],[-88.57901663161232,17.02733837354475],[-88.56829333606464,17.030267848035464],[-88.56139978867657,17.02953548372318],[-88.56088915559161,17.03807955598353],[-88.56676143643284,17.044426328441148],[-88.57442093326375,17.049796506334303],[-88.59561220788419,17.073228201346296],[-88.6086333526062,17.088603652250754],[-88.6088886690813,17.09372852075029],[-88.6055695535257,17.098365184681654],[-88.59459094145336,17.102269654577356],[-88.58481007079723,17.102818616790614]]]}},{"type":"Feature","properties":{"shapeName":"Toledo","shapeISO":"BZ-TOL","shapeID":"66346737B22858594960980","shapeGroup":"BLZ","shapeType":"ADM1"},"geometry":{"type":"Polygon","coordinates":[[[-89.19763269865172,16.398514356777525],[-89.18087754943156,16.41611794856891],[-89.16611706061349,16.433337311690423],[-89.1609309429922,16.446346485031825],[-89.15095763987415,16.458972201841675],[-89.13739394772347,16.46509346581007],[-89.11465481657967,16.471979656797316],[-89.10228792065823,16.474657553486907],[-89.08712849991878,16.47810050953626],[-89.07276694351475,16.47771796207536],[-89.06558616518379,16.481160863538662],[-89.04244810198986,16.502581986643293],[-89.03127800245784,16.51635145662584],[-89.02210256358921,16.512526702341518],[-89.01412392109489,16.504111976504134],[-89.00614527872676,16.499521971918853],[-88.99856556834555,16.504111976280512],[-88.98779440086327,16.507936897289085],[-88.97941682642431,16.50908435877949],[-88.96226274508251,16.514056613383843],[-88.95308730605814,16.515586512208188],[-88.9537600651542,16.521313732972487],[-88.95817193530138,16.5253867554365],[-88.9594791561729,16.529772991406105],[-88.95277964955801,16.534315773252786],[-88.9475507664128,16.539485015833634],[-88.94019764954089,16.543870930866774],[-88.93366154555855,16.548413381343664],[-88.92859606501173,16.551232779315455],[-88.92500120784939,16.551389411327364],[-88.91911871463674,16.549979718550276],[-88.91650427310515,16.547003666693968],[-88.91258261037973,16.548413381343664],[-88.9053928963715,16.558594346443783],[-88.89281089598717,16.567365207878822],[-88.88447736347456,16.571593873445295],[-88.87875827253453,16.577858392462588],[-88.86552266207343,16.58005092595215],[-88.8576793373557,16.58193022048971],[-88.8531040648424,16.587254788743394],[-88.844116921698,16.593988590277718],[-88.83758081776654,16.599782602903872],[-88.83349575290657,16.60635937886218],[-88.82646944108319,16.61152668718438],[-88.8207503505526,16.612309600294395],[-88.81666528518599,16.615128062508063],[-88.81094619424607,16.620138559285692],[-88.81290702542543,16.625618640380765],[-88.82173076573287,16.634856137069733],[-88.82091375274143,16.64863327141279],[-88.81878951896368,16.651607749962636],[-88.8140508436228,16.65270359885926],[-88.81192661004678,16.656773839409368],[-88.81241681800242,16.66413136378509],[-88.8081683500751,16.669766722258828],[-88.79833355649248,16.676204133565022],[-88.79348254166877,16.681340210889744],[-88.78556772824555,16.682563066561045],[-88.77892949764441,16.681584782883874],[-88.7720359505733,16.682318496224582],[-88.76565303689898,16.68672071527078],[-88.75978075565797,16.69063371467496],[-88.7531425251272,16.689900033739207],[-88.73884479802973,16.685008753578188],[-88.72837681895703,16.6847641863705],[-88.7138237748901,16.68623158515021],[-88.7005473141873,16.685987019279878],[-88.68599426986958,16.69087827445304],[-88.67731350686773,16.692101069055866],[-88.65918603108832,16.695280296934186],[-88.65024995152322,16.695524850895936],[-88.63927133950045,16.693079298453597],[-88.63237779230712,16.6850087533997],[-88.60786740256424,16.67278000574197],[-88.60097385565803,16.668132876387403],[-88.59229309280948,16.665197789440924],[-88.58795271093601,16.659572080252303],[-88.58335701282141,16.651500121610013],[-88.58259106316217,16.644650920069694],[-88.58591017841957,16.637801474142123],[-88.58871866057768,16.63217496033542],[-88.59050587658538,16.62703756406296],[-88.59025056011035,16.62165538279106],[-88.58744207798577,16.617251668213214],[-88.57901663161232,16.611135229006322],[-88.57186776762939,16.605507933669628],[-88.5545062419173,16.58177361331593],[-88.54921839624848,16.571515106832862],[-88.55046505922053,16.554188536845743],[-88.55046505922053,16.544628383414874],[-88.55171172230729,16.536262859773956],[-88.55856836793657,16.52729939752669],[-88.55919169936641,16.521323524011393],[-88.50994851564082,16.516542692714665],[-88.50309186932759,16.51355461249375],[-88.4924952351223,16.517737911048016],[-88.48314526331961,16.517737911048016],[-88.4769119487845,16.516542692714665],[-88.46943197130429,16.514152232161962],[-88.42766876449758,16.512956990977557],[-88.41520213559994,16.514152232161962],[-88.3977488551435,16.512359367613215],[-88.38652888913566,16.50757831417991],[-88.38136076341522,16.510817471662392],[-88.38460902828552,16.50219948773946],[-88.39857165265079,16.485368771326193],[-88.4177203946374,16.473509887873377],[-88.42330544438346,16.457824443359073],[-88.43766700087349,16.441755111613645],[-88.44285311849478,16.431424124464172],[-88.45641681073533,16.415352608135038],[-88.47157623147467,16.4065509767579],[-88.4743687563477,16.400810567878295],[-88.47835807759492,16.38052643442751],[-88.48354419521638,16.371340471887038],[-88.48633672008941,16.36024018989957],[-88.49431536258385,16.349904877053802],[-88.51306517244564,16.33306097319138],[-88.51904915431652,16.323107075047403],[-88.52942138955922,16.31238692604495],[-88.53500643930528,16.30855815911889],[-88.5389957605525,16.302431976334162],[-88.54497974242332,16.279457085166882],[-88.554155181292,16.275244729820542],[-88.57210712690437,16.272947043339286],[-88.58686761551905,16.257245466013842],[-88.5916548010157,16.26222415083754],[-88.6056174253809,16.261075234770033],[-88.61359606787533,16.265287894161474],[-88.62237257461925,16.274861783941788],[-88.63314374198671,16.282903490456363],[-88.64710636635186,16.288264444990375],[-88.65548394097107,16.28328642063974],[-88.65787753371939,16.273712941821884],[-88.65747860159468,16.26835158968771],[-88.66266471921602,16.25379861030649],[-88.67463268295768,16.254947568926866],[-88.68101559695316,16.25035169414332],[-88.69218569644539,16.2457557119036],[-88.7061483208106,16.243457680495737],[-88.72808958767024,16.237329465465052],[-88.73746449260119,16.22648492972894],[-88.75117778438846,16.21631015327148],[-88.75180111583336,16.201944868374426],[-88.73933448693577,16.17380982120841],[-88.74432113849474,16.167823123704807],[-88.75491777305774,16.160040145826656],[-88.75678776739232,16.151658134723846],[-88.75678776739232,16.141479500944456],[-88.76177441895135,16.1348930472397],[-88.77735770507331,16.131899132229933],[-88.78857767108104,16.125911166467574],[-88.8041609572029,16.112737004965595],[-88.80977094020682,16.10435299196905],[-88.81226426598636,16.089979574248844],[-88.8209909062146,16.081594600181745],[-88.83345753511213,16.081594600181745],[-88.8396908495609,16.075006158081237],[-88.85215747845837,16.066021567029452],[-88.85714413001745,16.05763558261981],[-88.85839079290713,16.035470923539606],[-88.87709073625348,16.019894283040742],[-88.89641401104467,16.009109742623764],[-88.90763397705246,16.00671309897581],[-88.92835351428016,15.994345960771113],[-88.9343008754285,15.985074130996054],[-88.93886629128451,15.966054716514805],[-88.93277907014317,15.951423168309077],[-88.92973545957256,15.936790552046034],[-88.91478982203967,15.912646135277043],[-88.91558768628909,15.901903777821929],[-88.92077380391038,15.896148707403313],[-88.93593322464983,15.8930792691948],[-88.95348623813749,15.894230314010201],[-88.96146488063192,15.89921809878382],[-88.97742216562085,15.901903777821929],[-88.99537411123322,15.909193297267223],[-89.00774100709958,15.906124058133457],[-89.01053353197261,15.902287443328419],[-89.02090576721531,15.900752776911133],[-89.02369829208845,15.904589420995705],[-89.02569295271206,15.912646135277043],[-89.03207586670754,15.91648255237925],[-89.05321926931776,15.91993526514102],[-89.06319257243581,15.91916800076666],[-89.06997441855606,15.912646135277043],[-89.0767562646763,15.91111154792901],[-89.09071888904151,15.911878843067711],[-89.09630393878757,15.914947994327804],[-89.11266015590115,15.913029780283125],[-89.12502705176757,15.903054772145424],[-89.12981423726421,15.904589420995705],[-89.13340462638666,15.908425991876811],[-89.13938860825749,15.908425991876811],[-89.14976084350025,15.90343843545594],[-89.15773948599457,15.903822098034482],[-89.16492026423958,15.904205759881108],[-89.17090424611041,15.909576948864128],[-89.17808502435543,15.912262489538591],[-89.1854940038715,15.911078768216214],[-89.18526580260038,15.901903777821929],[-89.2080049337095,15.897299734659214],[-89.21339598117675,15.892409630660666],[-89.21358998345556,15.886172862052774],[-89.22037182957575,15.88540546885423],[-89.22595687932193,15.891160846538185],[-89.227153675696,15.921086156207366],[-89.2167814404533,16.125456073670534],[-89.21638250832865,16.17641996453051],[-89.21279211920614,16.19978998535072],[-89.2048134767117,16.318895657970472],[-89.20241988396344,16.32961545039558],[-89.20241988396344,16.34339717722611],[-89.19763269865172,16.398514356777525]]]}}],"meta":{"provider":"geoBoundaries","license":"Creative Commons Attribution 2.5 Generic","sourceName":"geoBoundaries, Wikimedia Commons","sourceDataUpdateDate":"Wed Feb 22 15:10:30 2023","sourceUrl":"commons.wikimedia.org/wiki/File"}}